{
 "type": "FeatureCollection",
 "features": [
  {
   "type": "Feature",
   "geometry": {
    "type": "LineString",
    "coordinates": [
     [
      -3.53451,
      40.41761
     ],
     [
      -3.52536,
      40.42337
     ],
     [
      -3.56196,
      40.42386
     ],
     [
      -3.60096,
      40.4338
     ],
     [
      -3.61712,
      40.44362
     ],
     [
      -3.62702,
      40.44088
     ],
     [
      -3.63774,
      40.43793
     ],
     [
      -3.64417,
      40.43503
     ],
     [
      -3.64815,
      40.43311
     ],
     [
      -3.64947,
      40.427
     ],
     [
      -3.64045,
      40.43031
     ],
     [
      -3.6521,
      40.43937
     ],
     [
      -3.6629,
      40.43931
     ],
     [
      -3.65618,
      40.45594
     ],
     [
      -3.64556,
      40.45924
     ],
     [
      -3.65212,
      40.47473
     ],
     [
      -3.63858,
      40.46982
     ],
     [
      -3.72559,
      40.4953
     ]
    ]
   },
   "properties": {
    "lid": "137",
    "name": "Línea 7 Hospital del Henares - Pitis",
    "type": "Metro",
    "operator": "Metro de Madrid",
    "stroke": "#FF6600",
    "stroke-width": 3,
    "stroke-opacity": 0.8,
    "total_sta": 19,
    "coords_sta": 18
   }
  },
  {
   "type": "Feature",
   "geometry": {
    "type": "Point",
    "coordinates": [
     -3.53451,
     40.41761
    ]
   },
   "properties": {
    "id": "EST-HOSPITALDELHENARES",
    "name": "Hospital del Henares",
    "province": "Madrid",
    "marker-symbol": "rail",
    "marker-size": "small",
    "marker-color": "#FF6600"
   }
  },
  {
   "type": "Feature",
   "geometry": {
    "type": "Point",
    "coordinates": [
     -3.52536,
     40.42337
    ]
   },
   "properties": {
    "id": "EST-JARAMA",
    "name": "Jarama",
    "province": "Madrid",
    "marker-symbol": "rail",
    "marker-size": "small",
    "marker-color": "#FF6600"
   }
  },
  {
   "type": "Feature",
   "geometry": {
    "type": "Point",
    "coordinates": [
     -3.56196,
     40.42386
    ]
   },
   "properties": {
    "id": "EST-COSLADACENTRAL",
    "name": "Coslada Central",
    "province": "Madrid",
    "marker-symbol": "rail",
    "marker-size": "small",
    "marker-color": "#FF6600"
   }
  },
  {
   "type": "Feature",
   "geometry": {
    "type": "Point",
    "coordinates": [
     -3.60096,
     40.4338
    ]
   },
   "properties": {
    "id": "EST-ESTADIOMETROPOLITANO",
    "name": "Estadio Metropolitano",
    "province": "Madrid",
    "marker-symbol": "rail",
    "marker-size": "small",
    "marker-color": "#FF6600"
   }
  },
  {
   "type": "Feature",
   "geometry": {
    "type": "Point",
    "coordinates": [
     -3.61712,
     40.44362
    ]
   },
   "properties": {
    "id": "EST-TORREARIAS",
    "name": "Torre Arias",
    "province": "Madrid",
    "marker-symbol": "rail",
    "marker-size": "small",
    "marker-color": "#FF6600"
   }
  },
  {
   "type": "Feature",
   "geometry": {
    "type": "Point",
    "coordinates": [
     -3.62702,
     40.44088
    ]
   },
   "properties": {
    "id": "EST-SUANZES",
    "name": "Suanzes",
    "province": "Madrid",
    "marker-symbol": "rail",
    "marker-size": "small",
    "marker-color": "#FF6600"
   }
  },
  {
   "type": "Feature",
   "geometry": {
    "type": "Point",
    "coordinates": [
     -3.63774,
     40.43793
    ]
   },
   "properties": {
    "id": "EST-CIUDADLINEAL",
    "name": "Ciudad Lineal",
    "province": "Madrid",
    "marker-symbol": "rail",
    "marker-size": "small",
    "marker-color": "#FF6600"
   }
  },
  {
   "type": "Feature",
   "geometry": {
    "type": "Point",
    "coordinates": [
     -3.64417,
     40.43503
    ]
   },
   "properties": {
    "id": "EST-PUEBLONUEVO",
    "name": "Pueblo Nuevo",
    "province": "Madrid",
    "marker-symbol": "rail",
    "marker-size": "small",
    "marker-color": "#FF6600"
   }
  },
  {
   "type": "Feature",
   "geometry": {
    "type": "Point",
    "coordinates": [
     -3.64815,
     40.43311
    ]
   },
   "properties": {
    "id": "EST-QUINTANA-Madrid-Madrid",
    "name": "Quintana",
    "province": "Madrid",
    "marker-symbol": "rail",
    "marker-size": "small",
    "marker-color": "#FF6600"
   }
  },
  {
   "type": "Feature",
   "geometry": {
    "type": "Point",
    "coordinates": [
     -3.64947,
     40.427
    ]
   },
   "properties": {
    "id": "EST-LAELIPA",
    "name": "La Elipa",
    "province": "Madrid",
    "marker-symbol": "rail",
    "marker-size": "small",
    "marker-color": "#FF6600"
   }
  },
  {
   "type": "Feature",
   "geometry": {
    "type": "Point",
    "coordinates": [
     -3.64045,
     40.43031
    ]
   },
   "properties": {
    "id": "EST-ASCAO",
    "name": "Ascao",
    "province": "Madrid",
    "marker-symbol": "rail",
    "marker-size": "small",
    "marker-color": "#FF6600"
   }
  },
  {
   "type": "Feature",
   "geometry": {
    "type": "Point",
    "coordinates": [
     -3.6521,
     40.43937
    ]
   },
   "properties": {
    "id": "EST-BARRIODELACONCEPCION",
    "name": "Barrio de la Concepción",
    "province": "Madrid",
    "marker-symbol": "rail",
    "marker-size": "small",
    "marker-color": "#FF6600"
   }
  },
  {
   "type": "Feature",
   "geometry": {
    "type": "Point",
    "coordinates": [
     -3.6629,
     40.43931
    ]
   },
   "properties": {
    "id": "EST-PARQUEDELASAVENIDAS",
    "name": "Parque de las Avenidas",
    "province": "Madrid",
    "marker-symbol": "rail",
    "marker-size": "small",
    "marker-color": "#FF6600"
   }
  },
  {
   "type": "Feature",
   "geometry": {
    "type": "Point",
    "coordinates": [
     -3.65618,
     40.45594
    ]
   },
   "properties": {
    "id": "EST-ARTUROSORIA",
    "name": "Arturo Soria",
    "province": "Madrid",
    "marker-symbol": "rail",
    "marker-size": "small",
    "marker-color": "#FF6600"
   }
  },
  {
   "type": "Feature",
   "geometry": {
    "type": "Point",
    "coordinates": [
     -3.64556,
     40.45924
    ]
   },
   "properties": {
    "id": "EST-ESPERANZA",
    "name": "Esperanza",
    "province": "Madrid",
    "marker-symbol": "rail",
    "marker-size": "small",
    "marker-color": "#FF6600"
   }
  },
  {
   "type": "Feature",
   "geometry": {
    "type": "Point",
    "coordinates": [
     -3.65212,
     40.47473
    ]
   },
   "properties": {
    "id": "EST-HORTALEZA",
    "name": "Hortaleza",
    "province": "Madrid",
    "marker-symbol": "rail",
    "marker-size": "small",
    "marker-color": "#FF6600"
   }
  },
  {
   "type": "Feature",
   "geometry": {
    "type": "Point",
    "coordinates": [
     -3.63858,
     40.46982
    ]
   },
   "properties": {
    "id": "EST-MARDECRISTAL",
    "name": "Mar de Cristal",
    "province": "Madrid",
    "marker-symbol": "rail",
    "marker-size": "small",
    "marker-color": "#FF6600"
   }
  },
  {
   "type": "Feature",
   "geometry": {
    "type": "Point",
    "coordinates": [
     -3.72559,
     40.4953
    ]
   },
   "properties": {
    "id": "EST-PITIS",
    "name": "Pitis",
    "province": "Madrid",
    "marker-symbol": "rail",
    "marker-size": "small",
    "marker-color": "#FF6600"
   }
  }
 ]
}