{
 "type": "FeatureCollection",
 "features": [
  {
   "type": "Feature",
   "geometry": {
    "type": "LineString",
    "coordinates": [
     [
      2.14323,
      41.39222
     ],
     [
      2.13653,
      41.39047
     ],
     [
      2.12622,
      41.38794
     ],
     [
      2.1216,
      41.38673
     ],
     [
      2.11786,
      41.38581
     ],
     [
      2.11169,
      41.38424
     ],
     [
      2.11487,
      41.38073
     ],
     [
      2.11204,
      41.3759
     ],
     [
      2.06625,
      41.35634
     ],
     [
      2.05892,
      41.36468
     ],
     [
      2.06293,
      41.36779
     ],
     [
      2.09166,
      41.42751
     ]
    ]
   },
   "properties": {
    "lid": "188",
    "name": "T2 Francesc Macià - Llevant-Les Planes",
    "type": "Tranvía",
    "operator": "Tram",
    "stroke": "#94C11F",
    "stroke-width": 3,
    "stroke-opacity": 0.8,
    "total_sta": 17,
    "coords_sta": 12
   }
  },
  {
   "type": "Feature",
   "geometry": {
    "type": "Point",
    "coordinates": [
     2.14323,
     41.39222
    ]
   },
   "properties": {
    "id": "EST-FRANCESCMACIA",
    "name": "Francesc Macià",
    "province": "Barcelona",
    "marker-symbol": "rail",
    "marker-size": "small",
    "marker-color": "#94C11F"
   }
  },
  {
   "type": "Feature",
   "geometry": {
    "type": "Point",
    "coordinates": [
     2.13653,
     41.39047
    ]
   },
   "properties": {
    "id": "EST-LILLA",
    "name": "L'Illa",
    "province": "Barcelona",
    "marker-symbol": "rail",
    "marker-size": "small",
    "marker-color": "#94C11F"
   }
  },
  {
   "type": "Feature",
   "geometry": {
    "type": "Point",
    "coordinates": [
     2.12622,
     41.38794
    ]
   },
   "properties": {
    "id": "EST-MARIACRISTINA",
    "name": "Maria Cristina",
    "province": "Barcelona",
    "marker-symbol": "rail",
    "marker-size": "small",
    "marker-color": "#94C11F"
   }
  },
  {
   "type": "Feature",
   "geometry": {
    "type": "Point",
    "coordinates": [
     2.1216,
     41.38673
    ]
   },
   "properties": {
    "id": "EST-PIUSXII",
    "name": "Pius XII",
    "province": "Barcelona",
    "marker-symbol": "rail",
    "marker-size": "small",
    "marker-color": "#94C11F"
   }
  },
  {
   "type": "Feature",
   "geometry": {
    "type": "Point",
    "coordinates": [
     2.11786,
     41.38581
    ]
   },
   "properties": {
    "id": "EST-PALAUREIAL",
    "name": "Palau Reial",
    "province": "Barcelona",
    "marker-symbol": "rail",
    "marker-size": "small",
    "marker-color": "#94C11F"
   }
  },
  {
   "type": "Feature",
   "geometry": {
    "type": "Point",
    "coordinates": [
     2.11169,
     41.38424
    ]
   },
   "properties": {
    "id": "EST-ZONAUNIVERSITARIA",
    "name": "Zona Universitària",
    "province": "Barcelona",
    "marker-symbol": "rail",
    "marker-size": "small",
    "marker-color": "#94C11F"
   }
  },
  {
   "type": "Feature",
   "geometry": {
    "type": "Point",
    "coordinates": [
     2.11487,
     41.38073
    ]
   },
   "properties": {
    "id": "EST-AVINGUDADEXILE",
    "name": "Avinguda de Xile",
    "province": "Barcelona",
    "marker-symbol": "rail",
    "marker-size": "small",
    "marker-color": "#94C11F"
   }
  },
  {
   "type": "Feature",
   "geometry": {
    "type": "Point",
    "coordinates": [
     2.11204,
     41.3759
    ]
   },
   "properties": {
    "id": "EST-ERNESTLLUCH",
    "name": "Ernest Lluch",
    "province": "Barcelona",
    "marker-symbol": "rail",
    "marker-size": "small",
    "marker-color": "#94C11F"
   }
  },
  {
   "type": "Feature",
   "geometry": {
    "type": "Point",
    "coordinates": [
     2.06625,
     41.35634
    ]
   },
   "properties": {
    "id": "EST-FONTSANTAFATJO",
    "name": "Fontsanta | Fatjó",
    "province": "Barcelona",
    "marker-symbol": "rail",
    "marker-size": "small",
    "marker-color": "#94C11F"
   }
  },
  {
   "type": "Feature",
   "geometry": {
    "type": "Point",
    "coordinates": [
     2.05892,
     41.36468
    ]
   },
   "properties": {
    "id": "EST-BONVIATGE",
    "name": "Bon Viatge",
    "province": "Barcelona",
    "marker-symbol": "rail",
    "marker-size": "small",
    "marker-color": "#94C11F"
   }
  },
  {
   "type": "Feature",
   "geometry": {
    "type": "Point",
    "coordinates": [
     2.06293,
     41.36779
    ]
   },
   "properties": {
    "id": "EST-LAFONTSANTA",
    "name": "La Fontsanta",
    "province": "Barcelona",
    "marker-symbol": "rail",
    "marker-size": "small",
    "marker-color": "#94C11F"
   }
  },
  {
   "type": "Feature",
   "geometry": {
    "type": "Point",
    "coordinates": [
     2.09166,
     41.42751
    ]
   },
   "properties": {
    "id": "EST-LLEVANTLESPLANES",
    "name": "Llevant-Les Planes",
    "province": "Barcelona",
    "marker-symbol": "rail",
    "marker-size": "small",
    "marker-color": "#94C11F"
   }
  }
 ]
}