{
 "type": "FeatureCollection",
 "features": [
  {
   "type": "Feature",
   "geometry": {
    "type": "LineString",
    "coordinates": [
     [
      -0.37719,
      39.46691
     ],
     [
      -0.39259,
      39.42233
     ],
     [
      -0.39532,
      39.40917
     ],
     [
      -0.39919,
      39.40007
     ],
     [
      -0.41494,
      39.36175
     ],
     [
      -0.37906,
      39.27928
     ],
     [
      -0.30799,
      39.2058
     ],
     [
      -0.26349,
      39.17794
     ],
     [
      -0.22614,
      39.07899
     ],
     [
      -0.21498,
      39.02621
     ],
     [
      -0.18006,
      38.97035
     ],
     [
      -0.16242,
      38.99022
     ]
    ]
   },
   "properties": {
    "lid": "199",
    "name": "C-1 Valencia-Nord - Gandia",
    "type": "Cercanías",
    "operator": "Renfe",
    "stroke": "#EC1C24",
    "stroke-width": 3,
    "stroke-opacity": 0.8,
    "total_sta": 12,
    "coords_sta": 12
   }
  },
  {
   "type": "Feature",
   "geometry": {
    "type": "Point",
    "coordinates": [
     -0.37719,
     39.46691
    ]
   },
   "properties": {
    "id": "EST-VALENCIANORD",
    "name": "València-Nord",
    "province": "Valencia",
    "marker-symbol": "rail",
    "marker-size": "small",
    "marker-color": "#EC1C24"
   }
  },
  {
   "type": "Feature",
   "geometry": {
    "type": "Point",
    "coordinates": [
     -0.39259,
     39.42233
    ]
   },
   "properties": {
    "id": "EST-ALFAFARBENETUSSER",
    "name": "Alfafar-Benetússer",
    "province": "Valencia",
    "marker-symbol": "rail",
    "marker-size": "small",
    "marker-color": "#EC1C24"
   }
  },
  {
   "type": "Feature",
   "geometry": {
    "type": "Point",
    "coordinates": [
     -0.39532,
     39.40917
    ]
   },
   "properties": {
    "id": "EST-MASSANASSA",
    "name": "Massanassa",
    "province": "Valencia",
    "marker-symbol": "rail",
    "marker-size": "small",
    "marker-color": "#EC1C24"
   }
  },
  {
   "type": "Feature",
   "geometry": {
    "type": "Point",
    "coordinates": [
     -0.39919,
     39.40007
    ]
   },
   "properties": {
    "id": "EST-CATARROJA",
    "name": "Catarroja",
    "province": "Valencia",
    "marker-symbol": "rail",
    "marker-size": "small",
    "marker-color": "#EC1C24"
   }
  },
  {
   "type": "Feature",
   "geometry": {
    "type": "Point",
    "coordinates": [
     -0.41494,
     39.36175
    ]
   },
   "properties": {
    "id": "EST-SILLA",
    "name": "Silla",
    "province": "Valencia",
    "marker-symbol": "rail",
    "marker-size": "small",
    "marker-color": "#EC1C24"
   }
  },
  {
   "type": "Feature",
   "geometry": {
    "type": "Point",
    "coordinates": [
     -0.37906,
     39.27928
    ]
   },
   "properties": {
    "id": "EST-SOLLANA",
    "name": "Sollana",
    "province": "Valencia",
    "marker-symbol": "rail",
    "marker-size": "small",
    "marker-color": "#EC1C24"
   }
  },
  {
   "type": "Feature",
   "geometry": {
    "type": "Point",
    "coordinates": [
     -0.30799,
     39.2058
    ]
   },
   "properties": {
    "id": "EST-SUECA",
    "name": "Sueca",
    "province": "Valencia",
    "marker-symbol": "rail",
    "marker-size": "small",
    "marker-color": "#EC1C24"
   }
  },
  {
   "type": "Feature",
   "geometry": {
    "type": "Point",
    "coordinates": [
     -0.26349,
     39.17794
    ]
   },
   "properties": {
    "id": "EST-CULLERA",
    "name": "Cullera",
    "province": "Valencia",
    "marker-symbol": "rail",
    "marker-size": "small",
    "marker-color": "#EC1C24"
   }
  },
  {
   "type": "Feature",
   "geometry": {
    "type": "Point",
    "coordinates": [
     -0.22614,
     39.07899
    ]
   },
   "properties": {
    "id": "EST-TAVERNESDELAVALLDIGNA",
    "name": "Tavernes de la Valldigna",
    "province": "Valencia",
    "marker-symbol": "rail",
    "marker-size": "small",
    "marker-color": "#EC1C24"
   }
  },
  {
   "type": "Feature",
   "geometry": {
    "type": "Point",
    "coordinates": [
     -0.21498,
     39.02621
    ]
   },
   "properties": {
    "id": "EST-XERACO",
    "name": "Xeraco",
    "province": "Valencia",
    "marker-symbol": "rail",
    "marker-size": "small",
    "marker-color": "#EC1C24"
   }
  },
  {
   "type": "Feature",
   "geometry": {
    "type": "Point",
    "coordinates": [
     -0.18006,
     38.97035
    ]
   },
   "properties": {
    "id": "EST-GANDIA",
    "name": "Gandia",
    "province": "Valencia",
    "marker-symbol": "rail",
    "marker-size": "small",
    "marker-color": "#EC1C24"
   }
  },
  {
   "type": "Feature",
   "geometry": {
    "type": "Point",
    "coordinates": [
     -0.16242,
     38.99022
    ]
   },
   "properties": {
    "id": "EST-PLATJAIGRAUDEGANDIA",
    "name": "Platja i Grau de Gandia",
    "province": "Valencia",
    "marker-symbol": "rail",
    "marker-size": "small",
    "marker-color": "#EC1C24"
   }
  }
 ]
}