{
 "type": "FeatureCollection",
 "features": [
  {
   "type": "Feature",
   "geometry": {
    "type": "LineString",
    "coordinates": [
     [
      -0.4575,
      39.59073
     ],
     [
      -0.38961,
      39.54975
     ],
     [
      -0.46093,
      39.4361
     ],
     [
      -0.46467,
      39.36306
     ],
     [
      -0.52513,
      39.22739
     ],
     [
      -0.52366,
      39.11701
     ],
     [
      -0.05189,
      39.98817
     ]
    ]
   },
   "properties": {
    "lid": "204",
    "name": "L1 Bétera - Castelló",
    "type": "Metro",
    "operator": "Metrovalencia",
    "stroke": "#E61C10",
    "stroke-width": 3,
    "stroke-opacity": 0.8,
    "total_sta": 7,
    "coords_sta": 7
   }
  },
  {
   "type": "Feature",
   "geometry": {
    "type": "Point",
    "coordinates": [
     -0.4575,
     39.59073
    ]
   },
   "properties": {
    "id": "EST-BETERA",
    "name": "Bétera",
    "province": "Valencia",
    "marker-symbol": "rail",
    "marker-size": "small",
    "marker-color": "#E61C10"
   }
  },
  {
   "type": "Feature",
   "geometry": {
    "type": "Point",
    "coordinates": [
     -0.38961,
     39.54975
    ]
   },
   "properties": {
    "id": "EST-SEMINARI",
    "name": "Seminari",
    "province": "Valencia",
    "marker-symbol": "rail",
    "marker-size": "small",
    "marker-color": "#E61C10"
   }
  },
  {
   "type": "Feature",
   "geometry": {
    "type": "Point",
    "coordinates": [
     -0.46093,
     39.4361
    ]
   },
   "properties": {
    "id": "EST-TORRENT",
    "name": "Torrent",
    "province": "Valencia",
    "marker-symbol": "rail",
    "marker-size": "small",
    "marker-color": "#E61C10"
   }
  },
  {
   "type": "Feature",
   "geometry": {
    "type": "Point",
    "coordinates": [
     -0.46467,
     39.36306
    ]
   },
   "properties": {
    "id": "EST-PICASSENT",
    "name": "Picassent",
    "province": "Valencia",
    "marker-symbol": "rail",
    "marker-size": "small",
    "marker-color": "#E61C10"
   }
  },
  {
   "type": "Feature",
   "geometry": {
    "type": "Point",
    "coordinates": [
     -0.52513,
     39.22739
    ]
   },
   "properties": {
    "id": "EST-CARLET",
    "name": "Carlet",
    "province": "Valencia",
    "marker-symbol": "rail",
    "marker-size": "small",
    "marker-color": "#E61C10"
   }
  },
  {
   "type": "Feature",
   "geometry": {
    "type": "Point",
    "coordinates": [
     -0.52366,
     39.11701
    ]
   },
   "properties": {
    "id": "EST-ALBERIC",
    "name": "Alberic",
    "province": "Valencia",
    "marker-symbol": "rail",
    "marker-size": "small",
    "marker-color": "#E61C10"
   }
  },
  {
   "type": "Feature",
   "geometry": {
    "type": "Point",
    "coordinates": [
     -0.05189,
     39.98817
    ]
   },
   "properties": {
    "id": "EST-CASTELLO",
    "name": "Castelló",
    "province": "Valencia",
    "marker-symbol": "rail",
    "marker-size": "small",
    "marker-color": "#E61C10"
   }
  }
 ]
}