{
 "type": "FeatureCollection",
 "features": [
  {
   "type": "Feature",
   "geometry": {
    "type": "LineString",
    "coordinates": [
     [
      -1.13346,
      37.97658
     ],
     [
      -0.99549,
      38.04715
     ],
     [
      -0.9498,
      38.08126
     ],
     [
      -0.87556,
      38.13675
     ],
     [
      -0.83835,
      38.16725
     ],
     [
      -0.78156,
      38.22451
     ],
     [
      -0.6951,
      38.27179
     ],
     [
      -0.58276,
      38.28965
     ],
     [
      -0.49606,
      38.34498
     ]
    ]
   },
   "properties": {
    "lid": "220",
    "name": "C-1 Murcia del Carmen - Alicante Terminal",
    "type": "Cercanías",
    "operator": "Renfe",
    "stroke": "#EC1C24",
    "stroke-width": 3,
    "stroke-opacity": 0.8,
    "total_sta": 9,
    "coords_sta": 9
   }
  },
  {
   "type": "Feature",
   "geometry": {
    "type": "Point",
    "coordinates": [
     -1.13346,
     37.97658
    ]
   },
   "properties": {
    "id": "EST-MURCIADELCARMEN",
    "name": "Murcia del Carmen",
    "province": "Murcia",
    "marker-symbol": "rail",
    "marker-size": "small",
    "marker-color": "#EC1C24"
   }
  },
  {
   "type": "Feature",
   "geometry": {
    "type": "Point",
    "coordinates": [
     -0.99549,
     38.04715
    ]
   },
   "properties": {
    "id": "EST-BENIEL",
    "name": "Beniel",
    "province": "Murcia",
    "marker-symbol": "rail",
    "marker-size": "small",
    "marker-color": "#EC1C24"
   }
  },
  {
   "type": "Feature",
   "geometry": {
    "type": "Point",
    "coordinates": [
     -0.9498,
     38.08126
    ]
   },
   "properties": {
    "id": "EST-ORIHUELAMIGUELHERNANDEZ",
    "name": "Orihuela-Miguel Hernández",
    "province": "Alicante",
    "marker-symbol": "rail",
    "marker-size": "small",
    "marker-color": "#EC1C24"
   }
  },
  {
   "type": "Feature",
   "geometry": {
    "type": "Point",
    "coordinates": [
     -0.87556,
     38.13675
    ]
   },
   "properties": {
    "id": "EST-CALLOSADESEGURACOX",
    "name": "Callosa de Segura-Cox",
    "province": "Alicante",
    "marker-symbol": "rail",
    "marker-size": "small",
    "marker-color": "#EC1C24"
   }
  },
  {
   "type": "Feature",
   "geometry": {
    "type": "Point",
    "coordinates": [
     -0.83835,
     38.16725
    ]
   },
   "properties": {
    "id": "EST-ALBATERACATRAL",
    "name": "Albatera-Catral",
    "province": "Alicante",
    "marker-symbol": "rail",
    "marker-size": "small",
    "marker-color": "#EC1C24"
   }
  },
  {
   "type": "Feature",
   "geometry": {
    "type": "Point",
    "coordinates": [
     -0.78156,
     38.22451
    ]
   },
   "properties": {
    "id": "EST-CREVILLENT",
    "name": "Crevillent",
    "province": "Alicante",
    "marker-symbol": "rail",
    "marker-size": "small",
    "marker-color": "#EC1C24"
   }
  },
  {
   "type": "Feature",
   "geometry": {
    "type": "Point",
    "coordinates": [
     -0.6951,
     38.27179
    ]
   },
   "properties": {
    "id": "EST-ELXPARC",
    "name": "Elx-Parc",
    "province": "Alicante",
    "marker-symbol": "rail",
    "marker-size": "small",
    "marker-color": "#EC1C24"
   }
  },
  {
   "type": "Feature",
   "geometry": {
    "type": "Point",
    "coordinates": [
     -0.58276,
     38.28965
    ]
   },
   "properties": {
    "id": "EST-TORRELLANO",
    "name": "Torrellano",
    "province": "Alicante",
    "marker-symbol": "rail",
    "marker-size": "small",
    "marker-color": "#EC1C24"
   }
  },
  {
   "type": "Feature",
   "geometry": {
    "type": "Point",
    "coordinates": [
     -0.49606,
     38.34498
    ]
   },
   "properties": {
    "id": "EST-ALICANTERMINAL",
    "name": "Alicante-Terminal",
    "province": "Alicante",
    "marker-symbol": "rail",
    "marker-size": "small",
    "marker-color": "#EC1C24"
   }
  }
 ]
}