{
 "type": "FeatureCollection",
 "features": [
  {
   "type": "Feature",
   "geometry": {
    "type": "LineString",
    "coordinates": [
     [
      -6.0952,
      36.91154
     ],
     [
      -5.94541,
      37.01851
     ],
     [
      -5.79024,
      37.18334
     ],
     [
      -5.92332,
      37.28722
     ],
     [
      -5.97582,
      37.36281
     ],
     [
      -5.9399,
      37.47994
     ],
     [
      -5.9329,
      37.48631
     ],
     [
      -5.86677,
      37.5461
     ],
     [
      -5.80325,
      37.57474
     ],
     [
      -5.727,
      37.59012
     ],
     [
      -5.53108,
      37.66129
     ]
    ]
   },
   "properties": {
    "lid": "225",
    "name": "C-1 Lora del Río - Lebrija",
    "type": "Cercanías",
    "operator": "Renfe",
    "stroke": "#EC1C24",
    "stroke-width": 3,
    "stroke-opacity": 0.8,
    "total_sta": 12,
    "coords_sta": 11
   }
  },
  {
   "type": "Feature",
   "geometry": {
    "type": "Point",
    "coordinates": [
     -6.0952,
     36.91154
    ]
   },
   "properties": {
    "id": "EST-LEBRIJA",
    "name": "Lebrija",
    "province": "Sevilla",
    "marker-symbol": "rail",
    "marker-size": "small",
    "marker-color": "#EC1C24"
   }
  },
  {
   "type": "Feature",
   "geometry": {
    "type": "Point",
    "coordinates": [
     -5.94541,
     37.01851
    ]
   },
   "properties": {
    "id": "EST-LASCABEZASDESANJUAN",
    "name": "Las Cabezas de San Juan",
    "province": "Sevilla",
    "marker-symbol": "rail",
    "marker-size": "small",
    "marker-color": "#EC1C24"
   }
  },
  {
   "type": "Feature",
   "geometry": {
    "type": "Point",
    "coordinates": [
     -5.79024,
     37.18334
    ]
   },
   "properties": {
    "id": "EST-UTRERA",
    "name": "Utrera",
    "province": "Sevilla",
    "marker-symbol": "rail",
    "marker-size": "small",
    "marker-color": "#EC1C24"
   }
  },
  {
   "type": "Feature",
   "geometry": {
    "type": "Point",
    "coordinates": [
     -5.92332,
     37.28722
    ]
   },
   "properties": {
    "id": "EST-DOSHERMANAS",
    "name": "Dos Hermanas",
    "province": "Sevilla",
    "marker-symbol": "rail",
    "marker-size": "small",
    "marker-color": "#EC1C24"
   }
  },
  {
   "type": "Feature",
   "geometry": {
    "type": "Point",
    "coordinates": [
     -5.97582,
     37.36281
    ]
   },
   "properties": {
    "id": "EST-VIRGENDELROCIO",
    "name": "Virgen del Rocío",
    "province": "Sevilla",
    "marker-symbol": "rail",
    "marker-size": "small",
    "marker-color": "#EC1C24"
   }
  },
  {
   "type": "Feature",
   "geometry": {
    "type": "Point",
    "coordinates": [
     -5.9399,
     37.47994
    ]
   },
   "properties": {
    "id": "EST-LARINCONADA",
    "name": "La Rinconada",
    "province": "Sevilla",
    "marker-symbol": "rail",
    "marker-size": "small",
    "marker-color": "#EC1C24"
   }
  },
  {
   "type": "Feature",
   "geometry": {
    "type": "Point",
    "coordinates": [
     -5.9329,
     37.48631
    ]
   },
   "properties": {
    "id": "EST-ELCANAMO",
    "name": "El Cáñamo",
    "province": "Sevilla",
    "marker-symbol": "rail",
    "marker-size": "small",
    "marker-color": "#EC1C24"
   }
  },
  {
   "type": "Feature",
   "geometry": {
    "type": "Point",
    "coordinates": [
     -5.86677,
     37.5461
    ]
   },
   "properties": {
    "id": "EST-BRENES",
    "name": "Brenes",
    "province": "Sevilla",
    "marker-symbol": "rail",
    "marker-size": "small",
    "marker-color": "#EC1C24"
   }
  },
  {
   "type": "Feature",
   "geometry": {
    "type": "Point",
    "coordinates": [
     -5.80325,
     37.57474
    ]
   },
   "properties": {
    "id": "EST-CANTILLANA",
    "name": "Cantillana",
    "province": "Sevilla",
    "marker-symbol": "rail",
    "marker-size": "small",
    "marker-color": "#EC1C24"
   }
  },
  {
   "type": "Feature",
   "geometry": {
    "type": "Point",
    "coordinates": [
     -5.727,
     37.59012
    ]
   },
   "properties": {
    "id": "EST-LOSROSALES",
    "name": "Los Rosales",
    "province": "Sevilla",
    "marker-symbol": "rail",
    "marker-size": "small",
    "marker-color": "#EC1C24"
   }
  },
  {
   "type": "Feature",
   "geometry": {
    "type": "Point",
    "coordinates": [
     -5.53108,
     37.66129
    ]
   },
   "properties": {
    "id": "EST-LORADELRIO",
    "name": "Lora del Río",
    "province": "Sevilla",
    "marker-symbol": "rail",
    "marker-size": "small",
    "marker-color": "#EC1C24"
   }
  }
 ]
}