{
 "type": "FeatureCollection",
 "features": [
  {
   "type": "Feature",
   "geometry": {
    "type": "LineString",
    "coordinates": [
     [
      -5.61211,
      43.15606
     ],
     [
      -5.81284,
      43.27667
     ],
     [
      -5.78239,
      43.25004
     ],
     [
      -5.78943,
      43.22067
     ],
     [
      -5.78236,
      43.21158
     ],
     [
      -5.78748,
      43.19809
     ],
     [
      -5.97154,
      43.55367
     ],
     [
      -5.75485,
      43.17602
     ],
     [
      -5.6975,
      43.22639
     ],
     [
      -5.68434,
      43.16588
     ],
     [
      -5.67665,
      43.16426
     ],
     [
      -5.62491,
      43.16078
     ],
     [
      -5.6007,
      43.15211
     ]
    ]
   },
   "properties": {
    "lid": "250",
    "name": "C-8 Baiña - Collanzo",
    "type": "Cercanías AM",
    "operator": "Renfe",
    "stroke": "#92278F",
    "stroke-width": 3,
    "stroke-opacity": 0.8,
    "total_sta": 16,
    "coords_sta": 13
   }
  },
  {
   "type": "Feature",
   "geometry": {
    "type": "Point",
    "coordinates": [
     -5.61211,
     43.15606
    ]
   },
   "properties": {
    "id": "EST-BAINA",
    "name": "Baíña",
    "province": "Asturias",
    "marker-symbol": "rail",
    "marker-size": "small",
    "marker-color": "#92278F"
   }
  },
  {
   "type": "Feature",
   "geometry": {
    "type": "Point",
    "coordinates": [
     -5.81284,
     43.27667
    ]
   },
   "properties": {
    "id": "EST-LAPEREDA",
    "name": "La Pereda",
    "province": "Asturias",
    "marker-symbol": "rail",
    "marker-size": "small",
    "marker-color": "#92278F"
   }
  },
  {
   "type": "Feature",
   "geometry": {
    "type": "Point",
    "coordinates": [
     -5.78239,
     43.25004
    ]
   },
   "properties": {
    "id": "EST-MIERESPUENTE",
    "name": "Mieres-Puente",
    "province": "Asturias",
    "marker-symbol": "rail",
    "marker-size": "small",
    "marker-color": "#92278F"
   }
  },
  {
   "type": "Feature",
   "geometry": {
    "type": "Point",
    "coordinates": [
     -5.78943,
     43.22067
    ]
   },
   "properties": {
    "id": "EST-SANTULLANO",
    "name": "Santullano",
    "province": "Asturias",
    "marker-symbol": "rail",
    "marker-size": "small",
    "marker-color": "#92278F"
   }
  },
  {
   "type": "Feature",
   "geometry": {
    "type": "Point",
    "coordinates": [
     -5.78236,
     43.21158
    ]
   },
   "properties": {
    "id": "EST-FIGAREDO",
    "name": "Figaredo",
    "province": "Asturias",
    "marker-symbol": "rail",
    "marker-size": "small",
    "marker-color": "#92278F"
   }
  },
  {
   "type": "Feature",
   "geometry": {
    "type": "Point",
    "coordinates": [
     -5.78748,
     43.19809
    ]
   },
   "properties": {
    "id": "EST-UJOTARUELO",
    "name": "Ujo-Taruelo",
    "province": "Asturias",
    "marker-symbol": "rail",
    "marker-size": "small",
    "marker-color": "#92278F"
   }
  },
  {
   "type": "Feature",
   "geometry": {
    "type": "Point",
    "coordinates": [
     -5.97154,
     43.55367
    ]
   },
   "properties": {
    "id": "EST-SANTACRUZ",
    "name": "Santa Cruz",
    "province": "Asturias",
    "marker-symbol": "rail",
    "marker-size": "small",
    "marker-color": "#92278F"
   }
  },
  {
   "type": "Feature",
   "geometry": {
    "type": "Point",
    "coordinates": [
     -5.75485,
     43.17602
    ]
   },
   "properties": {
    "id": "EST-CABORANA",
    "name": "Caborana",
    "province": "Asturias",
    "marker-symbol": "rail",
    "marker-size": "small",
    "marker-color": "#92278F"
   }
  },
  {
   "type": "Feature",
   "geometry": {
    "type": "Point",
    "coordinates": [
     -5.6975,
     43.22639
    ]
   },
   "properties": {
    "id": "EST-MOREDAASTURIAS",
    "name": "Moreda",
    "province": "Asturias",
    "marker-symbol": "rail",
    "marker-size": "small",
    "marker-color": "#92278F"
   }
  },
  {
   "type": "Feature",
   "geometry": {
    "type": "Point",
    "coordinates": [
     -5.68434,
     43.16588
    ]
   },
   "properties": {
    "id": "EST-PINERES",
    "name": "Piñeres",
    "province": "Asturias",
    "marker-symbol": "rail",
    "marker-size": "small",
    "marker-color": "#92278F"
   }
  },
  {
   "type": "Feature",
   "geometry": {
    "type": "Point",
    "coordinates": [
     -5.67665,
     43.16426
    ]
   },
   "properties": {
    "id": "EST-CORIGOS",
    "name": "Corigos",
    "province": "Asturias",
    "marker-symbol": "rail",
    "marker-size": "small",
    "marker-color": "#92278F"
   }
  },
  {
   "type": "Feature",
   "geometry": {
    "type": "Point",
    "coordinates": [
     -5.62491,
     43.16078
    ]
   },
   "properties": {
    "id": "EST-CABANAQUINTA",
    "name": "Cabañaquinta",
    "province": "Asturias",
    "marker-symbol": "rail",
    "marker-size": "small",
    "marker-color": "#92278F"
   }
  },
  {
   "type": "Feature",
   "geometry": {
    "type": "Point",
    "coordinates": [
     -5.6007,
     43.15211
    ]
   },
   "properties": {
    "id": "EST-LEVINCO",
    "name": "Levinco",
    "province": "Asturias",
    "marker-symbol": "rail",
    "marker-size": "small",
    "marker-color": "#92278F"
   }
  }
 ]
}