{
 "type": "FeatureCollection",
 "features": [
  {
   "type": "Feature",
   "geometry": {
    "type": "LineString",
    "coordinates": [
     [
      2.65413,
      39.5763
     ],
     [
      2.65997,
      39.58005
     ],
     [
      2.66579,
      39.58417
     ],
     [
      2.67149,
      39.59547
     ],
     [
      2.68639,
      39.59677
     ],
     [
      2.90584,
      39.7181
     ]
    ]
   },
   "properties": {
    "lid": "279",
    "name": "M2 Plaça d'Espanya - Marratxí",
    "type": "Metro",
    "operator": "SFM",
    "stroke": "#009EE0",
    "stroke-width": 3,
    "stroke-opacity": 0.8,
    "total_sta": 6,
    "coords_sta": 6
   }
  },
  {
   "type": "Feature",
   "geometry": {
    "type": "Point",
    "coordinates": [
     2.65413,
     39.5763
    ]
   },
   "properties": {
    "id": "EST-ESTACIOINTERMODAL",
    "name": "Estació Intermodal",
    "province": "Baleares",
    "marker-symbol": "rail",
    "marker-size": "small",
    "marker-color": "#009EE0"
   }
  },
  {
   "type": "Feature",
   "geometry": {
    "type": "Point",
    "coordinates": [
     2.65997,
     39.58005
    ]
   },
   "properties": {
    "id": "EST-JACINTVERDAGUER",
    "name": "Jacint Verdaguer",
    "province": "Baleares",
    "marker-symbol": "rail",
    "marker-size": "small",
    "marker-color": "#009EE0"
   }
  },
  {
   "type": "Feature",
   "geometry": {
    "type": "Point",
    "coordinates": [
     2.66579,
     39.58417
    ]
   },
   "properties": {
    "id": "EST-SONCOSTASONFORTESA",
    "name": "Son Costa-Son Fortesa",
    "province": "Baleares",
    "marker-symbol": "rail",
    "marker-size": "small",
    "marker-color": "#009EE0"
   }
  },
  {
   "type": "Feature",
   "geometry": {
    "type": "Point",
    "coordinates": [
     2.67149,
     39.59547
    ]
   },
   "properties": {
    "id": "EST-SONFUSTERVELL",
    "name": "Son Fuster Vell",
    "province": "Baleares",
    "marker-symbol": "rail",
    "marker-size": "small",
    "marker-color": "#009EE0"
   }
  },
  {
   "type": "Feature",
   "geometry": {
    "type": "Point",
    "coordinates": [
     2.68639,
     39.59677
    ]
   },
   "properties": {
    "id": "EST-VERGEDELLUC",
    "name": "Verge de Lluc",
    "province": "Baleares",
    "marker-symbol": "rail",
    "marker-size": "small",
    "marker-color": "#009EE0"
   }
  },
  {
   "type": "Feature",
   "geometry": {
    "type": "Point",
    "coordinates": [
     2.90584,
     39.7181
    ]
   },
   "properties": {
    "id": "EST-PONTDINCA",
    "name": "Pont d'Inca",
    "province": "Baleares",
    "marker-symbol": "rail",
    "marker-size": "small",
    "marker-color": "#009EE0"
   }
  }
 ]
}