{
 "type": "FeatureCollection",
 "features": [
  {
   "type": "Feature",
   "geometry": {
    "type": "LineString",
    "coordinates": [
     [
      2.13996,
      41.37901
     ],
     [
      1.27357,
      41.19217
     ],
     [
      0.63304,
      41.62073
     ],
     [
      -0.91139,
      41.65857
     ],
     [
      -1.66149,
      42.82505
     ],
     [
      -2.6727,
      42.8413
     ],
     [
      -3.66632,
      42.37117
     ],
     [
      -4.7272,
      41.64334
     ],
     [
      -5.64706,
      40.9718
     ]
    ]
   },
   "properties": {
    "lid": "303",
    "name": "Alvia Barcelona - Salamanca",
    "type": "Larga Distancia",
    "operator": "Renfe",
    "stroke": "#5F259F",
    "stroke-width": 3,
    "stroke-opacity": 0.8,
    "total_sta": 9,
    "coords_sta": 9
   }
  },
  {
   "type": "Feature",
   "geometry": {
    "type": "Point",
    "coordinates": [
     2.13996,
     41.37901
    ]
   },
   "properties": {
    "id": "EST-BARCELONASANTS",
    "name": "Barcelona-Sants",
    "province": "Barcelona",
    "marker-symbol": "rail",
    "marker-size": "small",
    "marker-color": "#5F259F"
   }
  },
  {
   "type": "Feature",
   "geometry": {
    "type": "Point",
    "coordinates": [
     1.27357,
     41.19217
    ]
   },
   "properties": {
    "id": "EST-CAMPDETARRAGONA",
    "name": "Camp de Tarragona",
    "province": "Tarragona",
    "marker-symbol": "rail",
    "marker-size": "small",
    "marker-color": "#5F259F"
   }
  },
  {
   "type": "Feature",
   "geometry": {
    "type": "Point",
    "coordinates": [
     0.63304,
     41.62073
    ]
   },
   "properties": {
    "id": "EST-LLEIDAPIRINEUS",
    "name": "Lleida Pirineus",
    "province": "Lleida",
    "marker-symbol": "rail",
    "marker-size": "small",
    "marker-color": "#5F259F"
   }
  },
  {
   "type": "Feature",
   "geometry": {
    "type": "Point",
    "coordinates": [
     -0.91139,
     41.65857
    ]
   },
   "properties": {
    "id": "EST-ZARAGOZADELICIAS",
    "name": "Zaragoza-Delicias",
    "province": "Zaragoza",
    "marker-symbol": "rail",
    "marker-size": "small",
    "marker-color": "#5F259F"
   }
  },
  {
   "type": "Feature",
   "geometry": {
    "type": "Point",
    "coordinates": [
     -1.66149,
     42.82505
    ]
   },
   "properties": {
    "id": "EST-PAMPLONA",
    "name": "Pamplona",
    "province": "Navarra",
    "marker-symbol": "rail",
    "marker-size": "small",
    "marker-color": "#5F259F"
   }
  },
  {
   "type": "Feature",
   "geometry": {
    "type": "Point",
    "coordinates": [
     -2.6727,
     42.8413
    ]
   },
   "properties": {
    "id": "EST-VITORIAGASTEIZ",
    "name": "Vitoria-Gasteiz",
    "province": "Álava",
    "marker-symbol": "rail",
    "marker-size": "small",
    "marker-color": "#5F259F"
   }
  },
  {
   "type": "Feature",
   "geometry": {
    "type": "Point",
    "coordinates": [
     -3.66632,
     42.37117
    ]
   },
   "properties": {
    "id": "EST-BURGOSROSADELIMA",
    "name": "Burgos-Rosa de Lima",
    "province": "Burgos",
    "marker-symbol": "rail",
    "marker-size": "small",
    "marker-color": "#5F259F"
   }
  },
  {
   "type": "Feature",
   "geometry": {
    "type": "Point",
    "coordinates": [
     -4.7272,
     41.64334
    ]
   },
   "properties": {
    "id": "EST-VALLADOLIDCAMPOGRANDE",
    "name": "Valladolid-Campo Grande",
    "province": "Valladolid",
    "marker-symbol": "rail",
    "marker-size": "small",
    "marker-color": "#5F259F"
   }
  },
  {
   "type": "Feature",
   "geometry": {
    "type": "Point",
    "coordinates": [
     -5.64706,
     40.9718
    ]
   },
   "properties": {
    "id": "EST-SALAMANCA",
    "name": "Salamanca",
    "province": "Salamanca",
    "marker-symbol": "rail",
    "marker-size": "small",
    "marker-color": "#5F259F"
   }
  }
 ]
}