{
 "type": "FeatureCollection",
 "features": [
  {
   "type": "Feature",
   "geometry": {
    "type": "LineString",
    "coordinates": [
     [
      -3.6886,
      40.40697
     ],
     [
      -4.78952,
      37.88851
     ],
     [
      -4.82223,
      37.35892
     ],
     [
      -4.71971,
      37.07017
     ],
     [
      -4.56137,
      37.02948
     ],
     [
      -4.13567,
      37.17511
     ],
     [
      -3.60863,
      37.18369
     ]
    ]
   },
   "properties": {
    "lid": "324",
    "name": "AVE Madrid-Puerta de Atocha-Almudena Grandes - Granada",
    "type": "AVE",
    "operator": "Renfe",
    "stroke": "#EC1C24",
    "stroke-width": 3,
    "stroke-opacity": 0.8,
    "total_sta": 7,
    "coords_sta": 7
   }
  },
  {
   "type": "Feature",
   "geometry": {
    "type": "Point",
    "coordinates": [
     -3.6886,
     40.40697
    ]
   },
   "properties": {
    "id": "EST-MADRIDPUERTADEATOCHA",
    "name": "Madrid-Puerta de Atocha",
    "province": "Madrid",
    "marker-symbol": "rail",
    "marker-size": "small",
    "marker-color": "#EC1C24"
   }
  },
  {
   "type": "Feature",
   "geometry": {
    "type": "Point",
    "coordinates": [
     -4.78952,
     37.88851
    ]
   },
   "properties": {
    "id": "EST-CORDOBACENTRAL",
    "name": "Córdoba-Central",
    "province": "Córdoba",
    "marker-symbol": "rail",
    "marker-size": "small",
    "marker-color": "#EC1C24"
   }
  },
  {
   "type": "Feature",
   "geometry": {
    "type": "Point",
    "coordinates": [
     -4.82223,
     37.35892
    ]
   },
   "properties": {
    "id": "EST-PUENTEGENILHERRERA",
    "name": "Puente Genil-Herrera",
    "province": "Córdoba",
    "marker-symbol": "rail",
    "marker-size": "small",
    "marker-color": "#EC1C24"
   }
  },
  {
   "type": "Feature",
   "geometry": {
    "type": "Point",
    "coordinates": [
     -4.71971,
     37.07017
    ]
   },
   "properties": {
    "id": "EST-ANTEQUERASANTAANA",
    "name": "Antequera-Santa Ana",
    "province": "Málaga",
    "marker-symbol": "rail",
    "marker-size": "small",
    "marker-color": "#EC1C24"
   }
  },
  {
   "type": "Feature",
   "geometry": {
    "type": "Point",
    "coordinates": [
     -4.56137,
     37.02948
    ]
   },
   "properties": {
    "id": "EST-ANTEQUERAAV",
    "name": "Antequera AV",
    "province": "Málaga",
    "marker-symbol": "rail",
    "marker-size": "small",
    "marker-color": "#EC1C24"
   }
  },
  {
   "type": "Feature",
   "geometry": {
    "type": "Point",
    "coordinates": [
     -4.13567,
     37.17511
    ]
   },
   "properties": {
    "id": "EST-LOJA",
    "name": "Loja",
    "province": "Granada",
    "marker-symbol": "rail",
    "marker-size": "small",
    "marker-color": "#EC1C24"
   }
  },
  {
   "type": "Feature",
   "geometry": {
    "type": "Point",
    "coordinates": [
     -3.60863,
     37.18369
    ]
   },
   "properties": {
    "id": "EST-GRANADA",
    "name": "Granada",
    "province": "Granada",
    "marker-symbol": "rail",
    "marker-size": "small",
    "marker-color": "#EC1C24"
   }
  }
 ]
}