{
 "type": "FeatureCollection",
 "features": [
  {
   "type": "Feature",
   "geometry": {
    "type": "LineString",
    "coordinates": [
     [
      -3.68226,
      40.47206
     ],
     [
      -2.14369,
      40.03396
     ],
     [
      -1.85687,
      38.99485
     ],
     [
      -0.86795,
      38.63227
     ],
     [
      -0.49606,
      38.34498
     ]
    ]
   },
   "properties": {
    "lid": "327",
    "name": "AVE Madrid-Chamartín-Clara Campoamor - Alicante-Terminal",
    "type": "AVE",
    "operator": "Renfe",
    "stroke": "#EC1C24",
    "stroke-width": 3,
    "stroke-opacity": 0.8,
    "total_sta": 5,
    "coords_sta": 5
   }
  },
  {
   "type": "Feature",
   "geometry": {
    "type": "Point",
    "coordinates": [
     -3.68226,
     40.47206
    ]
   },
   "properties": {
    "id": "EST-MADRIDCHAMARTINCLARACAMPOAMOR",
    "name": "Madrid-Chamartín-Clara Campoamor",
    "province": "Madrid",
    "marker-symbol": "rail",
    "marker-size": "small",
    "marker-color": "#EC1C24"
   }
  },
  {
   "type": "Feature",
   "geometry": {
    "type": "Point",
    "coordinates": [
     -2.14369,
     40.03396
    ]
   },
   "properties": {
    "id": "EST-CUENCAFERNANDOZOBEL",
    "name": "Cuenca-Fernando Zóbel",
    "province": "Cuenca",
    "marker-symbol": "rail",
    "marker-size": "small",
    "marker-color": "#EC1C24"
   }
  },
  {
   "type": "Feature",
   "geometry": {
    "type": "Point",
    "coordinates": [
     -1.85687,
     38.99485
    ]
   },
   "properties": {
    "id": "EST-ALBACETELOSLLANOS",
    "name": "Albacete-Los Llanos",
    "province": "Albacete",
    "marker-symbol": "rail",
    "marker-size": "small",
    "marker-color": "#EC1C24"
   }
  },
  {
   "type": "Feature",
   "geometry": {
    "type": "Point",
    "coordinates": [
     -0.86795,
     38.63227
    ]
   },
   "properties": {
    "id": "EST-VILLENAAV",
    "name": "Villena AV",
    "province": "Alicante",
    "marker-symbol": "rail",
    "marker-size": "small",
    "marker-color": "#EC1C24"
   }
  },
  {
   "type": "Feature",
   "geometry": {
    "type": "Point",
    "coordinates": [
     -0.49606,
     38.34498
    ]
   },
   "properties": {
    "id": "EST-ALICANTERMINAL",
    "name": "Alicante-Terminal",
    "province": "Alicante",
    "marker-symbol": "rail",
    "marker-size": "small",
    "marker-color": "#EC1C24"
   }
  }
 ]
}