{
 "type": "FeatureCollection",
 "features": [
  {
   "type": "Feature",
   "geometry": {
    "type": "LineString",
    "coordinates": [
     [
      -0.37719,
      39.46691
     ],
     [
      -0.27141,
      39.67567
     ],
     [
      -1.11042,
      40.34099
     ],
     [
      -1.22909,
      41.3358
     ],
     [
      -0.91139,
      41.65857
     ],
     [
      -0.8959,
      41.65274
     ],
     [
      -0.89134,
      41.64392
     ],
     [
      -0.86832,
      41.63319
     ]
    ]
   },
   "properties": {
    "lid": "34",
    "name": "Intercity Valencia - Zaragoza",
    "type": "Larga Distancia",
    "operator": "Renfe",
    "stroke": "#2C3539",
    "stroke-width": 3,
    "stroke-opacity": 0.8,
    "total_sta": 8,
    "coords_sta": 8
   }
  },
  {
   "type": "Feature",
   "geometry": {
    "type": "Point",
    "coordinates": [
     -0.37719,
     39.46691
    ]
   },
   "properties": {
    "id": "EST-VALENCIANORD",
    "name": "València-Nord",
    "province": "Valencia",
    "marker-symbol": "rail",
    "marker-size": "small",
    "marker-color": "#2C3539"
   }
  },
  {
   "type": "Feature",
   "geometry": {
    "type": "Point",
    "coordinates": [
     -0.27141,
     39.67567
    ]
   },
   "properties": {
    "id": "EST-SAGUNT",
    "name": "Sagunt",
    "province": "Valencia",
    "marker-symbol": "rail",
    "marker-size": "small",
    "marker-color": "#2C3539"
   }
  },
  {
   "type": "Feature",
   "geometry": {
    "type": "Point",
    "coordinates": [
     -1.11042,
     40.34099
    ]
   },
   "properties": {
    "id": "EST-TERUEL",
    "name": "Teruel",
    "province": "Teruel",
    "marker-symbol": "rail",
    "marker-size": "small",
    "marker-color": "#2C3539"
   }
  },
  {
   "type": "Feature",
   "geometry": {
    "type": "Point",
    "coordinates": [
     -1.22909,
     41.3358
    ]
   },
   "properties": {
    "id": "EST-CARINENA",
    "name": "Cariñena",
    "province": "Zaragoza",
    "marker-symbol": "rail",
    "marker-size": "small",
    "marker-color": "#2C3539"
   }
  },
  {
   "type": "Feature",
   "geometry": {
    "type": "Point",
    "coordinates": [
     -0.91139,
     41.65857
    ]
   },
   "properties": {
    "id": "EST-ZARAGOZADELICIAS",
    "name": "Zaragoza-Delicias",
    "province": "Zaragoza",
    "marker-symbol": "rail",
    "marker-size": "small",
    "marker-color": "#2C3539"
   }
  },
  {
   "type": "Feature",
   "geometry": {
    "type": "Point",
    "coordinates": [
     -0.8959,
     41.65274
    ]
   },
   "properties": {
    "id": "EST-ZARAGOZAPORTILLO",
    "name": "Zaragoza-Portillo",
    "province": "Zaragoza",
    "marker-symbol": "rail",
    "marker-size": "small",
    "marker-color": "#2C3539"
   }
  },
  {
   "type": "Feature",
   "geometry": {
    "type": "Point",
    "coordinates": [
     -0.89134,
     41.64392
    ]
   },
   "properties": {
    "id": "EST-ZARAGOZAGOYA",
    "name": "Zaragoza-Goya",
    "province": "Zaragoza",
    "marker-symbol": "rail",
    "marker-size": "small",
    "marker-color": "#2C3539"
   }
  },
  {
   "type": "Feature",
   "geometry": {
    "type": "Point",
    "coordinates": [
     -0.86832,
     41.63319
    ]
   },
   "properties": {
    "id": "EST-ZARAGOZAMIRAFLORES",
    "name": "Zaragoza-Miraflores",
    "province": "Zaragoza",
    "marker-symbol": "rail",
    "marker-size": "small",
    "marker-color": "#2C3539"
   }
  }
 ]
}