{
 "type": "FeatureCollection",
 "features": [
  {
   "type": "Feature",
   "geometry": {
    "type": "LineString",
    "coordinates": [
     [
      -4.7272,
      41.64334
     ],
     [
      -4.77295,
      41.48874
     ],
     [
      -4.80147,
      41.4219
     ],
     [
      -4.83566,
      41.36766
     ],
     [
      -4.90968,
      41.31726
     ],
     [
      -5.73978,
      41.516
     ],
     [
      -5.99324,
      41.65288
     ],
     [
      -6.45336,
      41.73022
     ],
     [
      -6.62699,
      42.04552
     ]
    ]
   },
   "properties": {
    "lid": "358",
    "name": "Regional Exprés 18 Valladolid - Zamora - Puebla de Sanabria",
    "type": "Regional Exprés",
    "operator": "Renfe",
    "stroke": "#32CD32",
    "stroke-width": 3,
    "stroke-opacity": 0.8,
    "total_sta": 10,
    "coords_sta": 9
   }
  },
  {
   "type": "Feature",
   "geometry": {
    "type": "Point",
    "coordinates": [
     -4.7272,
     41.64334
    ]
   },
   "properties": {
    "id": "EST-VALLADOLIDCAMPOGRANDE",
    "name": "Valladolid-Campo Grande",
    "province": "Valladolid",
    "marker-symbol": "rail",
    "marker-size": "small",
    "marker-color": "#32CD32"
   }
  },
  {
   "type": "Feature",
   "geometry": {
    "type": "Point",
    "coordinates": [
     -4.77295,
     41.48874
    ]
   },
   "properties": {
    "id": "EST-VALDESTILLAS",
    "name": "Valdestillas",
    "province": "Valladolid",
    "marker-symbol": "rail",
    "marker-size": "small",
    "marker-color": "#32CD32"
   }
  },
  {
   "type": "Feature",
   "geometry": {
    "type": "Point",
    "coordinates": [
     -4.80147,
     41.4219
    ]
   },
   "properties": {
    "id": "EST-MATAPOZUELOS",
    "name": "Matapozuelos",
    "province": "Valladolid",
    "marker-symbol": "rail",
    "marker-size": "small",
    "marker-color": "#32CD32"
   }
  },
  {
   "type": "Feature",
   "geometry": {
    "type": "Point",
    "coordinates": [
     -4.83566,
     41.36766
    ]
   },
   "properties": {
    "id": "EST-POZALDEZ",
    "name": "Pozaldez",
    "province": "Valladolid",
    "marker-symbol": "rail",
    "marker-size": "small",
    "marker-color": "#32CD32"
   }
  },
  {
   "type": "Feature",
   "geometry": {
    "type": "Point",
    "coordinates": [
     -4.90968,
     41.31726
    ]
   },
   "properties": {
    "id": "EST-MEDINADELCAMPO",
    "name": "Medina del Campo",
    "province": "Valladolid",
    "marker-symbol": "rail",
    "marker-size": "small",
    "marker-color": "#32CD32"
   }
  },
  {
   "type": "Feature",
   "geometry": {
    "type": "Point",
    "coordinates": [
     -5.73978,
     41.516
    ]
   },
   "properties": {
    "id": "EST-ZAMORA",
    "name": "Zamora",
    "province": "Zamora",
    "marker-symbol": "rail",
    "marker-size": "small",
    "marker-color": "#32CD32"
   }
  },
  {
   "type": "Feature",
   "geometry": {
    "type": "Point",
    "coordinates": [
     -5.99324,
     41.65288
    ]
   },
   "properties": {
    "id": "EST-CARBAJALESDEALBA",
    "name": "Carbajales de Alba",
    "province": "Zamora",
    "marker-symbol": "rail",
    "marker-size": "small",
    "marker-color": "#32CD32"
   }
  },
  {
   "type": "Feature",
   "geometry": {
    "type": "Point",
    "coordinates": [
     -6.45336,
     41.73022
    ]
   },
   "properties": {
    "id": "EST-SEJASDEALISTE",
    "name": "Sejas de Aliste",
    "province": "Zamora",
    "marker-symbol": "rail",
    "marker-size": "small",
    "marker-color": "#32CD32"
   }
  },
  {
   "type": "Feature",
   "geometry": {
    "type": "Point",
    "coordinates": [
     -6.62699,
     42.04552
    ]
   },
   "properties": {
    "id": "EST-PUEBLADESANABRIA",
    "name": "Puebla de Sanabria",
    "province": "Zamora",
    "marker-symbol": "rail",
    "marker-size": "small",
    "marker-color": "#32CD32"
   }
  }
 ]
}