{
 "type": "FeatureCollection",
 "features": [
  {
   "type": "Feature",
   "geometry": {
    "type": "LineString",
    "coordinates": [
     [
      -0.41494,
      39.36175
     ],
     [
      -0.52468,
      38.99225
     ],
     [
      -0.75309,
      38.87813
     ],
     [
      -0.95385,
      38.76545
     ],
     [
      -1.10557,
      38.86765
     ],
     [
      -1.85687,
      38.99485
     ],
     [
      -2.16292,
      39.19932
     ],
     [
      -2.59851,
      39.26072
     ],
     [
      -2.77539,
      39.27854
     ],
     [
      -3.20537,
      39.39566
     ]
    ]
   },
   "properties": {
    "lid": "376",
    "name": "Regional Exprés 46 Valencia - Albacete - Alcázar",
    "type": "Regional Exprés",
    "operator": "Renfe",
    "stroke": "#32CD32",
    "stroke-width": 3,
    "stroke-opacity": 0.8,
    "total_sta": 10,
    "coords_sta": 10
   }
  },
  {
   "type": "Feature",
   "geometry": {
    "type": "Point",
    "coordinates": [
     -0.41494,
     39.36175
    ]
   },
   "properties": {
    "id": "EST-SILLA",
    "name": "Silla",
    "province": "Valencia",
    "marker-symbol": "rail",
    "marker-size": "small",
    "marker-color": "#32CD32"
   }
  },
  {
   "type": "Feature",
   "geometry": {
    "type": "Point",
    "coordinates": [
     -0.52468,
     38.99225
    ]
   },
   "properties": {
    "id": "EST-XATIVA",
    "name": "Xàtiva",
    "province": "Valencia",
    "marker-symbol": "rail",
    "marker-size": "small",
    "marker-color": "#32CD32"
   }
  },
  {
   "type": "Feature",
   "geometry": {
    "type": "Point",
    "coordinates": [
     -0.75309,
     38.87813
    ]
   },
   "properties": {
    "id": "EST-MOIXENT",
    "name": "Moixent",
    "province": "Valencia",
    "marker-symbol": "rail",
    "marker-size": "small",
    "marker-color": "#32CD32"
   }
  },
  {
   "type": "Feature",
   "geometry": {
    "type": "Point",
    "coordinates": [
     -0.95385,
     38.76545
    ]
   },
   "properties": {
    "id": "EST-LAENCINA",
    "name": "La Encina",
    "province": "Alicante",
    "marker-symbol": "rail",
    "marker-size": "small",
    "marker-color": "#32CD32"
   }
  },
  {
   "type": "Feature",
   "geometry": {
    "type": "Point",
    "coordinates": [
     -1.10557,
     38.86765
    ]
   },
   "properties": {
    "id": "EST-ALMANSA",
    "name": "Almansa",
    "province": "Albacete",
    "marker-symbol": "rail",
    "marker-size": "small",
    "marker-color": "#32CD32"
   }
  },
  {
   "type": "Feature",
   "geometry": {
    "type": "Point",
    "coordinates": [
     -1.85687,
     38.99485
    ]
   },
   "properties": {
    "id": "EST-ALBACETELOSLLANOS",
    "name": "Albacete-Los Llanos",
    "province": "Albacete",
    "marker-symbol": "rail",
    "marker-size": "small",
    "marker-color": "#32CD32"
   }
  },
  {
   "type": "Feature",
   "geometry": {
    "type": "Point",
    "coordinates": [
     -2.16292,
     39.19932
    ]
   },
   "properties": {
    "id": "EST-LARODA",
    "name": "La Roda",
    "province": "Albacete",
    "marker-symbol": "rail",
    "marker-size": "small",
    "marker-color": "#32CD32"
   }
  },
  {
   "type": "Feature",
   "geometry": {
    "type": "Point",
    "coordinates": [
     -2.59851,
     39.26072
    ]
   },
   "properties": {
    "id": "EST-VILLARROBLEDO",
    "name": "Villarrobledo",
    "province": "Albacete",
    "marker-symbol": "rail",
    "marker-size": "small",
    "marker-color": "#32CD32"
   }
  },
  {
   "type": "Feature",
   "geometry": {
    "type": "Point",
    "coordinates": [
     -2.77539,
     39.27854
    ]
   },
   "properties": {
    "id": "EST-SOCUELLAMOS",
    "name": "Socuéllamos",
    "province": "Ciudad Real",
    "marker-symbol": "rail",
    "marker-size": "small",
    "marker-color": "#32CD32"
   }
  },
  {
   "type": "Feature",
   "geometry": {
    "type": "Point",
    "coordinates": [
     -3.20537,
     39.39566
    ]
   },
   "properties": {
    "id": "EST-ALCAZARDESANJUAN",
    "name": "Alcázar de San Juan",
    "province": "Ciudad Real",
    "marker-symbol": "rail",
    "marker-size": "small",
    "marker-color": "#32CD32"
   }
  }
 ]
}