{
 "type": "FeatureCollection",
 "features": [
  {
   "type": "Feature",
   "geometry": {
    "type": "LineString",
    "coordinates": [
     [
      -3.60863,
      37.18369
     ],
     [
      -3.52776,
      37.39582
     ],
     [
      -3.12702,
      37.31688
     ],
     [
      -2.83948,
      37.18472
     ],
     [
      -2.48751,
      36.9515
     ],
     [
      -2.43628,
      36.88346
     ]
    ]
   },
   "properties": {
    "lid": "392",
    "name": "MD 68 Granada - Almería",
    "type": "Media Distancia",
    "operator": "Renfe",
    "stroke": "#FF8C00",
    "stroke-width": 3,
    "stroke-opacity": 0.8,
    "total_sta": 7,
    "coords_sta": 6
   }
  },
  {
   "type": "Feature",
   "geometry": {
    "type": "Point",
    "coordinates": [
     -3.60863,
     37.18369
    ]
   },
   "properties": {
    "id": "EST-GRANADA",
    "name": "Granada",
    "province": "Granada",
    "marker-symbol": "rail",
    "marker-size": "small",
    "marker-color": "#FF8C00"
   }
  },
  {
   "type": "Feature",
   "geometry": {
    "type": "Point",
    "coordinates": [
     -3.52776,
     37.39582
    ]
   },
   "properties": {
    "id": "EST-IZNALLOZ",
    "name": "Iznalloz",
    "province": "Granada",
    "marker-symbol": "rail",
    "marker-size": "small",
    "marker-color": "#FF8C00"
   }
  },
  {
   "type": "Feature",
   "geometry": {
    "type": "Point",
    "coordinates": [
     -3.12702,
     37.31688
    ]
   },
   "properties": {
    "id": "EST-GUADIX",
    "name": "Guadix",
    "province": "Granada",
    "marker-symbol": "rail",
    "marker-size": "small",
    "marker-color": "#FF8C00"
   }
  },
  {
   "type": "Feature",
   "geometry": {
    "type": "Point",
    "coordinates": [
     -2.83948,
     37.18472
    ]
   },
   "properties": {
    "id": "EST-FINANA",
    "name": "Fiñana",
    "province": "Almería",
    "marker-symbol": "rail",
    "marker-size": "small",
    "marker-color": "#FF8C00"
   }
  },
  {
   "type": "Feature",
   "geometry": {
    "type": "Point",
    "coordinates": [
     -2.48751,
     36.9515
    ]
   },
   "properties": {
    "id": "EST-GADOR",
    "name": "Gádor",
    "province": "Almería",
    "marker-symbol": "rail",
    "marker-size": "small",
    "marker-color": "#FF8C00"
   }
  },
  {
   "type": "Feature",
   "geometry": {
    "type": "Point",
    "coordinates": [
     -2.43628,
     36.88346
    ]
   },
   "properties": {
    "id": "EST-HUERCALVIATOR",
    "name": "Huércal-Viator",
    "province": "Almería",
    "marker-symbol": "rail",
    "marker-size": "small",
    "marker-color": "#FF8C00"
   }
  }
 ]
}