{
 "type": "FeatureCollection",
 "features": [
  {
   "type": "Feature",
   "geometry": {
    "type": "LineString",
    "coordinates": [
     [
      -5.16196,
      36.74859
     ],
     [
      -5.01989,
      37.00094
     ],
     [
      -4.8635,
      37.03203
     ],
     [
      -4.72798,
      37.03764
     ],
     [
      -4.75913,
      36.90707
     ],
     [
      -4.7192,
      36.87322
     ],
     [
      -4.6994,
      36.81971
     ],
     [
      -4.712,
      36.76431
     ],
     [
      -4.60857,
      36.73386
     ]
    ]
   },
   "properties": {
    "lid": "393",
    "name": "Ronda - Málaga",
    "type": "Media Distancia",
    "operator": "Renfe",
    "stroke": "#FF8C00",
    "stroke-width": 3,
    "stroke-opacity": 0.8,
    "total_sta": 10,
    "coords_sta": 9
   }
  },
  {
   "type": "Feature",
   "geometry": {
    "type": "Point",
    "coordinates": [
     -5.16196,
     36.74859
    ]
   },
   "properties": {
    "id": "EST-RONDA",
    "name": "Ronda",
    "province": "Málaga",
    "marker-symbol": "rail",
    "marker-size": "small",
    "marker-color": "#FF8C00"
   }
  },
  {
   "type": "Feature",
   "geometry": {
    "type": "Point",
    "coordinates": [
     -5.01989,
     37.00094
    ]
   },
   "properties": {
    "id": "EST-ALMARGENCANETELAREAL",
    "name": "Almargen-Cañete la Real",
    "province": "Málaga",
    "marker-symbol": "rail",
    "marker-size": "small",
    "marker-color": "#FF8C00"
   }
  },
  {
   "type": "Feature",
   "geometry": {
    "type": "Point",
    "coordinates": [
     -4.8635,
     37.03203
    ]
   },
   "properties": {
    "id": "EST-CAMPILLOS",
    "name": "Campillos",
    "province": "Málaga",
    "marker-symbol": "rail",
    "marker-size": "small",
    "marker-color": "#FF8C00"
   }
  },
  {
   "type": "Feature",
   "geometry": {
    "type": "Point",
    "coordinates": [
     -4.72798,
     37.03764
    ]
   },
   "properties": {
    "id": "EST-BOBADILLA",
    "name": "Bobadilla",
    "province": "Málaga",
    "marker-symbol": "rail",
    "marker-size": "small",
    "marker-color": "#FF8C00"
   }
  },
  {
   "type": "Feature",
   "geometry": {
    "type": "Point",
    "coordinates": [
     -4.75913,
     36.90707
    ]
   },
   "properties": {
    "id": "EST-ELCHORROCAMINITODELREY",
    "name": "El Chorro-Caminito del Rey",
    "province": "Málaga",
    "marker-symbol": "rail",
    "marker-size": "small",
    "marker-color": "#FF8C00"
   }
  },
  {
   "type": "Feature",
   "geometry": {
    "type": "Point",
    "coordinates": [
     -4.7192,
     36.87322
    ]
   },
   "properties": {
    "id": "EST-LASMELLIZAS",
    "name": "Las Mellizas",
    "province": "Málaga",
    "marker-symbol": "rail",
    "marker-size": "small",
    "marker-color": "#FF8C00"
   }
  },
  {
   "type": "Feature",
   "geometry": {
    "type": "Point",
    "coordinates": [
     -4.6994,
     36.81971
    ]
   },
   "properties": {
    "id": "EST-ALORA",
    "name": "Álora",
    "province": "Málaga",
    "marker-symbol": "rail",
    "marker-size": "small",
    "marker-color": "#FF8C00"
   }
  },
  {
   "type": "Feature",
   "geometry": {
    "type": "Point",
    "coordinates": [
     -4.712,
     36.76431
    ]
   },
   "properties": {
    "id": "EST-PIZARRA",
    "name": "Pizarra",
    "province": "Málaga",
    "marker-symbol": "rail",
    "marker-size": "small",
    "marker-color": "#FF8C00"
   }
  },
  {
   "type": "Feature",
   "geometry": {
    "type": "Point",
    "coordinates": [
     -4.60857,
     36.73386
    ]
   },
   "properties": {
    "id": "EST-CARTAMA",
    "name": "Cártama",
    "province": "Málaga",
    "marker-symbol": "rail",
    "marker-size": "small",
    "marker-color": "#FF8C00"
   }
  }
 ]
}