{
 "type": "FeatureCollection",
 "features": [
  {
   "type": "Feature",
   "geometry": {
    "type": "LineString",
    "coordinates": [
     [
      -4.7272,
      41.64334
     ],
     [
      -4.70422,
      41.66016
     ],
     [
      -4.65127,
      41.73725
     ],
     [
      -4.54073,
      41.87124
     ],
     [
      -4.49627,
      41.9174
     ],
     [
      -4.53386,
      42.01573
     ],
     [
      -4.58491,
      42.04984
     ],
     [
      -4.64726,
      42.10469
     ],
     [
      -4.85038,
      42.19099
     ],
     [
      -4.97068,
      42.24513
     ],
     [
      -5.01331,
      42.32323
     ],
     [
      -5.0226,
      42.3694
     ],
     [
      -5.38673,
      42.45988
     ],
     [
      -5.49593,
      42.46073
     ],
     [
      -6.52214,
      42.4055
     ]
    ]
   },
   "properties": {
    "lid": "402",
    "name": "MD 17 Valladolid - León (directo)",
    "type": "Media Distancia",
    "operator": "Renfe",
    "stroke": "#FF8C00",
    "stroke-width": 3,
    "stroke-opacity": 0.8,
    "total_sta": 15,
    "coords_sta": 15
   }
  },
  {
   "type": "Feature",
   "geometry": {
    "type": "Point",
    "coordinates": [
     -4.7272,
     41.64334
    ]
   },
   "properties": {
    "id": "EST-VALLADOLIDCAMPOGRANDE",
    "name": "Valladolid-Campo Grande",
    "province": "Valladolid",
    "marker-symbol": "rail",
    "marker-size": "small",
    "marker-color": "#FF8C00"
   }
  },
  {
   "type": "Feature",
   "geometry": {
    "type": "Point",
    "coordinates": [
     -4.70422,
     41.66016
    ]
   },
   "properties": {
    "id": "EST-VALLADOLIDUNIVERSIDAD",
    "name": "Valladolid-Universidad",
    "province": "Valladolid",
    "marker-symbol": "rail",
    "marker-size": "small",
    "marker-color": "#FF8C00"
   }
  },
  {
   "type": "Feature",
   "geometry": {
    "type": "Point",
    "coordinates": [
     -4.65127,
     41.73725
    ]
   },
   "properties": {
    "id": "EST-CABEZONDEPISUERGA",
    "name": "Cabezón de Pisuerga",
    "province": "Valladolid",
    "marker-symbol": "rail",
    "marker-size": "small",
    "marker-color": "#FF8C00"
   }
  },
  {
   "type": "Feature",
   "geometry": {
    "type": "Point",
    "coordinates": [
     -4.54073,
     41.87124
    ]
   },
   "properties": {
    "id": "EST-DUENAS",
    "name": "Dueñas",
    "province": "Palencia",
    "marker-symbol": "rail",
    "marker-size": "small",
    "marker-color": "#FF8C00"
   }
  },
  {
   "type": "Feature",
   "geometry": {
    "type": "Point",
    "coordinates": [
     -4.49627,
     41.9174
    ]
   },
   "properties": {
    "id": "EST-VENTADEBANOS",
    "name": "Venta de Baños",
    "province": "Palencia",
    "marker-symbol": "rail",
    "marker-size": "small",
    "marker-color": "#FF8C00"
   }
  },
  {
   "type": "Feature",
   "geometry": {
    "type": "Point",
    "coordinates": [
     -4.53386,
     42.01573
    ]
   },
   "properties": {
    "id": "EST-PALENCIA",
    "name": "Palencia",
    "province": "Palencia",
    "marker-symbol": "rail",
    "marker-size": "small",
    "marker-color": "#FF8C00"
   }
  },
  {
   "type": "Feature",
   "geometry": {
    "type": "Point",
    "coordinates": [
     -4.58491,
     42.04984
    ]
   },
   "properties": {
    "id": "EST-GRIJOTA",
    "name": "Grijota",
    "province": "Palencia",
    "marker-symbol": "rail",
    "marker-size": "small",
    "marker-color": "#FF8C00"
   }
  },
  {
   "type": "Feature",
   "geometry": {
    "type": "Point",
    "coordinates": [
     -4.64726,
     42.10469
    ]
   },
   "properties": {
    "id": "EST-BECERRIL",
    "name": "Becerril",
    "province": "Palencia",
    "marker-symbol": "rail",
    "marker-size": "small",
    "marker-color": "#FF8C00"
   }
  },
  {
   "type": "Feature",
   "geometry": {
    "type": "Point",
    "coordinates": [
     -4.85038,
     42.19099
    ]
   },
   "properties": {
    "id": "EST-CISNEROS",
    "name": "Cisneros",
    "province": "Palencia",
    "marker-symbol": "rail",
    "marker-size": "small",
    "marker-color": "#FF8C00"
   }
  },
  {
   "type": "Feature",
   "geometry": {
    "type": "Point",
    "coordinates": [
     -4.97068,
     42.24513
    ]
   },
   "properties": {
    "id": "EST-VILLADA",
    "name": "Villada",
    "province": "Palencia",
    "marker-symbol": "rail",
    "marker-size": "small",
    "marker-color": "#FF8C00"
   }
  },
  {
   "type": "Feature",
   "geometry": {
    "type": "Point",
    "coordinates": [
     -5.01331,
     42.32323
    ]
   },
   "properties": {
    "id": "EST-GRAJAL",
    "name": "Grajal",
    "province": "Leon",
    "marker-symbol": "rail",
    "marker-size": "small",
    "marker-color": "#FF8C00"
   }
  },
  {
   "type": "Feature",
   "geometry": {
    "type": "Point",
    "coordinates": [
     -5.0226,
     42.3694
    ]
   },
   "properties": {
    "id": "EST-SAHAGUN",
    "name": "Sahagún",
    "province": "León",
    "marker-symbol": "rail",
    "marker-size": "small",
    "marker-color": "#FF8C00"
   }
  },
  {
   "type": "Feature",
   "geometry": {
    "type": "Point",
    "coordinates": [
     -5.38673,
     42.45988
    ]
   },
   "properties": {
    "id": "EST-SANTASMARTAS",
    "name": "Santas Martas",
    "province": "León",
    "marker-symbol": "rail",
    "marker-size": "small",
    "marker-color": "#FF8C00"
   }
  },
  {
   "type": "Feature",
   "geometry": {
    "type": "Point",
    "coordinates": [
     -5.49593,
     42.46073
    ]
   },
   "properties": {
    "id": "EST-PALANQUINOS",
    "name": "Palanquinos",
    "province": "León",
    "marker-symbol": "rail",
    "marker-size": "small",
    "marker-color": "#FF8C00"
   }
  },
  {
   "type": "Feature",
   "geometry": {
    "type": "Point",
    "coordinates": [
     -6.52214,
     42.4055
    ]
   },
   "properties": {
    "id": "EST-LEON",
    "name": "León",
    "province": "León",
    "marker-symbol": "rail",
    "marker-size": "small",
    "marker-color": "#FF8C00"
   }
  }
 ]
}