{
 "type": "FeatureCollection",
 "features": [
  {
   "type": "Feature",
   "geometry": {
    "type": "LineString",
    "coordinates": [
     [
      -0.38121,
      39.46005
     ],
     [
      -1.13473,
      39.52175
     ],
     [
      -2.14369,
      40.03396
     ]
    ]
   },
   "properties": {
    "lid": "46",
    "name": "Avant Valencia - Cuenca",
    "type": "Media Distancia AV",
    "operator": "Renfe",
    "stroke": "#00A650",
    "stroke-width": 3,
    "stroke-opacity": 0.8,
    "total_sta": 3,
    "coords_sta": 3
   }
  },
  {
   "type": "Feature",
   "geometry": {
    "type": "Point",
    "coordinates": [
     -0.38121,
     39.46005
    ]
   },
   "properties": {
    "id": "EST-VALENCIAJOAQUINSOROLLA",
    "name": "Valencia-Joaquín Sorolla",
    "province": "Valencia",
    "marker-symbol": "rail",
    "marker-size": "small",
    "marker-color": "#00A650"
   }
  },
  {
   "type": "Feature",
   "geometry": {
    "type": "Point",
    "coordinates": [
     -1.13473,
     39.52175
    ]
   },
   "properties": {
    "id": "EST-REQUENAUTIEL",
    "name": "Requena-Utiel",
    "province": "Valencia",
    "marker-symbol": "rail",
    "marker-size": "small",
    "marker-color": "#00A650"
   }
  },
  {
   "type": "Feature",
   "geometry": {
    "type": "Point",
    "coordinates": [
     -2.14369,
     40.03396
    ]
   },
   "properties": {
    "id": "EST-CUENCAFERNANDOZOBEL",
    "name": "Cuenca-Fernando Zóbel",
    "province": "Cuenca",
    "marker-symbol": "rail",
    "marker-size": "small",
    "marker-color": "#00A650"
   }
  }
 ]
}