{
 "type": "FeatureCollection",
 "features": [
  {
   "type": "Feature",
   "geometry": {
    "type": "LineString",
    "coordinates": [
     [
      -0.49606,
      38.34498
     ],
     [
      -0.86795,
      38.63227
     ],
     [
      -1.85687,
      38.99485
     ],
     [
      -2.14369,
      40.03396
     ]
    ]
   },
   "properties": {
    "lid": "47",
    "name": "Avant Alicante - Cuenca",
    "type": "Media Distancia AV",
    "operator": "Renfe",
    "stroke": "#00A650",
    "stroke-width": 3,
    "stroke-opacity": 0.8,
    "total_sta": 4,
    "coords_sta": 4
   }
  },
  {
   "type": "Feature",
   "geometry": {
    "type": "Point",
    "coordinates": [
     -0.49606,
     38.34498
    ]
   },
   "properties": {
    "id": "EST-ALICANTERMINAL",
    "name": "Alicante-Terminal",
    "province": "Alicante",
    "marker-symbol": "rail",
    "marker-size": "small",
    "marker-color": "#00A650"
   }
  },
  {
   "type": "Feature",
   "geometry": {
    "type": "Point",
    "coordinates": [
     -0.86795,
     38.63227
    ]
   },
   "properties": {
    "id": "EST-VILLENAAV",
    "name": "Villena AV",
    "province": "Alicante",
    "marker-symbol": "rail",
    "marker-size": "small",
    "marker-color": "#00A650"
   }
  },
  {
   "type": "Feature",
   "geometry": {
    "type": "Point",
    "coordinates": [
     -1.85687,
     38.99485
    ]
   },
   "properties": {
    "id": "EST-ALBACETELOSLLANOS",
    "name": "Albacete-Los Llanos",
    "province": "Albacete",
    "marker-symbol": "rail",
    "marker-size": "small",
    "marker-color": "#00A650"
   }
  },
  {
   "type": "Feature",
   "geometry": {
    "type": "Point",
    "coordinates": [
     -2.14369,
     40.03396
    ]
   },
   "properties": {
    "id": "EST-CUENCAFERNANDOZOBEL",
    "name": "Cuenca-Fernando Zóbel",
    "province": "Cuenca",
    "marker-symbol": "rail",
    "marker-size": "small",
    "marker-color": "#00A650"
   }
  }
 ]
}