{
 "type": "FeatureCollection",
 "features": [
  {
   "type": "Feature",
   "geometry": {
    "type": "LineString",
    "coordinates": [
     [
      -0.91139,
      41.65857
     ],
     [
      -0.8959,
      41.65274
     ],
     [
      -0.89134,
      41.64392
     ],
     [
      -0.86832,
      41.63319
     ],
     [
      -0.61838,
      41.51524
     ],
     [
      -0.49073,
      41.41944
     ],
     [
      -0.42702,
      41.32049
     ],
     [
      -0.49469,
      41.29098
     ],
     [
      -0.43819,
      41.22451
     ],
     [
      -0.36874,
      41.18208
     ],
     [
      -0.32495,
      41.28707
     ],
     [
      -0.15543,
      41.23144
     ],
     [
      -0.04274,
      41.23991
     ],
     [
      0.07606,
      41.22955
     ],
     [
      0.13895,
      41.22957
     ],
     [
      0.24239,
      41.21373
     ],
     [
      0.48079,
      41.24851
     ],
     [
      0.54015,
      41.22942
     ],
     [
      0.56905,
      41.18232
     ],
     [
      0.65342,
      41.10642
     ],
     [
      0.81051,
      41.13093
     ],
     [
      0.85864,
      41.13316
     ],
     [
      0.92079,
      41.14362
     ],
     [
      0.97578,
      41.14005
     ],
     [
      1.02207,
      41.16641
     ],
     [
      1.09994,
      41.1606
     ],
     [
      1.25354,
      41.11122
     ],
     [
      1.52579,
      41.18608
     ],
     [
      2.13996,
      41.37901
     ],
     [
      2.16538,
      41.39254
     ],
     [
      2.18556,
      41.38439
     ]
    ]
   },
   "properties": {
    "lid": "59",
    "name": "MD 34 Zaragoza - Barcelona",
    "type": "Media Distancia",
    "operator": "Renfe",
    "stroke": "#FF8200",
    "stroke-width": 3,
    "stroke-opacity": 0.8,
    "total_sta": 32,
    "coords_sta": 31
   }
  },
  {
   "type": "Feature",
   "geometry": {
    "type": "Point",
    "coordinates": [
     -0.91139,
     41.65857
    ]
   },
   "properties": {
    "id": "EST-ZARAGOZADELICIAS",
    "name": "Zaragoza-Delicias",
    "province": "Zaragoza",
    "marker-symbol": "rail",
    "marker-size": "small",
    "marker-color": "#FF8200"
   }
  },
  {
   "type": "Feature",
   "geometry": {
    "type": "Point",
    "coordinates": [
     -0.8959,
     41.65274
    ]
   },
   "properties": {
    "id": "EST-ZARAGOZAPORTILLO",
    "name": "Zaragoza-Portillo",
    "province": "Zaragoza",
    "marker-symbol": "rail",
    "marker-size": "small",
    "marker-color": "#FF8200"
   }
  },
  {
   "type": "Feature",
   "geometry": {
    "type": "Point",
    "coordinates": [
     -0.89134,
     41.64392
    ]
   },
   "properties": {
    "id": "EST-ZARAGOZAGOYA",
    "name": "Zaragoza-Goya",
    "province": "Zaragoza",
    "marker-symbol": "rail",
    "marker-size": "small",
    "marker-color": "#FF8200"
   }
  },
  {
   "type": "Feature",
   "geometry": {
    "type": "Point",
    "coordinates": [
     -0.86832,
     41.63319
    ]
   },
   "properties": {
    "id": "EST-ZARAGOZAMIRAFLORES",
    "name": "Zaragoza-Miraflores",
    "province": "Zaragoza",
    "marker-symbol": "rail",
    "marker-size": "small",
    "marker-color": "#FF8200"
   }
  },
  {
   "type": "Feature",
   "geometry": {
    "type": "Point",
    "coordinates": [
     -0.61838,
     41.51524
    ]
   },
   "properties": {
    "id": "EST-FUENTESDEEBRO",
    "name": "Fuentes de Ebro",
    "province": "Zaragoza",
    "marker-symbol": "rail",
    "marker-size": "small",
    "marker-color": "#FF8200"
   }
  },
  {
   "type": "Feature",
   "geometry": {
    "type": "Point",
    "coordinates": [
     -0.49073,
     41.41944
    ]
   },
   "properties": {
    "id": "EST-QUINTO",
    "name": "Quinto",
    "province": "Zaragoza",
    "marker-symbol": "rail",
    "marker-size": "small",
    "marker-color": "#FF8200"
   }
  },
  {
   "type": "Feature",
   "geometry": {
    "type": "Point",
    "coordinates": [
     -0.42702,
     41.32049
    ]
   },
   "properties": {
    "id": "EST-LAZAIDASASTAGO",
    "name": "La Zaida-Sástago",
    "province": "Zaragoza",
    "marker-symbol": "rail",
    "marker-size": "small",
    "marker-color": "#FF8200"
   }
  },
  {
   "type": "Feature",
   "geometry": {
    "type": "Point",
    "coordinates": [
     -0.49469,
     41.29098
    ]
   },
   "properties": {
    "id": "EST-AZAILA",
    "name": "Azaila",
    "province": "Teruel",
    "marker-symbol": "rail",
    "marker-size": "small",
    "marker-color": "#FF8200"
   }
  },
  {
   "type": "Feature",
   "geometry": {
    "type": "Point",
    "coordinates": [
     -0.43819,
     41.22451
    ]
   },
   "properties": {
    "id": "EST-LAPUEBLADEHIJAR",
    "name": "La Puebla de Híjar",
    "province": "Teruel",
    "marker-symbol": "rail",
    "marker-size": "small",
    "marker-color": "#FF8200"
   }
  },
  {
   "type": "Feature",
   "geometry": {
    "type": "Point",
    "coordinates": [
     -0.36874,
     41.18208
    ]
   },
   "properties": {
    "id": "EST-SAMPER",
    "name": "Samper",
    "province": "Teruel",
    "marker-symbol": "rail",
    "marker-size": "small",
    "marker-color": "#FF8200"
   }
  },
  {
   "type": "Feature",
   "geometry": {
    "type": "Point",
    "coordinates": [
     -0.32495,
     41.28707
    ]
   },
   "properties": {
    "id": "EST-ESCATRON",
    "name": "Escatrón",
    "province": "Zaragoza",
    "marker-symbol": "rail",
    "marker-size": "small",
    "marker-color": "#FF8200"
   }
  },
  {
   "type": "Feature",
   "geometry": {
    "type": "Point",
    "coordinates": [
     -0.15543,
     41.23144
    ]
   },
   "properties": {
    "id": "EST-CHIPRANA",
    "name": "Chiprana",
    "province": "Zaragoza",
    "marker-symbol": "rail",
    "marker-size": "small",
    "marker-color": "#FF8200"
   }
  },
  {
   "type": "Feature",
   "geometry": {
    "type": "Point",
    "coordinates": [
     -0.04274,
     41.23991
    ]
   },
   "properties": {
    "id": "EST-CASPE",
    "name": "Caspe",
    "province": "Zaragoza",
    "marker-symbol": "rail",
    "marker-size": "small",
    "marker-color": "#FF8200"
   }
  },
  {
   "type": "Feature",
   "geometry": {
    "type": "Point",
    "coordinates": [
     0.07606,
     41.22955
    ]
   },
   "properties": {
    "id": "EST-VALDEPILAS",
    "name": "Val de Pilas",
    "province": "Zaragoza",
    "marker-symbol": "rail",
    "marker-size": "small",
    "marker-color": "#FF8200"
   }
  },
  {
   "type": "Feature",
   "geometry": {
    "type": "Point",
    "coordinates": [
     0.13895,
     41.22957
    ]
   },
   "properties": {
    "id": "EST-FABARA",
    "name": "Fabara",
    "province": "Zaragoza",
    "marker-symbol": "rail",
    "marker-size": "small",
    "marker-color": "#FF8200"
   }
  },
  {
   "type": "Feature",
   "geometry": {
    "type": "Point",
    "coordinates": [
     0.24239,
     41.21373
    ]
   },
   "properties": {
    "id": "EST-NONASPE",
    "name": "Nonaspe",
    "province": "Zaragoza",
    "marker-symbol": "rail",
    "marker-size": "small",
    "marker-color": "#FF8200"
   }
  },
  {
   "type": "Feature",
   "geometry": {
    "type": "Point",
    "coordinates": [
     0.48079,
     41.24851
    ]
   },
   "properties": {
    "id": "EST-RIBAROJADEBRE",
    "name": "Riba-roja d'Ebre",
    "province": "Tarragona",
    "marker-symbol": "rail",
    "marker-size": "small",
    "marker-color": "#FF8200"
   }
  },
  {
   "type": "Feature",
   "geometry": {
    "type": "Point",
    "coordinates": [
     0.54015,
     41.22942
    ]
   },
   "properties": {
    "id": "EST-FLIX",
    "name": "Flix",
    "province": "Tarragona",
    "marker-symbol": "rail",
    "marker-size": "small",
    "marker-color": "#FF8200"
   }
  },
  {
   "type": "Feature",
   "geometry": {
    "type": "Point",
    "coordinates": [
     0.56905,
     41.18232
    ]
   },
   "properties": {
    "id": "EST-ASCO",
    "name": "Ascó",
    "province": "Tarragona",
    "marker-symbol": "rail",
    "marker-size": "small",
    "marker-color": "#FF8200"
   }
  },
  {
   "type": "Feature",
   "geometry": {
    "type": "Point",
    "coordinates": [
     0.65342,
     41.10642
    ]
   },
   "properties": {
    "id": "EST-MORALANOVA",
    "name": "Móra la Nova",
    "province": "Tarragona",
    "marker-symbol": "rail",
    "marker-size": "small",
    "marker-color": "#FF8200"
   }
  },
  {
   "type": "Feature",
   "geometry": {
    "type": "Point",
    "coordinates": [
     0.81051,
     41.13093
    ]
   },
   "properties": {
    "id": "EST-MARCAFALSET",
    "name": "Marçà-Falset",
    "province": "Tarragona",
    "marker-symbol": "rail",
    "marker-size": "small",
    "marker-color": "#FF8200"
   }
  },
  {
   "type": "Feature",
   "geometry": {
    "type": "Point",
    "coordinates": [
     0.85864,
     41.13316
    ]
   },
   "properties": {
    "id": "EST-PRADELL",
    "name": "Pradell",
    "province": "Tarragona",
    "marker-symbol": "rail",
    "marker-size": "small",
    "marker-color": "#FF8200"
   }
  },
  {
   "type": "Feature",
   "geometry": {
    "type": "Point",
    "coordinates": [
     0.92079,
     41.14362
    ]
   },
   "properties": {
    "id": "EST-DUESAIGUESLARGENTERA",
    "name": "Duesaigües-L'Argentera",
    "province": "Tarragona",
    "marker-symbol": "rail",
    "marker-size": "small",
    "marker-color": "#FF8200"
   }
  },
  {
   "type": "Feature",
   "geometry": {
    "type": "Point",
    "coordinates": [
     0.97578,
     41.14005
    ]
   },
   "properties": {
    "id": "EST-RIUDECANYESBOTARELL",
    "name": "Riudecanyes-Botarell",
    "province": "Tarragona",
    "marker-symbol": "rail",
    "marker-size": "small",
    "marker-color": "#FF8200"
   }
  },
  {
   "type": "Feature",
   "geometry": {
    "type": "Point",
    "coordinates": [
     1.02207,
     41.16641
    ]
   },
   "properties": {
    "id": "EST-LESBORGESDELCAMP",
    "name": "Les Borges del Camp",
    "province": "Tarragona",
    "marker-symbol": "rail",
    "marker-size": "small",
    "marker-color": "#FF8200"
   }
  },
  {
   "type": "Feature",
   "geometry": {
    "type": "Point",
    "coordinates": [
     1.09994,
     41.1606
    ]
   },
   "properties": {
    "id": "EST-REUS",
    "name": "Reus",
    "province": "Tarragona",
    "marker-symbol": "rail",
    "marker-size": "small",
    "marker-color": "#FF8200"
   }
  },
  {
   "type": "Feature",
   "geometry": {
    "type": "Point",
    "coordinates": [
     1.25354,
     41.11122
    ]
   },
   "properties": {
    "id": "EST-TARRAGONA",
    "name": "Tarragona",
    "province": "Tarragona",
    "marker-symbol": "rail",
    "marker-size": "small",
    "marker-color": "#FF8200"
   }
  },
  {
   "type": "Feature",
   "geometry": {
    "type": "Point",
    "coordinates": [
     1.52579,
     41.18608
    ]
   },
   "properties": {
    "id": "EST-SANTVICENCDECALDERS",
    "name": "Sant Vicenç de Calders",
    "province": "Tarragona",
    "marker-symbol": "rail",
    "marker-size": "small",
    "marker-color": "#FF8200"
   }
  },
  {
   "type": "Feature",
   "geometry": {
    "type": "Point",
    "coordinates": [
     2.13996,
     41.37901
    ]
   },
   "properties": {
    "id": "EST-BARCELONASANTS",
    "name": "Barcelona-Sants",
    "province": "Barcelona",
    "marker-symbol": "rail",
    "marker-size": "small",
    "marker-color": "#FF8200"
   }
  },
  {
   "type": "Feature",
   "geometry": {
    "type": "Point",
    "coordinates": [
     2.16538,
     41.39254
    ]
   },
   "properties": {
    "id": "EST-BARCELONAPASSEIGDEGRACIA",
    "name": "Barcelona-Passeig de Gràcia",
    "province": "Barcelona",
    "marker-symbol": "rail",
    "marker-size": "small",
    "marker-color": "#FF8200"
   }
  },
  {
   "type": "Feature",
   "geometry": {
    "type": "Point",
    "coordinates": [
     2.18556,
     41.38439
    ]
   },
   "properties": {
    "id": "EST-BARCELONAESTACIODEFRANCA",
    "name": "Barcelona Estació de França",
    "province": "Barcelona",
    "marker-symbol": "rail",
    "marker-size": "small",
    "marker-color": "#FF8200"
   }
  }
 ]
}