{
 "type": "FeatureCollection",
 "features": [
  {
   "type": "Feature",
   "geometry": {
    "type": "LineString",
    "coordinates": [
     [
      -4.7272,
      41.64334
     ],
     [
      -4.70193,
      41.04707
     ],
     [
      -4.68332,
      40.65721
     ],
     [
      -4.13232,
      40.58526
     ],
     [
      -4.00815,
      40.62638
     ],
     [
      -3.71903,
      40.4216
     ]
    ]
   },
   "properties": {
    "lid": "68",
    "name": "MD 16 Valladolid - Madrid",
    "type": "Media Distancia",
    "operator": "Renfe",
    "stroke": "#FF8200",
    "stroke-width": 3,
    "stroke-opacity": 0.8,
    "total_sta": 6,
    "coords_sta": 6
   }
  },
  {
   "type": "Feature",
   "geometry": {
    "type": "Point",
    "coordinates": [
     -4.7272,
     41.64334
    ]
   },
   "properties": {
    "id": "EST-VALLADOLIDCAMPOGRANDE",
    "name": "Valladolid-Campo Grande",
    "province": "Valladolid",
    "marker-symbol": "rail",
    "marker-size": "small",
    "marker-color": "#FF8200"
   }
  },
  {
   "type": "Feature",
   "geometry": {
    "type": "Point",
    "coordinates": [
     -4.70193,
     41.04707
    ]
   },
   "properties": {
    "id": "EST-AREVALO",
    "name": "Arévalo",
    "province": "Ávila",
    "marker-symbol": "rail",
    "marker-size": "small",
    "marker-color": "#FF8200"
   }
  },
  {
   "type": "Feature",
   "geometry": {
    "type": "Point",
    "coordinates": [
     -4.68332,
     40.65721
    ]
   },
   "properties": {
    "id": "EST-AVILA",
    "name": "Ávila",
    "province": "Ávila",
    "marker-symbol": "rail",
    "marker-size": "small",
    "marker-color": "#FF8200"
   }
  },
  {
   "type": "Feature",
   "geometry": {
    "type": "Point",
    "coordinates": [
     -4.13232,
     40.58526
    ]
   },
   "properties": {
    "id": "EST-ELESCORIAL",
    "name": "El Escorial",
    "province": "Madrid",
    "marker-symbol": "rail",
    "marker-size": "small",
    "marker-color": "#FF8200"
   }
  },
  {
   "type": "Feature",
   "geometry": {
    "type": "Point",
    "coordinates": [
     -4.00815,
     40.62638
    ]
   },
   "properties": {
    "id": "EST-VILLALBA",
    "name": "Villalba",
    "province": "Madrid",
    "marker-symbol": "rail",
    "marker-size": "small",
    "marker-color": "#FF8200"
   }
  },
  {
   "type": "Feature",
   "geometry": {
    "type": "Point",
    "coordinates": [
     -3.71903,
     40.4216
    ]
   },
   "properties": {
    "id": "EST-MADRIDPRINCIPEPIO",
    "name": "Madrid-Príncipe Pío",
    "province": "Madrid",
    "marker-symbol": "rail",
    "marker-size": "small",
    "marker-color": "#FF8200"
   }
  }
 ]
}