{
 "type": "FeatureCollection",
 "features": [
  {
   "type": "Feature",
   "geometry": {
    "type": "LineString",
    "coordinates": [
     [
      -6.52214,
      42.4055
     ],
     [
      -6.04706,
      42.4594
     ],
     [
      -6.42221,
      42.60954
     ],
     [
      -6.60249,
      42.54566
     ],
     [
      -6.98505,
      42.41826
     ],
     [
      -7.11325,
      42.39261
     ],
     [
      -7.50314,
      42.52952
     ],
     [
      -7.87255,
      42.35069
     ],
     [
      -8.62232,
      42.06571
     ],
     [
      -8.62217,
      42.16414
     ],
     [
      -8.60372,
      42.28549
     ],
     [
      -8.71188,
      42.23952
     ]
    ]
   },
   "properties": {
    "lid": "72",
    "name": "MD 23 León - Vigo",
    "type": "Media Distancia",
    "operator": "Renfe",
    "stroke": "#FF8200",
    "stroke-width": 3,
    "stroke-opacity": 0.8,
    "total_sta": 12,
    "coords_sta": 12
   }
  },
  {
   "type": "Feature",
   "geometry": {
    "type": "Point",
    "coordinates": [
     -6.52214,
     42.4055
    ]
   },
   "properties": {
    "id": "EST-LEON",
    "name": "León",
    "province": "León",
    "marker-symbol": "rail",
    "marker-size": "small",
    "marker-color": "#FF8200"
   }
  },
  {
   "type": "Feature",
   "geometry": {
    "type": "Point",
    "coordinates": [
     -6.04706,
     42.4594
    ]
   },
   "properties": {
    "id": "EST-ASTORGA",
    "name": "Astorga",
    "province": "León",
    "marker-symbol": "rail",
    "marker-size": "small",
    "marker-color": "#FF8200"
   }
  },
  {
   "type": "Feature",
   "geometry": {
    "type": "Point",
    "coordinates": [
     -6.42221,
     42.60954
    ]
   },
   "properties": {
    "id": "EST-BEMBIBRE",
    "name": "Bembibre",
    "province": "León",
    "marker-symbol": "rail",
    "marker-size": "small",
    "marker-color": "#FF8200"
   }
  },
  {
   "type": "Feature",
   "geometry": {
    "type": "Point",
    "coordinates": [
     -6.60249,
     42.54566
    ]
   },
   "properties": {
    "id": "EST-PONFERRADA",
    "name": "Ponferrada",
    "province": "León",
    "marker-symbol": "rail",
    "marker-size": "small",
    "marker-color": "#FF8200"
   }
  },
  {
   "type": "Feature",
   "geometry": {
    "type": "Point",
    "coordinates": [
     -6.98505,
     42.41826
    ]
   },
   "properties": {
    "id": "EST-OBARCODEVALDEORRAS",
    "name": "O Barco de Valdeorras",
    "province": "Ourense",
    "marker-symbol": "rail",
    "marker-size": "small",
    "marker-color": "#FF8200"
   }
  },
  {
   "type": "Feature",
   "geometry": {
    "type": "Point",
    "coordinates": [
     -7.11325,
     42.39261
    ]
   },
   "properties": {
    "id": "EST-ARUAPETIN",
    "name": "A Rúa-Petín",
    "province": "Ourense",
    "marker-symbol": "rail",
    "marker-size": "small",
    "marker-color": "#FF8200"
   }
  },
  {
   "type": "Feature",
   "geometry": {
    "type": "Point",
    "coordinates": [
     -7.50314,
     42.52952
    ]
   },
   "properties": {
    "id": "EST-MONFORTEDELEMOS",
    "name": "Monforte de Lemos",
    "province": "Lugo",
    "marker-symbol": "rail",
    "marker-size": "small",
    "marker-color": "#FF8200"
   }
  },
  {
   "type": "Feature",
   "geometry": {
    "type": "Point",
    "coordinates": [
     -7.87255,
     42.35069
    ]
   },
   "properties": {
    "id": "EST-OURENSE",
    "name": "Ourense",
    "province": "Ourense",
    "marker-symbol": "rail",
    "marker-size": "small",
    "marker-color": "#FF8200"
   }
  },
  {
   "type": "Feature",
   "geometry": {
    "type": "Point",
    "coordinates": [
     -8.62232,
     42.06571
    ]
   },
   "properties": {
    "id": "EST-GUILLAREI",
    "name": "Guillarei",
    "province": "Pontevedra",
    "marker-symbol": "rail",
    "marker-size": "small",
    "marker-color": "#FF8200"
   }
  },
  {
   "type": "Feature",
   "geometry": {
    "type": "Point",
    "coordinates": [
     -8.62217,
     42.16414
    ]
   },
   "properties": {
    "id": "EST-OPORRINO",
    "name": "O Porriño",
    "province": "Pontevedra",
    "marker-symbol": "rail",
    "marker-size": "small",
    "marker-color": "#FF8200"
   }
  },
  {
   "type": "Feature",
   "geometry": {
    "type": "Point",
    "coordinates": [
     -8.60372,
     42.28549
    ]
   },
   "properties": {
    "id": "EST-REDONDELA",
    "name": "Redondela",
    "province": "Pontevedra",
    "marker-symbol": "rail",
    "marker-size": "small",
    "marker-color": "#FF8200"
   }
  },
  {
   "type": "Feature",
   "geometry": {
    "type": "Point",
    "coordinates": [
     -8.71188,
     42.23952
    ]
   },
   "properties": {
    "id": "EST-VIGOGUIXAR",
    "name": "Vigo-Guixar",
    "province": "Pontevedra",
    "marker-symbol": "rail",
    "marker-size": "small",
    "marker-color": "#FF8200"
   }
  }
 ]
}