{
 "type": "FeatureCollection",
 "features": [
  {
   "type": "Feature",
   "geometry": {
    "type": "LineString",
    "coordinates": [
     [
      -4.53386,
      42.01573
     ],
     [
      -4.40239,
      42.26487
     ],
     [
      -4.35728,
      42.41418
     ],
     [
      -4.31647,
      42.59868
     ],
     [
      -4.31123,
      42.65682
     ],
     [
      -4.23375,
      42.78527
     ],
     [
      -4.14103,
      42.99434
     ],
     [
      -4.06397,
      43.25507
     ],
     [
      -4.04246,
      43.32744
     ],
     [
      -3.81102,
      43.4583
     ]
    ]
   },
   "properties": {
    "lid": "76",
    "name": "Regional Palencia - Santander",
    "type": "Regional",
    "operator": "Renfe",
    "stroke": "#898989",
    "stroke-width": 3,
    "stroke-opacity": 0.8,
    "total_sta": 10,
    "coords_sta": 10
   }
  },
  {
   "type": "Feature",
   "geometry": {
    "type": "Point",
    "coordinates": [
     -4.53386,
     42.01573
    ]
   },
   "properties": {
    "id": "EST-PALENCIA",
    "name": "Palencia",
    "province": "Palencia",
    "marker-symbol": "rail",
    "marker-size": "small",
    "marker-color": "#898989"
   }
  },
  {
   "type": "Feature",
   "geometry": {
    "type": "Point",
    "coordinates": [
     -4.40239,
     42.26487
    ]
   },
   "properties": {
    "id": "EST-FROMISTA",
    "name": "Frómista",
    "province": "Palencia",
    "marker-symbol": "rail",
    "marker-size": "small",
    "marker-color": "#898989"
   }
  },
  {
   "type": "Feature",
   "geometry": {
    "type": "Point",
    "coordinates": [
     -4.35728,
     42.41418
    ]
   },
   "properties": {
    "id": "EST-OSORNO",
    "name": "Osorno",
    "province": "Palencia",
    "marker-symbol": "rail",
    "marker-size": "small",
    "marker-color": "#898989"
   }
  },
  {
   "type": "Feature",
   "geometry": {
    "type": "Point",
    "coordinates": [
     -4.31647,
     42.59868
    ]
   },
   "properties": {
    "id": "EST-HERRERADEPISUERGA",
    "name": "Herrera de Pisuerga",
    "province": "Palencia",
    "marker-symbol": "rail",
    "marker-size": "small",
    "marker-color": "#898989"
   }
  },
  {
   "type": "Feature",
   "geometry": {
    "type": "Point",
    "coordinates": [
     -4.31123,
     42.65682
    ]
   },
   "properties": {
    "id": "EST-ALARDELREY",
    "name": "Alar del Rey",
    "province": "Palencia",
    "marker-symbol": "rail",
    "marker-size": "small",
    "marker-color": "#898989"
   }
  },
  {
   "type": "Feature",
   "geometry": {
    "type": "Point",
    "coordinates": [
     -4.23375,
     42.78527
    ]
   },
   "properties": {
    "id": "EST-AGUILARDECAMPOO",
    "name": "Aguilar de Campoo",
    "province": "Palencia",
    "marker-symbol": "rail",
    "marker-size": "small",
    "marker-color": "#898989"
   }
  },
  {
   "type": "Feature",
   "geometry": {
    "type": "Point",
    "coordinates": [
     -4.14103,
     42.99434
    ]
   },
   "properties": {
    "id": "EST-REINOSA",
    "name": "Reinosa",
    "province": "Cantabria",
    "marker-symbol": "rail",
    "marker-size": "small",
    "marker-color": "#898989"
   }
  },
  {
   "type": "Feature",
   "geometry": {
    "type": "Point",
    "coordinates": [
     -4.06397,
     43.25507
    ]
   },
   "properties": {
    "id": "EST-LOSCORRALESDEBUELNA",
    "name": "Los Corrales de Buelna",
    "province": "Cantabria",
    "marker-symbol": "rail",
    "marker-size": "small",
    "marker-color": "#898989"
   }
  },
  {
   "type": "Feature",
   "geometry": {
    "type": "Point",
    "coordinates": [
     -4.04246,
     43.32744
    ]
   },
   "properties": {
    "id": "EST-TORRELAVEGA",
    "name": "Torrelavega",
    "province": "Cantabria",
    "marker-symbol": "rail",
    "marker-size": "small",
    "marker-color": "#898989"
   }
  },
  {
   "type": "Feature",
   "geometry": {
    "type": "Point",
    "coordinates": [
     -3.81102,
     43.4583
    ]
   },
   "properties": {
    "id": "EST-SANTANDER",
    "name": "Santander",
    "province": "Cantabria",
    "marker-symbol": "rail",
    "marker-size": "small",
    "marker-color": "#898989"
   }
  }
 ]
}