{
 "type": "FeatureCollection",
 "features": [
  {
   "type": "Feature",
   "geometry": {
    "type": "LineString",
    "coordinates": [
     [
      -0.37719,
      39.46691
     ],
     [
      -3.69002,
      40.40568
     ]
    ]
   },
   "properties": {
    "lid": "82",
    "name": "Regional Valencia - Madrid",
    "type": "Regional",
    "operator": "Renfe",
    "stroke": "#898989",
    "stroke-width": 3,
    "stroke-opacity": 0.8,
    "total_sta": 2,
    "coords_sta": 2
   }
  },
  {
   "type": "Feature",
   "geometry": {
    "type": "Point",
    "coordinates": [
     -0.37719,
     39.46691
    ]
   },
   "properties": {
    "id": "EST-VALENCIANORD",
    "name": "València-Nord",
    "province": "Valencia",
    "marker-symbol": "rail",
    "marker-size": "small",
    "marker-color": "#898989"
   }
  },
  {
   "type": "Feature",
   "geometry": {
    "type": "Point",
    "coordinates": [
     -3.69002,
     40.40568
    ]
   },
   "properties": {
    "id": "EST-MADRIDPUERTADEATOCHAALMUDENAGRANDES",
    "name": "Madrid-Puerta de Atocha-Almudena Grandes",
    "province": "Madrid",
    "marker-symbol": "rail",
    "marker-size": "small",
    "marker-color": "#898989"
   }
  }
 ]
}