{
 "type": "FeatureCollection",
 "features": [
  {
   "type": "Feature",
   "geometry": {
    "type": "LineString",
    "coordinates": [
     [
      -3.68271,
      40.47395
     ],
     [
      -3.6886,
      40.40697
     ],
     [
      -3.61825,
      40.03483
     ],
     [
      -3.20537,
      39.39566
     ],
     [
      -2.77539,
      39.27854
     ],
     [
      -2.59851,
      39.26072
     ],
     [
      -2.16292,
      39.19932
     ],
     [
      -1.85687,
      38.99485
     ]
    ]
   },
   "properties": {
    "lid": "85",
    "name": "MD 57 Madrid - Albacete",
    "type": "Media Distancia",
    "operator": "Renfe",
    "stroke": "#FF8200",
    "stroke-width": 3,
    "stroke-opacity": 0.8,
    "total_sta": 8,
    "coords_sta": 8
   }
  },
  {
   "type": "Feature",
   "geometry": {
    "type": "Point",
    "coordinates": [
     -3.68271,
     40.47395
    ]
   },
   "properties": {
    "id": "EST-MADRIDCHAMARTIN",
    "name": "Madrid-Chamartín",
    "province": "Madrid",
    "marker-symbol": "rail",
    "marker-size": "small",
    "marker-color": "#FF8200"
   }
  },
  {
   "type": "Feature",
   "geometry": {
    "type": "Point",
    "coordinates": [
     -3.6886,
     40.40697
    ]
   },
   "properties": {
    "id": "EST-MADRIDATOCHACERCANIAS",
    "name": "Madrid-Atocha Cercanías",
    "province": "Madrid",
    "marker-symbol": "rail",
    "marker-size": "small",
    "marker-color": "#FF8200"
   }
  },
  {
   "type": "Feature",
   "geometry": {
    "type": "Point",
    "coordinates": [
     -3.61825,
     40.03483
    ]
   },
   "properties": {
    "id": "EST-ARANJUEZ",
    "name": "Aranjuez",
    "province": "Madrid",
    "marker-symbol": "rail",
    "marker-size": "small",
    "marker-color": "#FF8200"
   }
  },
  {
   "type": "Feature",
   "geometry": {
    "type": "Point",
    "coordinates": [
     -3.20537,
     39.39566
    ]
   },
   "properties": {
    "id": "EST-ALCAZARDESANJUAN",
    "name": "Alcázar de San Juan",
    "province": "Ciudad Real",
    "marker-symbol": "rail",
    "marker-size": "small",
    "marker-color": "#FF8200"
   }
  },
  {
   "type": "Feature",
   "geometry": {
    "type": "Point",
    "coordinates": [
     -2.77539,
     39.27854
    ]
   },
   "properties": {
    "id": "EST-SOCUELLAMOS",
    "name": "Socuéllamos",
    "province": "Ciudad Real",
    "marker-symbol": "rail",
    "marker-size": "small",
    "marker-color": "#FF8200"
   }
  },
  {
   "type": "Feature",
   "geometry": {
    "type": "Point",
    "coordinates": [
     -2.59851,
     39.26072
    ]
   },
   "properties": {
    "id": "EST-VILLARROBLEDO",
    "name": "Villarrobledo",
    "province": "Albacete",
    "marker-symbol": "rail",
    "marker-size": "small",
    "marker-color": "#FF8200"
   }
  },
  {
   "type": "Feature",
   "geometry": {
    "type": "Point",
    "coordinates": [
     -2.16292,
     39.19932
    ]
   },
   "properties": {
    "id": "EST-LARODA",
    "name": "La Roda",
    "province": "Albacete",
    "marker-symbol": "rail",
    "marker-size": "small",
    "marker-color": "#FF8200"
   }
  },
  {
   "type": "Feature",
   "geometry": {
    "type": "Point",
    "coordinates": [
     -1.85687,
     38.99485
    ]
   },
   "properties": {
    "id": "EST-ALBACETELOSLLANOS",
    "name": "Albacete-Los Llanos",
    "province": "Albacete",
    "marker-symbol": "rail",
    "marker-size": "small",
    "marker-color": "#FF8200"
   }
  }
 ]
}