{
  "type": "FeatureCollection",
  "features": [
    {
      "type": "Feature",
      "properties": {
        "id": "101",
        "name": "Regional Madrid - Castejón",
        "line_type": "Regional",
        "operator": "Renfe"
      },
      "geometry": {
        "type": "LineString",
        "coordinates": [
          [
            -3.68271,
            40.47395
          ],
          [
            -3.18225,
            40.64408
          ],
          [
            -2.64622,
            41.07145
          ],
          [
            -2.49305,
            41.13631
          ],
          [
            -2.42117,
            41.16522
          ],
          [
            -2.27769,
            41.21565
          ],
          [
            -2.52534,
            41.48919
          ],
          [
            -2.47561,
            41.75535
          ],
          [
            -1.99851,
            41.80555
          ],
          [
            -1.69244,
            42.17287
          ]
        ]
      }
    },
    {
      "type": "Feature",
      "properties": {
        "id": "EST-MADRIDCHAMARTIN",
        "name": "Madrid-Chamartín",
        "line": "Regional Madrid - Castejón"
      },
      "geometry": {
        "type": "Point",
        "coordinates": [
          -3.68271,
          40.47395
        ]
      }
    },
    {
      "type": "Feature",
      "properties": {
        "id": "EST-GUADALAJARA",
        "name": "Guadalajara",
        "line": "Regional Madrid - Castejón"
      },
      "geometry": {
        "type": "Point",
        "coordinates": [
          -3.18225,
          40.64408
        ]
      }
    },
    {
      "type": "Feature",
      "properties": {
        "id": "EST-SIGUENZA",
        "name": "Sigüenza",
        "line": "Regional Madrid - Castejón"
      },
      "geometry": {
        "type": "Point",
        "coordinates": [
          -2.64622,
          41.07145
        ]
      }
    },
    {
      "type": "Feature",
      "properties": {
        "id": "EST-TORRALBA",
        "name": "Torralba",
        "line": "Regional Madrid - Castejón"
      },
      "geometry": {
        "type": "Point",
        "coordinates": [
          -2.49305,
          41.13631
        ]
      }
    },
    {
      "type": "Feature",
      "properties": {
        "id": "EST-MEDINACELI",
        "name": "Medinaceli",
        "line": "Regional Madrid - Castejón"
      },
      "geometry": {
        "type": "Point",
        "coordinates": [
          -2.42117,
          41.16522
        ]
      }
    },
    {
      "type": "Feature",
      "properties": {
        "id": "EST-ARCOSDEJALON",
        "name": "Arcos de Jalón",
        "line": "Regional Madrid - Castejón"
      },
      "geometry": {
        "type": "Point",
        "coordinates": [
          -2.27769,
          41.21565
        ]
      }
    },
    {
      "type": "Feature",
      "properties": {
        "id": "EST-ALMAZANVILLA",
        "name": "Almazán-Villa",
        "line": "Regional Madrid - Castejón"
      },
      "geometry": {
        "type": "Point",
        "coordinates": [
          -2.52534,
          41.48919
        ]
      }
    },
    {
      "type": "Feature",
      "properties": {
        "id": "EST-SORIA",
        "name": "Soria",
        "line": "Regional Madrid - Castejón"
      },
      "geometry": {
        "type": "Point",
        "coordinates": [
          -2.47561,
          41.75535
        ]
      }
    },
    {
      "type": "Feature",
      "properties": {
        "id": "EST-OLVEGA",
        "name": "Ólvega",
        "line": "Regional Madrid - Castejón"
      },
      "geometry": {
        "type": "Point",
        "coordinates": [
          -1.99851,
          41.80555
        ]
      }
    },
    {
      "type": "Feature",
      "properties": {
        "id": "EST-CASTEJONDEEBRO",
        "name": "Castejón de Ebro",
        "line": "Regional Madrid - Castejón"
      },
      "geometry": {
        "type": "Point",
        "coordinates": [
          -1.69244,
          42.17287
        ]
      }
    }
  ]
}