{
  "type": "FeatureCollection",
  "features": [
    {
      "type": "Feature",
      "properties": {
        "id": "115",
        "name": "R4 Correo de La Robla León - Bilbao",
        "line_type": "Regional",
        "operator": "Renfe Cercanías AM"
      },
      "geometry": {
        "type": "LineString",
        "coordinates": [
          [
            -6.52214,
            42.4055
          ],
          [
            -2.94928,
            43.26211
          ],
          [
            -4.48415,
            41.15566
          ],
          [
            -5.56132,
            42.6291
          ],
          [
            -5.53796,
            42.68227
          ],
          [
            -6.12266,
            39.92974
          ],
          [
            -5.52995,
            42.71871
          ],
          [
            1.9026,
            41.2543
          ],
          [
            -5.51642,
            42.75472
          ],
          [
            -5.51191,
            42.77153
          ],
          [
            -5.50703,
            42.79091
          ],
          [
            -5.50822,
            42.80634
          ],
          [
            -5.62648,
            42.80399
          ],
          [
            -5.62641,
            42.80399
          ],
          [
            -5.50736,
            42.84072
          ],
          [
            -5.52217,
            42.84114
          ],
          [
            -5.50736,
            42.84072
          ],
          [
            -5.62641,
            42.80399
          ],
          [
            -5.48701,
            42.84966
          ],
          [
            -5.44283,
            42.85473
          ],
          [
            -5.42873,
            42.85591
          ],
          [
            -5.41207,
            42.85511
          ],
          [
            -5.40324,
            42.86494
          ],
          [
            -5.38997,
            42.85959
          ],
          [
            -5.33952,
            42.85855
          ],
          [
            -5.3345,
            42.86463
          ],
          [
            -5.32871,
            42.86278
          ],
          [
            -5.31818,
            42.83857
          ],
          [
            2.81578,
            41.97905
          ],
          [
            -5.21402,
            42.80889
          ],
          [
            -5.18003,
            42.80978
          ],
          [
            -5.12748,
            42.78615
          ],
          [
            -5.13091,
            42.80318
          ],
          [
            -5.07096,
            42.76789
          ],
          [
            -5.28308,
            42.81238
          ],
          [
            -5.04132,
            42.7703
          ],
          [
            -5.02714,
            42.78328
          ],
          [
            -5.00559,
            42.77981
          ],
          [
            -4.97248,
            42.7876
          ],
          [
            -4.92968,
            42.76528
          ],
          [
            -4.90536,
            42.78668
          ],
          [
            -4.85188,
            42.79097
          ],
          [
            -4.85188,
            42.79097
          ],
          [
            -4.74178,
            42.80196
          ],
          [
            -4.60194,
            42.81211
          ],
          [
            -4.68605,
            42.81855
          ],
          [
            -4.4944,
            42.83933
          ],
          [
            -4.38611,
            42.85131
          ],
          [
            -4.23375,
            42.78527
          ],
          [
            -4.16506,
            42.87121
          ],
          [
            -4.07531,
            42.91032
          ],
          [
            -4.04268,
            42.9321
          ],
          [
            -3.86794,
            40.49429
          ],
          [
            -3.98261,
            42.98795
          ],
          [
            -3.94475,
            42.99152
          ],
          [
            -3.85841,
            42.99637
          ],
          [
            -3.84486,
            43.00579
          ],
          [
            -3.88,
            42.96
          ],
          [
            -3.75683,
            43.01241
          ],
          [
            -3.68835,
            43.04527
          ],
          [
            -3.45763,
            43.0884
          ],
          [
            -3.64815,
            40.43311
          ],
          [
            -3.64949,
            43.17974
          ],
          [
            -3.61968,
            43.06058
          ],
          [
            -3.68835,
            43.04527
          ],
          [
            -3.45763,
            43.0884
          ],
          [
            -3.64815,
            40.43311
          ],
          [
            -3.64949,
            43.17974
          ],
          [
            -3.64949,
            43.17974
          ],
          [
            -3.50392,
            43.20202
          ],
          [
            -3.12,
            43.21
          ],
          [
            -3.43834,
            43.28247
          ],
          [
            -3.43828,
            43.28203
          ],
          [
            -3.44564,
            43.31366
          ],
          [
            -3.42105,
            43.34653
          ],
          [
            -3.43336,
            43.35883
          ],
          [
            -3.46936,
            43.39418
          ],
          [
            -3.49051,
            43.41708
          ],
          [
            -3.52496,
            43.42303
          ],
          [
            -3.57707,
            43.41363
          ],
          [
            -3.66666,
            43.40502
          ],
          [
            -3.70366,
            43.41124
          ],
          [
            -3.73816,
            43.39942
          ],
          [
            -3.76655,
            43.40105
          ],
          [
            -3.8209,
            43.40396
          ],
          [
            -3.84096,
            43.41612
          ],
          [
            -3.81102,
            43.4583
          ],
          [
            -3.71177,
            40.34103
          ],
          [
            -3.19827,
            43.23335
          ],
          [
            -3.10896,
            43.2105
          ],
          [
            -3.10896,
            43.2105
          ],
          [
            -3.13333,
            43.21283
          ],
          [
            -3.13853,
            43.21095
          ],
          [
            -3.18981,
            43.19654
          ],
          [
            -3.19746,
            43.19006
          ],
          [
            -3.18981,
            43.19654
          ],
          [
            -3.10896,
            43.2105
          ],
          [
            -3.13333,
            43.21283
          ],
          [
            -3.13853,
            43.21095
          ],
          [
            -3.05048,
            43.20205
          ],
          [
            -3.09533,
            43.20896
          ],
          [
            -3.10896,
            43.2105
          ],
          [
            -3.05048,
            43.20205
          ],
          [
            -3.01643,
            43.23336
          ],
          [
            -2.98998,
            43.24782
          ],
          [
            -2.97199,
            43.25544
          ],
          [
            -2.97268,
            43.26171
          ],
          [
            -2.97203,
            43.27771
          ],
          [
            -2.95322,
            43.25965
          ],
          [
            -2.92524,
            43.29188
          ],
          [
            -2.9265,
            43.25991
          ]
        ]
      }
    },
    {
      "type": "Feature",
      "properties": {
        "id": "EST-LEON",
        "name": "León",
        "line": "R4 Correo de La Robla León - Bilbao"
      },
      "geometry": {
        "type": "Point",
        "coordinates": [
          -6.52214,
          42.4055
        ]
      }
    },
    {
      "type": "Feature",
      "properties": {
        "id": "EST-VENTASSANMAMES",
        "name": "Ventas-San Mamés",
        "line": "R4 Correo de La Robla León - Bilbao"
      },
      "geometry": {
        "type": "Point",
        "coordinates": [
          -2.94928,
          43.26211
        ]
      }
    },
    {
      "type": "Feature",
      "properties": {
        "id": "EST-ASUNCIONUNIVERSIDAD",
        "name": "Asunción-Universidad",
        "line": "R4 Correo de La Robla León - Bilbao"
      },
      "geometry": {
        "type": "Point",
        "coordinates": [
          -4.48415,
          41.15566
        ]
      }
    },
    {
      "type": "Feature",
      "properties": {
        "id": "EST-VILLAROMANA",
        "name": "Villa Romana",
        "line": "R4 Correo de La Robla León - Bilbao"
      },
      "geometry": {
        "type": "Point",
        "coordinates": [
          -5.56132,
          42.6291
        ]
      }
    },
    {
      "type": "Feature",
      "properties": {
        "id": "EST-SANFELIZ",
        "name": "San Feliz",
        "line": "R4 Correo de La Robla León - Bilbao"
      },
      "geometry": {
        "type": "Point",
        "coordinates": [
          -5.53796,
          42.68227
        ]
      }
    },
    {
      "type": "Feature",
      "properties": {
        "id": "EST-PALAZUELO",
        "name": "Palazuelo",
        "line": "R4 Correo de La Robla León - Bilbao"
      },
      "geometry": {
        "type": "Point",
        "coordinates": [
          -6.12266,
          39.92974
        ]
      }
    },
    {
      "type": "Feature",
      "properties": {
        "id": "EST-VALDERILLA",
        "name": "Valderilla",
        "line": "R4 Correo de La Robla León - Bilbao"
      },
      "geometry": {
        "type": "Point",
        "coordinates": [
          -5.52995,
          42.71871
        ]
      }
    },
    {
      "type": "Feature",
      "properties": {
        "id": "EST-GARRAFE",
        "name": "Garrafe",
        "line": "R4 Correo de La Robla León - Bilbao"
      },
      "geometry": {
        "type": "Point",
        "coordinates": [
          1.9026,
          41.2543
        ]
      }
    },
    {
      "type": "Feature",
      "properties": {
        "id": "EST-MANZANEDA",
        "name": "Manzaneda",
        "line": "R4 Correo de La Robla León - Bilbao"
      },
      "geometry": {
        "type": "Point",
        "coordinates": [
          -5.51642,
          42.75472
        ]
      }
    },
    {
      "type": "Feature",
      "properties": {
        "id": "EST-MATUECA",
        "name": "Matueca",
        "line": "R4 Correo de La Robla León - Bilbao"
      },
      "geometry": {
        "type": "Point",
        "coordinates": [
          -5.51191,
          42.77153
        ]
      }
    },
    {
      "type": "Feature",
      "properties": {
        "id": "EST-PEDRUN",
        "name": "Pedrún",
        "line": "R4 Correo de La Robla León - Bilbao"
      },
      "geometry": {
        "type": "Point",
        "coordinates": [
          -5.50703,
          42.79091
        ]
      }
    },
    {
      "type": "Feature",
      "properties": {
        "id": "EST-PARDAVE",
        "name": "Pardavé",
        "line": "R4 Correo de La Robla León - Bilbao"
      },
      "geometry": {
        "type": "Point",
        "coordinates": [
          -5.50822,
          42.80634
        ]
      }
    },
    {
      "type": "Feature",
      "properties": {
        "id": "EST-LAROBLA",
        "name": "La Robla",
        "line": "R4 Correo de La Robla León - Bilbao"
      },
      "geometry": {
        "type": "Point",
        "coordinates": [
          -5.62648,
          42.80399
        ]
      }
    },
    {
      "type": "Feature",
      "properties": {
        "id": "EST-ALCEDO",
        "name": "Alcedo",
        "line": "R4 Correo de La Robla León - Bilbao"
      },
      "geometry": {
        "type": "Point",
        "coordinates": [
          -5.62641,
          42.80399
        ]
      }
    },
    {
      "type": "Feature",
      "properties": {
        "id": "EST-ROBLES",
        "name": "Robles",
        "line": "R4 Correo de La Robla León - Bilbao"
      },
      "geometry": {
        "type": "Point",
        "coordinates": [
          -5.50736,
          42.84072
        ]
      }
    },
    {
      "type": "Feature",
      "properties": {
        "id": "EST-MATALLANA",
        "name": "Matallana",
        "line": "R4 Correo de La Robla León - Bilbao"
      },
      "geometry": {
        "type": "Point",
        "coordinates": [
          -5.52217,
          42.84114
        ]
      }
    },
    {
      "type": "Feature",
      "properties": {
        "id": "EST-ROBLES",
        "name": "Robles",
        "line": "R4 Correo de La Robla León - Bilbao"
      },
      "geometry": {
        "type": "Point",
        "coordinates": [
          -5.50736,
          42.84072
        ]
      }
    },
    {
      "type": "Feature",
      "properties": {
        "id": "EST-ALCEDO",
        "name": "Alcedo",
        "line": "R4 Correo de La Robla León - Bilbao"
      },
      "geometry": {
        "type": "Point",
        "coordinates": [
          -5.62641,
          42.80399
        ]
      }
    },
    {
      "type": "Feature",
      "properties": {
        "id": "EST-LAVALCUEVA",
        "name": "La Valcueva",
        "line": "R4 Correo de La Robla León - Bilbao"
      },
      "geometry": {
        "type": "Point",
        "coordinates": [
          -5.48701,
          42.84966
        ]
      }
    },
    {
      "type": "Feature",
      "properties": {
        "id": "EST-AVIADOS",
        "name": "Aviados",
        "line": "R4 Correo de La Robla León - Bilbao"
      },
      "geometry": {
        "type": "Point",
        "coordinates": [
          -5.44283,
          42.85473
        ]
      }
    },
    {
      "type": "Feature",
      "properties": {
        "id": "EST-CAMPOHERMOSO",
        "name": "Campohermoso",
        "line": "R4 Correo de La Robla León - Bilbao"
      },
      "geometry": {
        "type": "Point",
        "coordinates": [
          -5.42873,
          42.85591
        ]
      }
    },
    {
      "type": "Feature",
      "properties": {
        "id": "EST-LAVECILLA",
        "name": "La Vecilla",
        "line": "R4 Correo de La Robla León - Bilbao"
      },
      "geometry": {
        "type": "Point",
        "coordinates": [
          -5.41207,
          42.85511
        ]
      }
    },
    {
      "type": "Feature",
      "properties": {
        "id": "EST-VALDEPIELAGO",
        "name": "Valdepiélago",
        "line": "R4 Correo de La Robla León - Bilbao"
      },
      "geometry": {
        "type": "Point",
        "coordinates": [
          -5.40324,
          42.86494
        ]
      }
    },
    {
      "type": "Feature",
      "properties": {
        "id": "EST-OTERO",
        "name": "Otero",
        "line": "R4 Correo de La Robla León - Bilbao"
      },
      "geometry": {
        "type": "Point",
        "coordinates": [
          -5.38997,
          42.85959
        ]
      }
    },
    {
      "type": "Feature",
      "properties": {
        "id": "EST-LAMATADELARIBA",
        "name": "La Mata de la Riba",
        "line": "R4 Correo de La Robla León - Bilbao"
      },
      "geometry": {
        "type": "Point",
        "coordinates": [
          -5.33952,
          42.85855
        ]
      }
    },
    {
      "type": "Feature",
      "properties": {
        "id": "EST-BARRIODELASOLLAS",
        "name": "Barrio de las Ollas",
        "line": "R4 Correo de La Robla León - Bilbao"
      },
      "geometry": {
        "type": "Point",
        "coordinates": [
          -5.3345,
          42.86463
        ]
      }
    },
    {
      "type": "Feature",
      "properties": {
        "id": "EST-BONAR",
        "name": "Boñar",
        "line": "R4 Correo de La Robla León - Bilbao"
      },
      "geometry": {
        "type": "Point",
        "coordinates": [
          -5.32871,
          42.86278
        ]
      }
    },
    {
      "type": "Feature",
      "properties": {
        "id": "EST-LALOSILLA",
        "name": "La Losilla",
        "line": "R4 Correo de La Robla León - Bilbao"
      },
      "geometry": {
        "type": "Point",
        "coordinates": [
          -5.31818,
          42.83857
        ]
      }
    },
    {
      "type": "Feature",
      "properties": {
        "id": "EST-LADEVESA",
        "name": "La Devesa",
        "line": "R4 Correo de La Robla León - Bilbao"
      },
      "geometry": {
        "type": "Point",
        "coordinates": [
          2.81578,
          41.97905
        ]
      }
    },
    {
      "type": "Feature",
      "properties": {
        "id": "EST-LAERCINA",
        "name": "La Ercina",
        "line": "R4 Correo de La Robla León - Bilbao"
      },
      "geometry": {
        "type": "Point",
        "coordinates": [
          -5.21402,
          42.80889
        ]
      }
    },
    {
      "type": "Feature",
      "properties": {
        "id": "EST-YUGUEROS",
        "name": "Yugueros",
        "line": "R4 Correo de La Robla León - Bilbao"
      },
      "geometry": {
        "type": "Point",
        "coordinates": [
          -5.18003,
          42.80978
        ]
      }
    },
    {
      "type": "Feature",
      "properties": {
        "id": "EST-SORRIBA",
        "name": "Sorriba",
        "line": "R4 Correo de La Robla León - Bilbao"
      },
      "geometry": {
        "type": "Point",
        "coordinates": [
          -5.12748,
          42.78615
        ]
      }
    },
    {
      "type": "Feature",
      "properties": {
        "id": "EST-CISTIERNA",
        "name": "Cistierna",
        "line": "R4 Correo de La Robla León - Bilbao"
      },
      "geometry": {
        "type": "Point",
        "coordinates": [
          -5.13091,
          42.80318
        ]
      }
    },
    {
      "type": "Feature",
      "properties": {
        "id": "EST-VALLEDELASCASAS",
        "name": "Valle de las Casas",
        "line": "R4 Correo de La Robla León - Bilbao"
      },
      "geometry": {
        "type": "Point",
        "coordinates": [
          -5.07096,
          42.76789
        ]
      }
    },
    {
      "type": "Feature",
      "properties": {
        "id": "EST-BARRILLOS",
        "name": "Barrillos",
        "line": "R4 Correo de La Robla León - Bilbao"
      },
      "geometry": {
        "type": "Point",
        "coordinates": [
          -5.28308,
          42.81238
        ]
      }
    },
    {
      "type": "Feature",
      "properties": {
        "id": "EST-LALLAMADELAGUZPENA",
        "name": "La Llama de la Guzpeña",
        "line": "R4 Correo de La Robla León - Bilbao"
      },
      "geometry": {
        "type": "Point",
        "coordinates": [
          -5.04132,
          42.7703
        ]
      }
    },
    {
      "type": "Feature",
      "properties": {
        "id": "EST-PRADODELAGUZPENA",
        "name": "Prado de la Guzpeña",
        "line": "R4 Correo de La Robla León - Bilbao"
      },
      "geometry": {
        "type": "Point",
        "coordinates": [
          -5.02714,
          42.78328
        ]
      }
    },
    {
      "type": "Feature",
      "properties": {
        "id": "EST-CEREZALDELAGUZPENA",
        "name": "Cerezal de la Guzpeña",
        "line": "R4 Correo de La Robla León - Bilbao"
      },
      "geometry": {
        "type": "Point",
        "coordinates": [
          -5.00559,
          42.77981
        ]
      }
    },
    {
      "type": "Feature",
      "properties": {
        "id": "EST-PUENTEALMUHEY",
        "name": "Puente Almuhey",
        "line": "R4 Correo de La Robla León - Bilbao"
      },
      "geometry": {
        "type": "Point",
        "coordinates": [
          -4.97248,
          42.7876
        ]
      }
    },
    {
      "type": "Feature",
      "properties": {
        "id": "EST-VALCUENDE",
        "name": "Valcuende",
        "line": "R4 Correo de La Robla León - Bilbao"
      },
      "geometry": {
        "type": "Point",
        "coordinates": [
          -4.92968,
          42.76528
        ]
      }
    },
    {
      "type": "Feature",
      "properties": {
        "id": "EST-LAESPINA",
        "name": "La Espina",
        "line": "R4 Correo de La Robla León - Bilbao"
      },
      "geometry": {
        "type": "Point",
        "coordinates": [
          -4.90536,
          42.78668
        ]
      }
    },
    {
      "type": "Feature",
      "properties": {
        "id": "EST-GUARDOAPEADERO",
        "name": "Guardo-Apeadero",
        "line": "R4 Correo de La Robla León - Bilbao"
      },
      "geometry": {
        "type": "Point",
        "coordinates": [
          -4.85188,
          42.79097
        ]
      }
    },
    {
      "type": "Feature",
      "properties": {
        "id": "EST-GUARDO",
        "name": "Guardo",
        "line": "R4 Correo de La Robla León - Bilbao"
      },
      "geometry": {
        "type": "Point",
        "coordinates": [
          -4.85188,
          42.79097
        ]
      }
    },
    {
      "type": "Feature",
      "properties": {
        "id": "EST-SANTIBAÑEZDELAPENA",
        "name": "Santibáñez de la Peña",
        "line": "R4 Correo de La Robla León - Bilbao"
      },
      "geometry": {
        "type": "Point",
        "coordinates": [
          -4.74178,
          42.80196
        ]
      }
    },
    {
      "type": "Feature",
      "properties": {
        "id": "EST-CASTREJONDELAPENA",
        "name": "Castrejón de la Peña",
        "line": "R4 Correo de La Robla León - Bilbao"
      },
      "geometry": {
        "type": "Point",
        "coordinates": [
          -4.60194,
          42.81211
        ]
      }
    },
    {
      "type": "Feature",
      "properties": {
        "id": "EST-TARILONTE",
        "name": "Tarilonte",
        "line": "R4 Correo de La Robla León - Bilbao"
      },
      "geometry": {
        "type": "Point",
        "coordinates": [
          -4.68605,
          42.81855
        ]
      }
    },
    {
      "type": "Feature",
      "properties": {
        "id": "EST-VADOCERVERA",
        "name": "Vado-Cervera",
        "line": "R4 Correo de La Robla León - Bilbao"
      },
      "geometry": {
        "type": "Point",
        "coordinates": [
          -4.4944,
          42.83933
        ]
      }
    },
    {
      "type": "Feature",
      "properties": {
        "id": "EST-SALINASDEPISUERGA",
        "name": "Salinas de Pisuerga",
        "line": "R4 Correo de La Robla León - Bilbao"
      },
      "geometry": {
        "type": "Point",
        "coordinates": [
          -4.38611,
          42.85131
        ]
      }
    },
    {
      "type": "Feature",
      "properties": {
        "id": "EST-AGUILARDECAMPOO",
        "name": "Aguilar de Campoo",
        "line": "R4 Correo de La Robla León - Bilbao"
      },
      "geometry": {
        "type": "Point",
        "coordinates": [
          -4.23375,
          42.78527
        ]
      }
    },
    {
      "type": "Feature",
      "properties": {
        "id": "EST-MATAPORQUERA",
        "name": "Mataporquera",
        "line": "R4 Correo de La Robla León - Bilbao"
      },
      "geometry": {
        "type": "Point",
        "coordinates": [
          -4.16506,
          42.87121
        ]
      }
    },
    {
      "type": "Feature",
      "properties": {
        "id": "EST-LOSCARABEOS",
        "name": "Los Carabeos",
        "line": "R4 Correo de La Robla León - Bilbao"
      },
      "geometry": {
        "type": "Point",
        "coordinates": [
          -4.07531,
          42.91032
        ]
      }
    },
    {
      "type": "Feature",
      "properties": {
        "id": "EST-MONTESCLAROS",
        "name": "Montes Claros",
        "line": "R4 Correo de La Robla León - Bilbao"
      },
      "geometry": {
        "type": "Point",
        "coordinates": [
          -4.04268,
          42.9321
        ]
      }
    },
    {
      "type": "Feature",
      "properties": {
        "id": "EST-LASROZASCANTABRIA",
        "name": "Las Rozas",
        "line": "R4 Correo de La Robla León - Bilbao"
      },
      "geometry": {
        "type": "Point",
        "coordinates": [
          -3.86794,
          40.49429
        ]
      }
    },
    {
      "type": "Feature",
      "properties": {
        "id": "EST-LLANO",
        "name": "Llano",
        "line": "R4 Correo de La Robla León - Bilbao"
      },
      "geometry": {
        "type": "Point",
        "coordinates": [
          -3.98261,
          42.98795
        ]
      }
    },
    {
      "type": "Feature",
      "properties": {
        "id": "EST-ARIJA",
        "name": "Arija",
        "line": "R4 Correo de La Robla León - Bilbao"
      },
      "geometry": {
        "type": "Point",
        "coordinates": [
          -3.94475,
          42.99152
        ]
      }
    },
    {
      "type": "Feature",
      "properties": {
        "id": "EST-CABANASDEVIRTUS",
        "name": "Cabañas de Virtus",
        "line": "R4 Correo de La Robla León - Bilbao"
      },
      "geometry": {
        "type": "Point",
        "coordinates": [
          -3.85841,
          42.99637
        ]
      }
    },
    {
      "type": "Feature",
      "properties": {
        "id": "EST-SONCILLO",
        "name": "Soncillo",
        "line": "R4 Correo de La Robla León - Bilbao"
      },
      "geometry": {
        "type": "Point",
        "coordinates": [
          -3.84486,
          43.00579
        ]
      }
    },
    {
      "type": "Feature",
      "properties": {
        "id": "EST-DOSANTECEBALLOS",
        "name": "Dosante-Ceballos",
        "line": "R4 Correo de La Robla León - Bilbao"
      },
      "geometry": {
        "type": "Point",
        "coordinates": [
          -3.88,
          42.96
        ]
      }
    },
    {
      "type": "Feature",
      "properties": {
        "id": "EST-PEDROSA",
        "name": "Pedrosa",
        "line": "R4 Correo de La Robla León - Bilbao"
      },
      "geometry": {
        "type": "Point",
        "coordinates": [
          -3.75683,
          43.01241
        ]
      }
    },
    {
      "type": "Feature",
      "properties": {
        "id": "EST-SOTOSCUEVA",
        "name": "Sotoscueva",
        "line": "R4 Correo de La Robla León - Bilbao"
      },
      "geometry": {
        "type": "Point",
        "coordinates": [
          -3.68835,
          43.04527
        ]
      }
    },
    {
      "type": "Feature",
      "properties": {
        "id": "EST-BERCEDO",
        "name": "Bercedo",
        "line": "R4 Correo de La Robla León - Bilbao"
      },
      "geometry": {
        "type": "Point",
        "coordinates": [
          -3.45763,
          43.0884
        ]
      }
    },
    {
      "type": "Feature",
      "properties": {
        "id": "EST-QUINTANA-Madrid-Madrid",
        "name": "Quintana",
        "line": "R4 Correo de La Robla León - Bilbao"
      },
      "geometry": {
        "type": "Point",
        "coordinates": [
          -3.64815,
          40.43311
        ]
      }
    },
    {
      "type": "Feature",
      "properties": {
        "id": "EST-ESPINOSADELOSMONTEROS",
        "name": "Espinosa de los Monteros",
        "line": "R4 Correo de La Robla León - Bilbao"
      },
      "geometry": {
        "type": "Point",
        "coordinates": [
          -3.64949,
          43.17974
        ]
      }
    },
    {
      "type": "Feature",
      "properties": {
        "id": "EST-REDONDO",
        "name": "Redondo",
        "line": "R4 Correo de La Robla León - Bilbao"
      },
      "geometry": {
        "type": "Point",
        "coordinates": [
          -3.61968,
          43.06058
        ]
      }
    },
    {
      "type": "Feature",
      "properties": {
        "id": "EST-SOTOSCUEVA",
        "name": "Sotoscueva",
        "line": "R4 Correo de La Robla León - Bilbao"
      },
      "geometry": {
        "type": "Point",
        "coordinates": [
          -3.68835,
          43.04527
        ]
      }
    },
    {
      "type": "Feature",
      "properties": {
        "id": "EST-BERCEDO",
        "name": "Bercedo",
        "line": "R4 Correo de La Robla León - Bilbao"
      },
      "geometry": {
        "type": "Point",
        "coordinates": [
          -3.45763,
          43.0884
        ]
      }
    },
    {
      "type": "Feature",
      "properties": {
        "id": "EST-QUINTANA-Madrid-Madrid",
        "name": "Quintana",
        "line": "R4 Correo de La Robla León - Bilbao"
      },
      "geometry": {
        "type": "Point",
        "coordinates": [
          -3.64815,
          40.43311
        ]
      }
    },
    {
      "type": "Feature",
      "properties": {
        "id": "EST-ESPINOSADELOSMONTEROS",
        "name": "Espinosa de los Monteros",
        "line": "R4 Correo de La Robla León - Bilbao"
      },
      "geometry": {
        "type": "Point",
        "coordinates": [
          -3.64949,
          43.17974
        ]
      }
    },
    {
      "type": "Feature",
      "properties": {
        "id": "EST-SOBA",
        "name": "Soba",
        "line": "R4 Correo de La Robla León - Bilbao"
      },
      "geometry": {
        "type": "Point",
        "coordinates": [
          -3.64949,
          43.17974
        ]
      }
    },
    {
      "type": "Feature",
      "properties": {
        "id": "EST-REGULES",
        "name": "Regules",
        "line": "R4 Correo de La Robla León - Bilbao"
      },
      "geometry": {
        "type": "Point",
        "coordinates": [
          -3.50392,
          43.20202
        ]
      }
    },
    {
      "type": "Feature",
      "properties": {
        "id": "EST-LANESTOSA",
        "name": "Lanestosa",
        "line": "R4 Correo de La Robla León - Bilbao"
      },
      "geometry": {
        "type": "Point",
        "coordinates": [
          -3.12,
          43.21
        ]
      }
    },
    {
      "type": "Feature",
      "properties": {
        "id": "EST-RAMALES",
        "name": "Ramales",
        "line": "R4 Correo de La Robla León - Bilbao"
      },
      "geometry": {
        "type": "Point",
        "coordinates": [
          -3.43834,
          43.28247
        ]
      }
    },
    {
      "type": "Feature",
      "properties": {
        "id": "EST-GIBAJA",
        "name": "Gibaja",
        "line": "R4 Correo de La Robla León - Bilbao"
      },
      "geometry": {
        "type": "Point",
        "coordinates": [
          -3.43828,
          43.28203
        ]
      }
    },
    {
      "type": "Feature",
      "properties": {
        "id": "EST-UDALLA",
        "name": "Udalla",
        "line": "R4 Correo de La Robla León - Bilbao"
      },
      "geometry": {
        "type": "Point",
        "coordinates": [
          -3.44564,
          43.31366
        ]
      }
    },
    {
      "type": "Feature",
      "properties": {
        "id": "EST-MARRON",
        "name": "Marrón",
        "line": "R4 Correo de La Robla León - Bilbao"
      },
      "geometry": {
        "type": "Point",
        "coordinates": [
          -3.42105,
          43.34653
        ]
      }
    },
    {
      "type": "Feature",
      "properties": {
        "id": "EST-LIMPIAS",
        "name": "Limpias",
        "line": "R4 Correo de La Robla León - Bilbao"
      },
      "geometry": {
        "type": "Point",
        "coordinates": [
          -3.43336,
          43.35883
        ]
      }
    },
    {
      "type": "Feature",
      "properties": {
        "id": "EST-TRETO",
        "name": "Treto",
        "line": "R4 Correo de La Robla León - Bilbao"
      },
      "geometry": {
        "type": "Point",
        "coordinates": [
          -3.46936,
          43.39418
        ]
      }
    },
    {
      "type": "Feature",
      "properties": {
        "id": "EST-CICERO",
        "name": "Cicero",
        "line": "R4 Correo de La Robla León - Bilbao"
      },
      "geometry": {
        "type": "Point",
        "coordinates": [
          -3.49051,
          43.41708
        ]
      }
    },
    {
      "type": "Feature",
      "properties": {
        "id": "EST-GAMA",
        "name": "Gama",
        "line": "R4 Correo de La Robla León - Bilbao"
      },
      "geometry": {
        "type": "Point",
        "coordinates": [
          -3.52496,
          43.42303
        ]
      }
    },
    {
      "type": "Feature",
      "properties": {
        "id": "EST-BERANGA",
        "name": "Beranga",
        "line": "R4 Correo de La Robla León - Bilbao"
      },
      "geometry": {
        "type": "Point",
        "coordinates": [
          -3.57707,
          43.41363
        ]
      }
    },
    {
      "type": "Feature",
      "properties": {
        "id": "EST-HOZDEANERO",
        "name": "Hoz de Anero",
        "line": "R4 Correo de La Robla León - Bilbao"
      },
      "geometry": {
        "type": "Point",
        "coordinates": [
          -3.66666,
          43.40502
        ]
      }
    },
    {
      "type": "Feature",
      "properties": {
        "id": "EST-VILLAVERDEDEPONTONES",
        "name": "Villaverde de Pontones",
        "line": "R4 Correo de La Robla León - Bilbao"
      },
      "geometry": {
        "type": "Point",
        "coordinates": [
          -3.70366,
          43.41124
        ]
      }
    },
    {
      "type": "Feature",
      "properties": {
        "id": "EST-OREJO",
        "name": "Orejo",
        "line": "R4 Correo de La Robla León - Bilbao"
      },
      "geometry": {
        "type": "Point",
        "coordinates": [
          -3.73816,
          43.39942
        ]
      }
    },
    {
      "type": "Feature",
      "properties": {
        "id": "EST-HERAS",
        "name": "Heras",
        "line": "R4 Correo de La Robla León - Bilbao"
      },
      "geometry": {
        "type": "Point",
        "coordinates": [
          -3.76655,
          43.40105
        ]
      }
    },
    {
      "type": "Feature",
      "properties": {
        "id": "EST-ASTILLERO",
        "name": "Astillero",
        "line": "R4 Correo de La Robla León - Bilbao"
      },
      "geometry": {
        "type": "Point",
        "coordinates": [
          -3.8209,
          43.40396
        ]
      }
    },
    {
      "type": "Feature",
      "properties": {
        "id": "EST-MALIANO",
        "name": "Maliaño",
        "line": "R4 Correo de La Robla León - Bilbao"
      },
      "geometry": {
        "type": "Point",
        "coordinates": [
          -3.84096,
          43.41612
        ]
      }
    },
    {
      "type": "Feature",
      "properties": {
        "id": "EST-SANTANDER",
        "name": "Santander",
        "line": "R4 Correo de La Robla León - Bilbao"
      },
      "geometry": {
        "type": "Point",
        "coordinates": [
          -3.81102,
          43.4583
        ]
      }
    },
    {
      "type": "Feature",
      "properties": {
        "id": "EST-VALLEDEVILLAVERDE",
        "name": "Valle de Villaverde",
        "line": "R4 Correo de La Robla León - Bilbao"
      },
      "geometry": {
        "type": "Point",
        "coordinates": [
          -3.71177,
          40.34103
        ]
      }
    },
    {
      "type": "Feature",
      "properties": {
        "id": "EST-TRASLAVINA",
        "name": "Traslaviña",
        "line": "R4 Correo de La Robla León - Bilbao"
      },
      "geometry": {
        "type": "Point",
        "coordinates": [
          -3.19827,
          43.23335
        ]
      }
    },
    {
      "type": "Feature",
      "properties": {
        "id": "EST-ARANGURENAPEADERO",
        "name": "Aranguren-Apeadero",
        "line": "R4 Correo de La Robla León - Bilbao"
      },
      "geometry": {
        "type": "Point",
        "coordinates": [
          -3.10896,
          43.2105
        ]
      }
    },
    {
      "type": "Feature",
      "properties": {
        "id": "EST-ARANGUREN",
        "name": "Aranguren",
        "line": "R4 Correo de La Robla León - Bilbao"
      },
      "geometry": {
        "type": "Point",
        "coordinates": [
          -3.10896,
          43.2105
        ]
      }
    },
    {
      "type": "Feature",
      "properties": {
        "id": "EST-ZALLA",
        "name": "Zalla",
        "line": "R4 Correo de La Robla León - Bilbao"
      },
      "geometry": {
        "type": "Point",
        "coordinates": [
          -3.13333,
          43.21283
        ]
      }
    },
    {
      "type": "Feature",
      "properties": {
        "id": "EST-COLEGIO",
        "name": "Colegio",
        "line": "R4 Correo de La Robla León - Bilbao"
      },
      "geometry": {
        "type": "Point",
        "coordinates": [
          -3.13853,
          43.21095
        ]
      }
    },
    {
      "type": "Feature",
      "properties": {
        "id": "EST-BALMASEDA",
        "name": "Balmaseda",
        "line": "R4 Correo de La Robla León - Bilbao"
      },
      "geometry": {
        "type": "Point",
        "coordinates": [
          -3.18981,
          43.19654
        ]
      }
    },
    {
      "type": "Feature",
      "properties": {
        "id": "EST-LACALZADA",
        "name": "La Calzada",
        "line": "R4 Correo de La Robla León - Bilbao"
      },
      "geometry": {
        "type": "Point",
        "coordinates": [
          -3.19746,
          43.19006
        ]
      }
    },
    {
      "type": "Feature",
      "properties": {
        "id": "EST-BALMASEDA",
        "name": "Balmaseda",
        "line": "R4 Correo de La Robla León - Bilbao"
      },
      "geometry": {
        "type": "Point",
        "coordinates": [
          -3.18981,
          43.19654
        ]
      }
    },
    {
      "type": "Feature",
      "properties": {
        "id": "EST-ARANGUREN",
        "name": "Aranguren",
        "line": "R4 Correo de La Robla León - Bilbao"
      },
      "geometry": {
        "type": "Point",
        "coordinates": [
          -3.10896,
          43.2105
        ]
      }
    },
    {
      "type": "Feature",
      "properties": {
        "id": "EST-ZALLA",
        "name": "Zalla",
        "line": "R4 Correo de La Robla León - Bilbao"
      },
      "geometry": {
        "type": "Point",
        "coordinates": [
          -3.13333,
          43.21283
        ]
      }
    },
    {
      "type": "Feature",
      "properties": {
        "id": "EST-COLEGIO",
        "name": "Colegio",
        "line": "R4 Correo de La Robla León - Bilbao"
      },
      "geometry": {
        "type": "Point",
        "coordinates": [
          -3.13853,
          43.21095
        ]
      }
    },
    {
      "type": "Feature",
      "properties": {
        "id": "EST-SODUPE",
        "name": "Sodupe",
        "line": "R4 Correo de La Robla León - Bilbao"
      },
      "geometry": {
        "type": "Point",
        "coordinates": [
          -3.05048,
          43.20205
        ]
      }
    },
    {
      "type": "Feature",
      "properties": {
        "id": "EST-GUENES",
        "name": "Güeñes",
        "line": "R4 Correo de La Robla León - Bilbao"
      },
      "geometry": {
        "type": "Point",
        "coordinates": [
          -3.09533,
          43.20896
        ]
      }
    },
    {
      "type": "Feature",
      "properties": {
        "id": "EST-ARANGUREN",
        "name": "Aranguren",
        "line": "R4 Correo de La Robla León - Bilbao"
      },
      "geometry": {
        "type": "Point",
        "coordinates": [
          -3.10896,
          43.2105
        ]
      }
    },
    {
      "type": "Feature",
      "properties": {
        "id": "EST-SODUPE",
        "name": "Sodupe",
        "line": "R4 Correo de La Robla León - Bilbao"
      },
      "geometry": {
        "type": "Point",
        "coordinates": [
          -3.05048,
          43.20205
        ]
      }
    },
    {
      "type": "Feature",
      "properties": {
        "id": "EST-ZARAMILLO",
        "name": "Zaramillo",
        "line": "R4 Correo de La Robla León - Bilbao"
      },
      "geometry": {
        "type": "Point",
        "coordinates": [
          -3.01643,
          43.23336
        ]
      }
    },
    {
      "type": "Feature",
      "properties": {
        "id": "EST-IRAUREGUI",
        "name": "Irauregui",
        "line": "R4 Correo de La Robla León - Bilbao"
      },
      "geometry": {
        "type": "Point",
        "coordinates": [
          -2.98998,
          43.24782
        ]
      }
    },
    {
      "type": "Feature",
      "properties": {
        "id": "EST-KASTREXANA",
        "name": "Kastrexana",
        "line": "R4 Correo de La Robla León - Bilbao"
      },
      "geometry": {
        "type": "Point",
        "coordinates": [
          -2.97199,
          43.25544
        ]
      }
    },
    {
      "type": "Feature",
      "properties": {
        "id": "EST-SANTAAGUEDA",
        "name": "Santa Águeda",
        "line": "R4 Correo de La Robla León - Bilbao"
      },
      "geometry": {
        "type": "Point",
        "coordinates": [
          -2.97268,
          43.26171
        ]
      }
    },
    {
      "type": "Feature",
      "properties": {
        "id": "EST-ZORROTZA",
        "name": "Zorrotza",
        "line": "R4 Correo de La Robla León - Bilbao"
      },
      "geometry": {
        "type": "Point",
        "coordinates": [
          -2.97203,
          43.27771
        ]
      }
    },
    {
      "type": "Feature",
      "properties": {
        "id": "EST-BASURTOHOSPITAL",
        "name": "Basurto-Hospital",
        "line": "R4 Correo de La Robla León - Bilbao"
      },
      "geometry": {
        "type": "Point",
        "coordinates": [
          -2.95322,
          43.25965
        ]
      }
    },
    {
      "type": "Feature",
      "properties": {
        "id": "EST-AMEZOLA",
        "name": "Amézola",
        "line": "R4 Correo de La Robla León - Bilbao"
      },
      "geometry": {
        "type": "Point",
        "coordinates": [
          -2.92524,
          43.29188
        ]
      }
    },
    {
      "type": "Feature",
      "properties": {
        "id": "EST-BILBAOCONCORDIA",
        "name": "Bilbao-Concordia",
        "line": "R4 Correo de La Robla León - Bilbao"
      },
      "geometry": {
        "type": "Point",
        "coordinates": [
          -2.9265,
          43.25991
        ]
      }
    }
  ]
}