{
  "type": "FeatureCollection",
  "features": [
    {
      "type": "Feature",
      "properties": {
        "id": "121",
        "name": "C-2 Guadalajara - Alcalá - Atocha - Chamartín",
        "line_type": "Cercanías",
        "operator": "Renfe"
      },
      "geometry": {
        "type": "LineString",
        "coordinates": [
          [
            -3.18225,
            40.64408
          ],
          [
            -3.26534,
            40.56101
          ],
          [
            -3.29857,
            40.53463
          ],
          [
            -3.3353,
            40.50544
          ],
          [
            -3.36619,
            40.48906
          ],
          [
            -3.39299,
            40.48035
          ],
          [
            -3.47973,
            40.45473
          ],
          [
            -6.2068,
            36.468
          ],
          [
            -3.56101,
            40.42373
          ],
          [
            -3.60889,
            40.4042
          ],
          [
            -3.60909,
            40.38713
          ],
          [
            -3.62479,
            40.38206
          ],
          [
            -3.65609,
            40.37617
          ],
          [
            -3.66802,
            40.38163
          ],
          [
            -3.6886,
            40.40697
          ],
          [
            -3.6917,
            40.4225
          ],
          [
            -3.6917,
            40.44584
          ],
          [
            -3.68271,
            40.47395
          ]
        ]
      }
    },
    {
      "type": "Feature",
      "properties": {
        "id": "EST-GUADALAJARA",
        "name": "Guadalajara",
        "line": "C-2 Guadalajara - Alcalá - Atocha - Chamartín"
      },
      "geometry": {
        "type": "Point",
        "coordinates": [
          -3.18225,
          40.64408
        ]
      }
    },
    {
      "type": "Feature",
      "properties": {
        "id": "EST-AZUQUECA",
        "name": "Azuqueca",
        "line": "C-2 Guadalajara - Alcalá - Atocha - Chamartín"
      },
      "geometry": {
        "type": "Point",
        "coordinates": [
          -3.26534,
          40.56101
        ]
      }
    },
    {
      "type": "Feature",
      "properties": {
        "id": "EST-MECO",
        "name": "Meco",
        "line": "C-2 Guadalajara - Alcalá - Atocha - Chamartín"
      },
      "geometry": {
        "type": "Point",
        "coordinates": [
          -3.29857,
          40.53463
        ]
      }
    },
    {
      "type": "Feature",
      "properties": {
        "id": "EST-ALCALADEHENARESUNIVERSIDAD",
        "name": "Alcalá de Henares Universidad",
        "line": "C-2 Guadalajara - Alcalá - Atocha - Chamartín"
      },
      "geometry": {
        "type": "Point",
        "coordinates": [
          -3.3353,
          40.50544
        ]
      }
    },
    {
      "type": "Feature",
      "properties": {
        "id": "EST-ALCALADEHENARES",
        "name": "Alcalá de Henares",
        "line": "C-2 Guadalajara - Alcalá - Atocha - Chamartín"
      },
      "geometry": {
        "type": "Point",
        "coordinates": [
          -3.36619,
          40.48906
        ]
      }
    },
    {
      "type": "Feature",
      "properties": {
        "id": "EST-LAGARENA",
        "name": "La Garena",
        "line": "C-2 Guadalajara - Alcalá - Atocha - Chamartín"
      },
      "geometry": {
        "type": "Point",
        "coordinates": [
          -3.39299,
          40.48035
        ]
      }
    },
    {
      "type": "Feature",
      "properties": {
        "id": "EST-TORREJONDEARDOZ",
        "name": "Torrejón de Ardoz",
        "line": "C-2 Guadalajara - Alcalá - Atocha - Chamartín"
      },
      "geometry": {
        "type": "Point",
        "coordinates": [
          -3.47973,
          40.45473
        ]
      }
    },
    {
      "type": "Feature",
      "properties": {
        "id": "EST-SANFERNANDO",
        "name": "San Fernando",
        "line": "C-2 Guadalajara - Alcalá - Atocha - Chamartín"
      },
      "geometry": {
        "type": "Point",
        "coordinates": [
          -6.2068,
          36.468
        ]
      }
    },
    {
      "type": "Feature",
      "properties": {
        "id": "EST-COSLADA",
        "name": "Coslada",
        "line": "C-2 Guadalajara - Alcalá - Atocha - Chamartín"
      },
      "geometry": {
        "type": "Point",
        "coordinates": [
          -3.56101,
          40.42373
        ]
      }
    },
    {
      "type": "Feature",
      "properties": {
        "id": "EST-VICALVARO",
        "name": "Vicálvaro",
        "line": "C-2 Guadalajara - Alcalá - Atocha - Chamartín"
      },
      "geometry": {
        "type": "Point",
        "coordinates": [
          -3.60889,
          40.4042
        ]
      }
    },
    {
      "type": "Feature",
      "properties": {
        "id": "EST-SANTAEUGENIA",
        "name": "Santa Eugenia",
        "line": "C-2 Guadalajara - Alcalá - Atocha - Chamartín"
      },
      "geometry": {
        "type": "Point",
        "coordinates": [
          -3.60909,
          40.38713
        ]
      }
    },
    {
      "type": "Feature",
      "properties": {
        "id": "EST-VALLECAS",
        "name": "Vallecas",
        "line": "C-2 Guadalajara - Alcalá - Atocha - Chamartín"
      },
      "geometry": {
        "type": "Point",
        "coordinates": [
          -3.62479,
          40.38206
        ]
      }
    },
    {
      "type": "Feature",
      "properties": {
        "id": "EST-ELPOZO",
        "name": "El Pozo",
        "line": "C-2 Guadalajara - Alcalá - Atocha - Chamartín"
      },
      "geometry": {
        "type": "Point",
        "coordinates": [
          -3.65609,
          40.37617
        ]
      }
    },
    {
      "type": "Feature",
      "properties": {
        "id": "EST-ASAMBLEADEMADRIDENTREVIAS",
        "name": "Asamblea de Madrid-Entrevías",
        "line": "C-2 Guadalajara - Alcalá - Atocha - Chamartín"
      },
      "geometry": {
        "type": "Point",
        "coordinates": [
          -3.66802,
          40.38163
        ]
      }
    },
    {
      "type": "Feature",
      "properties": {
        "id": "EST-ATOCHA",
        "name": "Atocha",
        "line": "C-2 Guadalajara - Alcalá - Atocha - Chamartín"
      },
      "geometry": {
        "type": "Point",
        "coordinates": [
          -3.6886,
          40.40697
        ]
      }
    },
    {
      "type": "Feature",
      "properties": {
        "id": "EST-RECOLETOS",
        "name": "Recoletos",
        "line": "C-2 Guadalajara - Alcalá - Atocha - Chamartín"
      },
      "geometry": {
        "type": "Point",
        "coordinates": [
          -3.6917,
          40.4225
        ]
      }
    },
    {
      "type": "Feature",
      "properties": {
        "id": "EST-NUEVOSMINISTERIOS",
        "name": "Nuevos Ministerios",
        "line": "C-2 Guadalajara - Alcalá - Atocha - Chamartín"
      },
      "geometry": {
        "type": "Point",
        "coordinates": [
          -3.6917,
          40.44584
        ]
      }
    },
    {
      "type": "Feature",
      "properties": {
        "id": "EST-CHAMARTIN",
        "name": "Chamartín",
        "line": "C-2 Guadalajara - Alcalá - Atocha - Chamartín"
      },
      "geometry": {
        "type": "Point",
        "coordinates": [
          -3.68271,
          40.47395
        ]
      }
    }
  ]
}