{
  "type": "FeatureCollection",
  "features": [
    {
      "type": "Feature",
      "properties": {
        "id": "136",
        "name": "Línea 6 Circular",
        "line_type": "Metro",
        "operator": "Metro de Madrid"
      },
      "geometry": {
        "type": "LineString",
        "coordinates": [
          [
            -3.74472,
            40.39923
          ],
          [
            -3.74129,
            40.39281
          ],
          [
            -3.73172,
            40.38864
          ],
          [
            -3.72318,
            40.38693
          ],
          [
            -3.71787,
            40.38536
          ],
          [
            -3.7056,
            40.38803
          ],
          [
            -3.69496,
            40.39144
          ],
          [
            -3.68841,
            40.39323
          ],
          [
            -3.68011,
            40.39572
          ],
          [
            -3.67488,
            40.4014
          ],
          [
            -3.67012,
            40.40781
          ],
          [
            -3.66967,
            40.4144
          ],
          [
            -3.66906,
            40.4222
          ],
          [
            -3.66871,
            40.42814
          ],
          [
            -3.67472,
            40.43447
          ],
          [
            -3.6773,
            40.43765
          ],
          [
            -3.68464,
            40.44432
          ],
          [
            -3.6917,
            40.44584
          ],
          [
            -3.70396,
            40.44678
          ],
          [
            -3.71317,
            40.44627
          ],
          [
            -3.60096,
            40.4338
          ],
          [
            -3.72642,
            40.4438
          ],
          [
            -3.83677,
            40.47388
          ],
          [
            -3.71617,
            40.43073
          ],
          [
            -3.71933,
            40.42096
          ],
          [
            -3.72713,
            40.41383
          ],
          [
            -3.73841,
            40.40999
          ],
          [
            -3.74527,
            40.4048
          ],
          [
            -3.74472,
            40.39923
          ]
        ]
      }
    },
    {
      "type": "Feature",
      "properties": {
        "id": "EST-LAGUNA",
        "name": "Laguna",
        "line": "Línea 6 Circular"
      },
      "geometry": {
        "type": "Point",
        "coordinates": [
          -3.74472,
          40.39923
        ]
      }
    },
    {
      "type": "Feature",
      "properties": {
        "id": "EST-CARPETANA",
        "name": "Carpetana",
        "line": "Línea 6 Circular"
      },
      "geometry": {
        "type": "Point",
        "coordinates": [
          -3.74129,
          40.39281
        ]
      }
    },
    {
      "type": "Feature",
      "properties": {
        "id": "EST-OPORTO",
        "name": "Oporto",
        "line": "Línea 6 Circular"
      },
      "geometry": {
        "type": "Point",
        "coordinates": [
          -3.73172,
          40.38864
        ]
      }
    },
    {
      "type": "Feature",
      "properties": {
        "id": "EST-OPANEL",
        "name": "Opañel",
        "line": "Línea 6 Circular"
      },
      "geometry": {
        "type": "Point",
        "coordinates": [
          -3.72318,
          40.38693
        ]
      }
    },
    {
      "type": "Feature",
      "properties": {
        "id": "EST-PLAZAELIPTICA",
        "name": "Plaza Elíptica",
        "line": "Línea 6 Circular"
      },
      "geometry": {
        "type": "Point",
        "coordinates": [
          -3.71787,
          40.38536
        ]
      }
    },
    {
      "type": "Feature",
      "properties": {
        "id": "EST-USERA",
        "name": "Usera",
        "line": "Línea 6 Circular"
      },
      "geometry": {
        "type": "Point",
        "coordinates": [
          -3.7056,
          40.38803
        ]
      }
    },
    {
      "type": "Feature",
      "properties": {
        "id": "EST-LEGAZPI-Madrid-Madrid",
        "name": "Legazpi",
        "line": "Línea 6 Circular"
      },
      "geometry": {
        "type": "Point",
        "coordinates": [
          -3.69496,
          40.39144
        ]
      }
    },
    {
      "type": "Feature",
      "properties": {
        "id": "EST-ARGANZUELAPLANETARIO",
        "name": "Arganzuela-Planetario",
        "line": "Línea 6 Circular"
      },
      "geometry": {
        "type": "Point",
        "coordinates": [
          -3.68841,
          40.39323
        ]
      }
    },
    {
      "type": "Feature",
      "properties": {
        "id": "EST-MENDEZALVARO",
        "name": "Méndez Álvaro",
        "line": "Línea 6 Circular"
      },
      "geometry": {
        "type": "Point",
        "coordinates": [
          -3.68011,
          40.39572
        ]
      }
    },
    {
      "type": "Feature",
      "properties": {
        "id": "EST-PACIFICO",
        "name": "Pacífico",
        "line": "Línea 6 Circular"
      },
      "geometry": {
        "type": "Point",
        "coordinates": [
          -3.67488,
          40.4014
        ]
      }
    },
    {
      "type": "Feature",
      "properties": {
        "id": "EST-CONDEDECASAL",
        "name": "Conde de Casal",
        "line": "Línea 6 Circular"
      },
      "geometry": {
        "type": "Point",
        "coordinates": [
          -3.67012,
          40.40781
        ]
      }
    },
    {
      "type": "Feature",
      "properties": {
        "id": "EST-SAINZDEBARANDA",
        "name": "Sainz de Baranda",
        "line": "Línea 6 Circular"
      },
      "geometry": {
        "type": "Point",
        "coordinates": [
          -3.66967,
          40.4144
        ]
      }
    },
    {
      "type": "Feature",
      "properties": {
        "id": "EST-ODONNELL",
        "name": "O'Donnell",
        "line": "Línea 6 Circular"
      },
      "geometry": {
        "type": "Point",
        "coordinates": [
          -3.66906,
          40.4222
        ]
      }
    },
    {
      "type": "Feature",
      "properties": {
        "id": "EST-MANUELBECERRA",
        "name": "Manuel Becerra",
        "line": "Línea 6 Circular"
      },
      "geometry": {
        "type": "Point",
        "coordinates": [
          -3.66871,
          40.42814
        ]
      }
    },
    {
      "type": "Feature",
      "properties": {
        "id": "EST-DIEGODELEON",
        "name": "Diego de León",
        "line": "Línea 6 Circular"
      },
      "geometry": {
        "type": "Point",
        "coordinates": [
          -3.67472,
          40.43447
        ]
      }
    },
    {
      "type": "Feature",
      "properties": {
        "id": "EST-AVENIDADEAMERICA",
        "name": "Avenida de América",
        "line": "Línea 6 Circular"
      },
      "geometry": {
        "type": "Point",
        "coordinates": [
          -3.6773,
          40.43765
        ]
      }
    },
    {
      "type": "Feature",
      "properties": {
        "id": "EST-REPUBLICAARGENTINA",
        "name": "República Argentina",
        "line": "Línea 6 Circular"
      },
      "geometry": {
        "type": "Point",
        "coordinates": [
          -3.68464,
          40.44432
        ]
      }
    },
    {
      "type": "Feature",
      "properties": {
        "id": "EST-NUEVOSMINISTERIOS",
        "name": "Nuevos Ministerios",
        "line": "Línea 6 Circular"
      },
      "geometry": {
        "type": "Point",
        "coordinates": [
          -3.6917,
          40.44584
        ]
      }
    },
    {
      "type": "Feature",
      "properties": {
        "id": "EST-CUATROCAMINOS",
        "name": "Cuatro Caminos",
        "line": "Línea 6 Circular"
      },
      "geometry": {
        "type": "Point",
        "coordinates": [
          -3.70396,
          40.44678
        ]
      }
    },
    {
      "type": "Feature",
      "properties": {
        "id": "EST-GUZMANELBUENO",
        "name": "Guzmán el Bueno",
        "line": "Línea 6 Circular"
      },
      "geometry": {
        "type": "Point",
        "coordinates": [
          -3.71317,
          40.44627
        ]
      }
    },
    {
      "type": "Feature",
      "properties": {
        "id": "EST-METROPOLITANO",
        "name": "Metropolitano",
        "line": "Línea 6 Circular"
      },
      "geometry": {
        "type": "Point",
        "coordinates": [
          -3.60096,
          40.4338
        ]
      }
    },
    {
      "type": "Feature",
      "properties": {
        "id": "EST-CIUDADUNIVERSITARIA",
        "name": "Ciudad Universitaria",
        "line": "Línea 6 Circular"
      },
      "geometry": {
        "type": "Point",
        "coordinates": [
          -3.72642,
          40.4438
        ]
      }
    },
    {
      "type": "Feature",
      "properties": {
        "id": "EST-MONCLOA",
        "name": "Moncloa",
        "line": "Línea 6 Circular"
      },
      "geometry": {
        "type": "Point",
        "coordinates": [
          -3.83677,
          40.47388
        ]
      }
    },
    {
      "type": "Feature",
      "properties": {
        "id": "EST-ARGUELLES",
        "name": "Argüelles",
        "line": "Línea 6 Circular"
      },
      "geometry": {
        "type": "Point",
        "coordinates": [
          -3.71617,
          40.43073
        ]
      }
    },
    {
      "type": "Feature",
      "properties": {
        "id": "EST-PRINCIPEPIO",
        "name": "Príncipe Pío",
        "line": "Línea 6 Circular"
      },
      "geometry": {
        "type": "Point",
        "coordinates": [
          -3.71933,
          40.42096
        ]
      }
    },
    {
      "type": "Feature",
      "properties": {
        "id": "EST-PUERTADELANGEL",
        "name": "Puerta del Ángel",
        "line": "Línea 6 Circular"
      },
      "geometry": {
        "type": "Point",
        "coordinates": [
          -3.72713,
          40.41383
        ]
      }
    },
    {
      "type": "Feature",
      "properties": {
        "id": "EST-ALTODEEXTREMADURA",
        "name": "Alto de Extremadura",
        "line": "Línea 6 Circular"
      },
      "geometry": {
        "type": "Point",
        "coordinates": [
          -3.73841,
          40.40999
        ]
      }
    },
    {
      "type": "Feature",
      "properties": {
        "id": "EST-LUCERO",
        "name": "Lucero",
        "line": "Línea 6 Circular"
      },
      "geometry": {
        "type": "Point",
        "coordinates": [
          -3.74527,
          40.4048
        ]
      }
    },
    {
      "type": "Feature",
      "properties": {
        "id": "EST-LAGUNA",
        "name": "Laguna",
        "line": "Línea 6 Circular"
      },
      "geometry": {
        "type": "Point",
        "coordinates": [
          -3.74472,
          40.39923
        ]
      }
    }
  ]
}