{
  "type": "FeatureCollection",
  "features": [
    {
      "type": "Feature",
      "properties": {
        "id": "150",
        "name": "R2 Nord Aeroport - Maçanet-Massanes",
        "line_type": "Rodalies",
        "operator": "Renfe"
      },
      "geometry": {
        "type": "LineString",
        "coordinates": [
          [
            -0.47437,
            39.49219
          ],
          [
            2.08926,
            41.33089
          ],
          [
            2.1072,
            41.34465
          ],
          [
            2.14,
            41.37901
          ],
          [
            2.16828,
            41.38944
          ],
          [
            2.18692,
            41.41014
          ],
          [
            2.19114,
            41.43663
          ],
          [
            2.18825,
            41.48405
          ],
          [
            2.19986,
            41.51043
          ],
          [
            2.21754,
            41.53347
          ],
          [
            2.24538,
            41.54972
          ],
          [
            2.29161,
            41.59965
          ],
          [
            2.29444,
            41.61723
          ],
          [
            2.35618,
            41.63642
          ],
          [
            2.4046,
            41.63791
          ],
          [
            2.49097,
            41.68565
          ],
          [
            2.53893,
            41.71796
          ],
          [
            2.56869,
            41.72649
          ],
          [
            2.63167,
            41.7479
          ],
          [
            2.67338,
            41.77217
          ]
        ]
      }
    },
    {
      "type": "Feature",
      "properties": {
        "id": "EST-AEROPORTVALENCIA",
        "name": "Aeroport",
        "line": "R2 Nord Aeroport - Maçanet-Massanes"
      },
      "geometry": {
        "type": "Point",
        "coordinates": [
          -0.47437,
          39.49219
        ]
      }
    },
    {
      "type": "Feature",
      "properties": {
        "id": "EST-ELPRATDELLOBREGAT",
        "name": "El Prat de Llobregat",
        "line": "R2 Nord Aeroport - Maçanet-Massanes"
      },
      "geometry": {
        "type": "Point",
        "coordinates": [
          2.08926,
          41.33089
        ]
      }
    },
    {
      "type": "Feature",
      "properties": {
        "id": "EST-BELLVITGE",
        "name": "Bellvitge",
        "line": "R2 Nord Aeroport - Maçanet-Massanes"
      },
      "geometry": {
        "type": "Point",
        "coordinates": [
          2.1072,
          41.34465
        ]
      }
    },
    {
      "type": "Feature",
      "properties": {
        "id": "EST-SANTS",
        "name": "Sants",
        "line": "R2 Nord Aeroport - Maçanet-Massanes"
      },
      "geometry": {
        "type": "Point",
        "coordinates": [
          2.14,
          41.37901
        ]
      }
    },
    {
      "type": "Feature",
      "properties": {
        "id": "EST-PASSEIGDEGRACIA",
        "name": "Passeig de Gràcia",
        "line": "R2 Nord Aeroport - Maçanet-Massanes"
      },
      "geometry": {
        "type": "Point",
        "coordinates": [
          2.16828,
          41.38944
        ]
      }
    },
    {
      "type": "Feature",
      "properties": {
        "id": "EST-ELCLOTARAGO",
        "name": "El Clot-Aragó",
        "line": "R2 Nord Aeroport - Maçanet-Massanes"
      },
      "geometry": {
        "type": "Point",
        "coordinates": [
          2.18692,
          41.41014
        ]
      }
    },
    {
      "type": "Feature",
      "properties": {
        "id": "EST-SANTANDREUCOMTAL",
        "name": "Sant Andreu Comtal",
        "line": "R2 Nord Aeroport - Maçanet-Massanes"
      },
      "geometry": {
        "type": "Point",
        "coordinates": [
          2.19114,
          41.43663
        ]
      }
    },
    {
      "type": "Feature",
      "properties": {
        "id": "EST-MONTCADAIREIXAC",
        "name": "Montcada i Reixac",
        "line": "R2 Nord Aeroport - Maçanet-Massanes"
      },
      "geometry": {
        "type": "Point",
        "coordinates": [
          2.18825,
          41.48405
        ]
      }
    },
    {
      "type": "Feature",
      "properties": {
        "id": "EST-LALLAGOSTA",
        "name": "La Llagosta",
        "line": "R2 Nord Aeroport - Maçanet-Massanes"
      },
      "geometry": {
        "type": "Point",
        "coordinates": [
          2.19986,
          41.51043
        ]
      }
    },
    {
      "type": "Feature",
      "properties": {
        "id": "EST-MOLLETSANTFOST",
        "name": "Mollet-Sant Fost",
        "line": "R2 Nord Aeroport - Maçanet-Massanes"
      },
      "geometry": {
        "type": "Point",
        "coordinates": [
          2.21754,
          41.53347
        ]
      }
    },
    {
      "type": "Feature",
      "properties": {
        "id": "EST-MONTMELO",
        "name": "Montmeló",
        "line": "R2 Nord Aeroport - Maçanet-Massanes"
      },
      "geometry": {
        "type": "Point",
        "coordinates": [
          2.24538,
          41.54972
        ]
      }
    },
    {
      "type": "Feature",
      "properties": {
        "id": "EST-GRANOLLERSCENTRE",
        "name": "Granollers Centre",
        "line": "R2 Nord Aeroport - Maçanet-Massanes"
      },
      "geometry": {
        "type": "Point",
        "coordinates": [
          2.29161,
          41.59965
        ]
      }
    },
    {
      "type": "Feature",
      "properties": {
        "id": "EST-LESFRANQUESESGRANOLLERSNORD",
        "name": "Les Franqueses-Granollers Nord",
        "line": "R2 Nord Aeroport - Maçanet-Massanes"
      },
      "geometry": {
        "type": "Point",
        "coordinates": [
          2.29444,
          41.61723
        ]
      }
    },
    {
      "type": "Feature",
      "properties": {
        "id": "EST-CARDEDEU",
        "name": "Cardedeu",
        "line": "R2 Nord Aeroport - Maçanet-Massanes"
      },
      "geometry": {
        "type": "Point",
        "coordinates": [
          2.35618,
          41.63642
        ]
      }
    },
    {
      "type": "Feature",
      "properties": {
        "id": "EST-LLINARSDELVALLES",
        "name": "Llinars del Vallès",
        "line": "R2 Nord Aeroport - Maçanet-Massanes"
      },
      "geometry": {
        "type": "Point",
        "coordinates": [
          2.4046,
          41.63791
        ]
      }
    },
    {
      "type": "Feature",
      "properties": {
        "id": "EST-SANTCELONI",
        "name": "Sant Celoni",
        "line": "R2 Nord Aeroport - Maçanet-Massanes"
      },
      "geometry": {
        "type": "Point",
        "coordinates": [
          2.49097,
          41.68565
        ]
      }
    },
    {
      "type": "Feature",
      "properties": {
        "id": "EST-GUALBA",
        "name": "Gualba",
        "line": "R2 Nord Aeroport - Maçanet-Massanes"
      },
      "geometry": {
        "type": "Point",
        "coordinates": [
          2.53893,
          41.71796
        ]
      }
    },
    {
      "type": "Feature",
      "properties": {
        "id": "EST-RIELLSIVIABREABREDA",
        "name": "Riells i Viabrea-Breda",
        "line": "R2 Nord Aeroport - Maçanet-Massanes"
      },
      "geometry": {
        "type": "Point",
        "coordinates": [
          2.56869,
          41.72649
        ]
      }
    },
    {
      "type": "Feature",
      "properties": {
        "id": "EST-HOSTALRIC",
        "name": "Hostalric",
        "line": "R2 Nord Aeroport - Maçanet-Massanes"
      },
      "geometry": {
        "type": "Point",
        "coordinates": [
          2.63167,
          41.7479
        ]
      }
    },
    {
      "type": "Feature",
      "properties": {
        "id": "EST-MACANETMASSANES",
        "name": "Maçanet-Massanes",
        "line": "R2 Nord Aeroport - Maçanet-Massanes"
      },
      "geometry": {
        "type": "Point",
        "coordinates": [
          2.67338,
          41.77217
        ]
      }
    }
  ]
}