{
  "type": "FeatureCollection",
  "features": [
    {
      "type": "Feature",
      "properties": {
        "id": "154",
        "name": "R5 Plaça d'Espanya - Manresa Baixador",
        "line_type": "Cercanías",
        "operator": "FGC"
      },
      "geometry": {
        "type": "LineString",
        "coordinates": [
          [
            2.13937,
            41.36786
          ],
          [
            2.13017,
            41.36116
          ],
          [
            2.13068,
            41.35192
          ],
          [
            2.11707,
            41.35478
          ],
          [
            2.11036,
            41.36095
          ],
          [
            2.10248,
            41.35891
          ],
          [
            2.08451,
            41.35304
          ],
          [
            2.07056,
            41.35752
          ],
          [
            2.04295,
            41.34849
          ],
          [
            2.03528,
            41.35752
          ],
          [
            2.03161,
            41.3641
          ],
          [
            2.0239,
            41.3702
          ],
          [
            2.01238,
            41.3881
          ],
          [
            2.00494,
            41.39934
          ],
          [
            2.00157,
            41.40664
          ],
          [
            1.99557,
            41.42078
          ],
          [
            1.97309,
            41.44684
          ],
          [
            1.96256,
            41.45564
          ],
          [
            1.9267,
            41.47909
          ],
          [
            1.9186,
            41.48403
          ],
          [
            1.90683,
            41.52259
          ],
          [
            1.88791,
            41.54147
          ],
          [
            1.85339,
            41.59121
          ],
          [
            1.84922,
            41.61036
          ],
          [
            1.86895,
            41.62884
          ],
          [
            1.86232,
            41.66886
          ],
          [
            1.82663,
            41.72026
          ]
        ]
      }
    },
    {
      "type": "Feature",
      "properties": {
        "id": "EST-MAGORIALACAMPANA",
        "name": "Magòria-La Campana",
        "line": "R5 Plaça d'Espanya - Manresa Baixador"
      },
      "geometry": {
        "type": "Point",
        "coordinates": [
          2.13937,
          41.36786
        ]
      }
    },
    {
      "type": "Feature",
      "properties": {
        "id": "EST-ILDEFONSCERDA",
        "name": "Ildefons Cerdà",
        "line": "R5 Plaça d'Espanya - Manresa Baixador"
      },
      "geometry": {
        "type": "Point",
        "coordinates": [
          2.13017,
          41.36116
        ]
      }
    },
    {
      "type": "Feature",
      "properties": {
        "id": "EST-EUROPAFIRA",
        "name": "Europa Fira",
        "line": "R5 Plaça d'Espanya - Manresa Baixador"
      },
      "geometry": {
        "type": "Point",
        "coordinates": [
          2.13068,
          41.35192
        ]
      }
    },
    {
      "type": "Feature",
      "properties": {
        "id": "EST-GORNAL",
        "name": "Gornal",
        "line": "R5 Plaça d'Espanya - Manresa Baixador"
      },
      "geometry": {
        "type": "Point",
        "coordinates": [
          2.11707,
          41.35478
        ]
      }
    },
    {
      "type": "Feature",
      "properties": {
        "id": "EST-SANTJOSEP",
        "name": "Sant Josep",
        "line": "R5 Plaça d'Espanya - Manresa Baixador"
      },
      "geometry": {
        "type": "Point",
        "coordinates": [
          2.11036,
          41.36095
        ]
      }
    },
    {
      "type": "Feature",
      "properties": {
        "id": "EST-LHOSPITALETAVCARRILET",
        "name": "L'Hospitalet Av. Carrilet",
        "line": "R5 Plaça d'Espanya - Manresa Baixador"
      },
      "geometry": {
        "type": "Point",
        "coordinates": [
          2.10248,
          41.35891
        ]
      }
    },
    {
      "type": "Feature",
      "properties": {
        "id": "EST-ALMEDA",
        "name": "Almeda",
        "line": "R5 Plaça d'Espanya - Manresa Baixador"
      },
      "geometry": {
        "type": "Point",
        "coordinates": [
          2.08451,
          41.35304
        ]
      }
    },
    {
      "type": "Feature",
      "properties": {
        "id": "EST-CORNELLARIERA",
        "name": "Cornellà Riera",
        "line": "R5 Plaça d'Espanya - Manresa Baixador"
      },
      "geometry": {
        "type": "Point",
        "coordinates": [
          2.07056,
          41.35752
        ]
      }
    },
    {
      "type": "Feature",
      "properties": {
        "id": "EST-SANTBOI",
        "name": "Sant Boi",
        "line": "R5 Plaça d'Espanya - Manresa Baixador"
      },
      "geometry": {
        "type": "Point",
        "coordinates": [
          2.04295,
          41.34849
        ]
      }
    },
    {
      "type": "Feature",
      "properties": {
        "id": "EST-MOLINOUCIUTATCOOPERATIVA",
        "name": "Molí Nou-Ciutat Cooperativa",
        "line": "R5 Plaça d'Espanya - Manresa Baixador"
      },
      "geometry": {
        "type": "Point",
        "coordinates": [
          2.03528,
          41.35752
        ]
      }
    },
    {
      "type": "Feature",
      "properties": {
        "id": "EST-COLONIAGUELL",
        "name": "Colònia Güell",
        "line": "R5 Plaça d'Espanya - Manresa Baixador"
      },
      "geometry": {
        "type": "Point",
        "coordinates": [
          2.03161,
          41.3641
        ]
      }
    },
    {
      "type": "Feature",
      "properties": {
        "id": "EST-SANTACOLOMADECERVELLO",
        "name": "Santa Coloma de Cervelló",
        "line": "R5 Plaça d'Espanya - Manresa Baixador"
      },
      "geometry": {
        "type": "Point",
        "coordinates": [
          2.0239,
          41.3702
        ]
      }
    },
    {
      "type": "Feature",
      "properties": {
        "id": "EST-SANTVICENCDELSHORTS",
        "name": "Sant Vicenç dels Horts",
        "line": "R5 Plaça d'Espanya - Manresa Baixador"
      },
      "geometry": {
        "type": "Point",
        "coordinates": [
          2.01238,
          41.3881
        ]
      }
    },
    {
      "type": "Feature",
      "properties": {
        "id": "EST-CANROS",
        "name": "Can Ros",
        "line": "R5 Plaça d'Espanya - Manresa Baixador"
      },
      "geometry": {
        "type": "Point",
        "coordinates": [
          2.00494,
          41.39934
        ]
      }
    },
    {
      "type": "Feature",
      "properties": {
        "id": "EST-QUATRECAMINS",
        "name": "Quatre Camins",
        "line": "R5 Plaça d'Espanya - Manresa Baixador"
      },
      "geometry": {
        "type": "Point",
        "coordinates": [
          2.00157,
          41.40664
        ]
      }
    },
    {
      "type": "Feature",
      "properties": {
        "id": "EST-PALLEJA",
        "name": "Pallejà",
        "line": "R5 Plaça d'Espanya - Manresa Baixador"
      },
      "geometry": {
        "type": "Point",
        "coordinates": [
          1.99557,
          41.42078
        ]
      }
    },
    {
      "type": "Feature",
      "properties": {
        "id": "EST-SANTANDREUDELABARCA",
        "name": "Sant Andreu de la Barca",
        "line": "R5 Plaça d'Espanya - Manresa Baixador"
      },
      "geometry": {
        "type": "Point",
        "coordinates": [
          1.97309,
          41.44684
        ]
      }
    },
    {
      "type": "Feature",
      "properties": {
        "id": "EST-ELPALAU",
        "name": "El Palau",
        "line": "R5 Plaça d'Espanya - Manresa Baixador"
      },
      "geometry": {
        "type": "Point",
        "coordinates": [
          1.96256,
          41.45564
        ]
      }
    },
    {
      "type": "Feature",
      "properties": {
        "id": "EST-MARTORELLCENTRAL",
        "name": "Martorell Central",
        "line": "R5 Plaça d'Espanya - Manresa Baixador"
      },
      "geometry": {
        "type": "Point",
        "coordinates": [
          1.9267,
          41.47909
        ]
      }
    },
    {
      "type": "Feature",
      "properties": {
        "id": "EST-MARTORELLENLLAC",
        "name": "Martorell Enllaç",
        "line": "R5 Plaça d'Espanya - Manresa Baixador"
      },
      "geometry": {
        "type": "Point",
        "coordinates": [
          1.9186,
          41.48403
        ]
      }
    },
    {
      "type": "Feature",
      "properties": {
        "id": "EST-ABRERA",
        "name": "Abrera",
        "line": "R5 Plaça d'Espanya - Manresa Baixador"
      },
      "geometry": {
        "type": "Point",
        "coordinates": [
          1.90683,
          41.52259
        ]
      }
    },
    {
      "type": "Feature",
      "properties": {
        "id": "EST-OLESA",
        "name": "Olesa",
        "line": "R5 Plaça d'Espanya - Manresa Baixador"
      },
      "geometry": {
        "type": "Point",
        "coordinates": [
          1.88791,
          41.54147
        ]
      }
    },
    {
      "type": "Feature",
      "properties": {
        "id": "EST-AERIDEMONTSERRAT",
        "name": "Aeri de Montserrat",
        "line": "R5 Plaça d'Espanya - Manresa Baixador"
      },
      "geometry": {
        "type": "Point",
        "coordinates": [
          1.85339,
          41.59121
        ]
      }
    },
    {
      "type": "Feature",
      "properties": {
        "id": "EST-MONISTROL",
        "name": "Monistrol",
        "line": "R5 Plaça d'Espanya - Manresa Baixador"
      },
      "geometry": {
        "type": "Point",
        "coordinates": [
          1.84922,
          41.61036
        ]
      }
    },
    {
      "type": "Feature",
      "properties": {
        "id": "EST-CASTELLBELL",
        "name": "Castellbell",
        "line": "R5 Plaça d'Espanya - Manresa Baixador"
      },
      "geometry": {
        "type": "Point",
        "coordinates": [
          1.86895,
          41.62884
        ]
      }
    },
    {
      "type": "Feature",
      "properties": {
        "id": "EST-SANTVICENCDECASTELLET",
        "name": "Sant Vicenç de Castellet",
        "line": "R5 Plaça d'Espanya - Manresa Baixador"
      },
      "geometry": {
        "type": "Point",
        "coordinates": [
          1.86232,
          41.66886
        ]
      }
    },
    {
      "type": "Feature",
      "properties": {
        "id": "EST-MANRESA",
        "name": "Manresa",
        "line": "R5 Plaça d'Espanya - Manresa Baixador"
      },
      "geometry": {
        "type": "Point",
        "coordinates": [
          1.82663,
          41.72026
        ]
      }
    }
  ]
}