{
  "type": "FeatureCollection",
  "features": [
    {
      "type": "Feature",
      "properties": {
        "id": "155",
        "name": "R50 Plaça d'Espanya - Manresa (Semidirecto)",
        "line_type": "Cercanías",
        "operator": "FGC"
      },
      "geometry": {
        "type": "LineString",
        "coordinates": [
          [
            2.13017,
            41.36116
          ],
          [
            2.11707,
            41.35478
          ],
          [
            2.11036,
            41.36095
          ],
          [
            2.10248,
            41.35891
          ],
          [
            2.08451,
            41.35304
          ],
          [
            2.07056,
            41.35752
          ],
          [
            2.04295,
            41.34849
          ],
          [
            1.97309,
            41.44684
          ],
          [
            1.9267,
            41.47909
          ],
          [
            1.9186,
            41.48403
          ],
          [
            1.88791,
            41.54147
          ],
          [
            1.85031,
            41.60912
          ],
          [
            1.85477,
            41.64054
          ],
          [
            1.86232,
            41.66886
          ],
          [
            1.82663,
            41.72026
          ],
          [
            1.83302,
            41.73222
          ],
          [
            1.82663,
            41.72026
          ]
        ]
      }
    },
    {
      "type": "Feature",
      "properties": {
        "id": "EST-ILDEFONSCERDA",
        "name": "Ildefons Cerdà",
        "line": "R50 Plaça d'Espanya - Manresa (Semidirecto)"
      },
      "geometry": {
        "type": "Point",
        "coordinates": [
          2.13017,
          41.36116
        ]
      }
    },
    {
      "type": "Feature",
      "properties": {
        "id": "EST-GORNAL",
        "name": "Gornal",
        "line": "R50 Plaça d'Espanya - Manresa (Semidirecto)"
      },
      "geometry": {
        "type": "Point",
        "coordinates": [
          2.11707,
          41.35478
        ]
      }
    },
    {
      "type": "Feature",
      "properties": {
        "id": "EST-SANTJOSEP",
        "name": "Sant Josep",
        "line": "R50 Plaça d'Espanya - Manresa (Semidirecto)"
      },
      "geometry": {
        "type": "Point",
        "coordinates": [
          2.11036,
          41.36095
        ]
      }
    },
    {
      "type": "Feature",
      "properties": {
        "id": "EST-LHOSPITALETAVCARRILET",
        "name": "L'Hospitalet Av. Carrilet",
        "line": "R50 Plaça d'Espanya - Manresa (Semidirecto)"
      },
      "geometry": {
        "type": "Point",
        "coordinates": [
          2.10248,
          41.35891
        ]
      }
    },
    {
      "type": "Feature",
      "properties": {
        "id": "EST-ALMEDA",
        "name": "Almeda",
        "line": "R50 Plaça d'Espanya - Manresa (Semidirecto)"
      },
      "geometry": {
        "type": "Point",
        "coordinates": [
          2.08451,
          41.35304
        ]
      }
    },
    {
      "type": "Feature",
      "properties": {
        "id": "EST-CORNELLARIERA",
        "name": "Cornellà Riera",
        "line": "R50 Plaça d'Espanya - Manresa (Semidirecto)"
      },
      "geometry": {
        "type": "Point",
        "coordinates": [
          2.07056,
          41.35752
        ]
      }
    },
    {
      "type": "Feature",
      "properties": {
        "id": "EST-SANTBOI",
        "name": "Sant Boi",
        "line": "R50 Plaça d'Espanya - Manresa (Semidirecto)"
      },
      "geometry": {
        "type": "Point",
        "coordinates": [
          2.04295,
          41.34849
        ]
      }
    },
    {
      "type": "Feature",
      "properties": {
        "id": "EST-SANTANDREUDELABARCA",
        "name": "Sant Andreu de la Barca",
        "line": "R50 Plaça d'Espanya - Manresa (Semidirecto)"
      },
      "geometry": {
        "type": "Point",
        "coordinates": [
          1.97309,
          41.44684
        ]
      }
    },
    {
      "type": "Feature",
      "properties": {
        "id": "EST-MARTORELLCENTRAL",
        "name": "Martorell Central",
        "line": "R50 Plaça d'Espanya - Manresa (Semidirecto)"
      },
      "geometry": {
        "type": "Point",
        "coordinates": [
          1.9267,
          41.47909
        ]
      }
    },
    {
      "type": "Feature",
      "properties": {
        "id": "EST-MARTORELLENLLAC",
        "name": "Martorell Enllaç",
        "line": "R50 Plaça d'Espanya - Manresa (Semidirecto)"
      },
      "geometry": {
        "type": "Point",
        "coordinates": [
          1.9186,
          41.48403
        ]
      }
    },
    {
      "type": "Feature",
      "properties": {
        "id": "EST-OLESADEMONTSERRAT",
        "name": "Olesa de Montserrat",
        "line": "R50 Plaça d'Espanya - Manresa (Semidirecto)"
      },
      "geometry": {
        "type": "Point",
        "coordinates": [
          1.88791,
          41.54147
        ]
      }
    },
    {
      "type": "Feature",
      "properties": {
        "id": "EST-MONISTROLDEMONTSERRAT",
        "name": "Monistrol de Montserrat",
        "line": "R50 Plaça d'Espanya - Manresa (Semidirecto)"
      },
      "geometry": {
        "type": "Point",
        "coordinates": [
          1.85031,
          41.60912
        ]
      }
    },
    {
      "type": "Feature",
      "properties": {
        "id": "EST-CASTELLBELLIEVILAR",
        "name": "Castellbell i el Vilar",
        "line": "R50 Plaça d'Espanya - Manresa (Semidirecto)"
      },
      "geometry": {
        "type": "Point",
        "coordinates": [
          1.85477,
          41.64054
        ]
      }
    },
    {
      "type": "Feature",
      "properties": {
        "id": "EST-SANTVICENCDECASTELLET",
        "name": "Sant Vicenç de Castellet",
        "line": "R50 Plaça d'Espanya - Manresa (Semidirecto)"
      },
      "geometry": {
        "type": "Point",
        "coordinates": [
          1.86232,
          41.66886
        ]
      }
    },
    {
      "type": "Feature",
      "properties": {
        "id": "EST-MANRESAVILADORDIS",
        "name": "Manresa Viladordis",
        "line": "R50 Plaça d'Espanya - Manresa (Semidirecto)"
      },
      "geometry": {
        "type": "Point",
        "coordinates": [
          1.82663,
          41.72026
        ]
      }
    },
    {
      "type": "Feature",
      "properties": {
        "id": "EST-MANRESAALTA",
        "name": "Manresa Alta",
        "line": "R50 Plaça d'Espanya - Manresa (Semidirecto)"
      },
      "geometry": {
        "type": "Point",
        "coordinates": [
          1.83302,
          41.73222
        ]
      }
    },
    {
      "type": "Feature",
      "properties": {
        "id": "EST-MANRESABAIXADOR",
        "name": "Manresa-Baixador",
        "line": "R50 Plaça d'Espanya - Manresa (Semidirecto)"
      },
      "geometry": {
        "type": "Point",
        "coordinates": [
          1.82663,
          41.72026
        ]
      }
    }
  ]
}