{
  "type": "FeatureCollection",
  "features": [
    {
      "type": "Feature",
      "properties": {
        "id": "157",
        "name": "R60 Plaça d'Espanya - Igualada (Semidirecto)",
        "line_type": "Cercanías",
        "operator": "FGC"
      },
      "geometry": {
        "type": "LineString",
        "coordinates": [
          [
            2.13017,
            41.36116
          ],
          [
            2.11707,
            41.35478
          ],
          [
            2.11036,
            41.36095
          ],
          [
            2.10248,
            41.35891
          ],
          [
            2.08451,
            41.35304
          ],
          [
            2.07056,
            41.35752
          ],
          [
            2.04295,
            41.34849
          ],
          [
            1.97309,
            41.44684
          ],
          [
            1.9267,
            41.47909
          ],
          [
            1.9186,
            41.48403
          ],
          [
            1.87254,
            41.49773
          ],
          [
            1.8125,
            41.50296
          ],
          [
            1.75441,
            41.52588
          ],
          [
            1.70851,
            41.52034
          ],
          [
            1.69535,
            41.52156
          ],
          [
            1.67797,
            41.55456
          ],
          [
            1.64138,
            41.57369
          ],
          [
            1.6298,
            41.57807
          ]
        ]
      }
    },
    {
      "type": "Feature",
      "properties": {
        "id": "EST-ILDEFONSCERDA",
        "name": "Ildefons Cerdà",
        "line": "R60 Plaça d'Espanya - Igualada (Semidirecto)"
      },
      "geometry": {
        "type": "Point",
        "coordinates": [
          2.13017,
          41.36116
        ]
      }
    },
    {
      "type": "Feature",
      "properties": {
        "id": "EST-GORNAL",
        "name": "Gornal",
        "line": "R60 Plaça d'Espanya - Igualada (Semidirecto)"
      },
      "geometry": {
        "type": "Point",
        "coordinates": [
          2.11707,
          41.35478
        ]
      }
    },
    {
      "type": "Feature",
      "properties": {
        "id": "EST-SANTJOSEP",
        "name": "Sant Josep",
        "line": "R60 Plaça d'Espanya - Igualada (Semidirecto)"
      },
      "geometry": {
        "type": "Point",
        "coordinates": [
          2.11036,
          41.36095
        ]
      }
    },
    {
      "type": "Feature",
      "properties": {
        "id": "EST-LHOSPITALETAVCARRILET",
        "name": "L'Hospitalet Av. Carrilet",
        "line": "R60 Plaça d'Espanya - Igualada (Semidirecto)"
      },
      "geometry": {
        "type": "Point",
        "coordinates": [
          2.10248,
          41.35891
        ]
      }
    },
    {
      "type": "Feature",
      "properties": {
        "id": "EST-ALMEDA",
        "name": "Almeda",
        "line": "R60 Plaça d'Espanya - Igualada (Semidirecto)"
      },
      "geometry": {
        "type": "Point",
        "coordinates": [
          2.08451,
          41.35304
        ]
      }
    },
    {
      "type": "Feature",
      "properties": {
        "id": "EST-CORNELLARIERA",
        "name": "Cornellà Riera",
        "line": "R60 Plaça d'Espanya - Igualada (Semidirecto)"
      },
      "geometry": {
        "type": "Point",
        "coordinates": [
          2.07056,
          41.35752
        ]
      }
    },
    {
      "type": "Feature",
      "properties": {
        "id": "EST-SANTBOI",
        "name": "Sant Boi",
        "line": "R60 Plaça d'Espanya - Igualada (Semidirecto)"
      },
      "geometry": {
        "type": "Point",
        "coordinates": [
          2.04295,
          41.34849
        ]
      }
    },
    {
      "type": "Feature",
      "properties": {
        "id": "EST-SANTANDREUDELABARCA",
        "name": "Sant Andreu de la Barca",
        "line": "R60 Plaça d'Espanya - Igualada (Semidirecto)"
      },
      "geometry": {
        "type": "Point",
        "coordinates": [
          1.97309,
          41.44684
        ]
      }
    },
    {
      "type": "Feature",
      "properties": {
        "id": "EST-MARTORELLCENTRAL",
        "name": "Martorell Central",
        "line": "R60 Plaça d'Espanya - Igualada (Semidirecto)"
      },
      "geometry": {
        "type": "Point",
        "coordinates": [
          1.9267,
          41.47909
        ]
      }
    },
    {
      "type": "Feature",
      "properties": {
        "id": "EST-MARTORELLENLLAC",
        "name": "Martorell Enllaç",
        "line": "R60 Plaça d'Espanya - Igualada (Semidirecto)"
      },
      "geometry": {
        "type": "Point",
        "coordinates": [
          1.9186,
          41.48403
        ]
      }
    },
    {
      "type": "Feature",
      "properties": {
        "id": "EST-SANTESTEVESESROVIRES",
        "name": "Sant Esteve Sesrovires",
        "line": "R60 Plaça d'Espanya - Igualada (Semidirecto)"
      },
      "geometry": {
        "type": "Point",
        "coordinates": [
          1.87254,
          41.49773
        ]
      }
    },
    {
      "type": "Feature",
      "properties": {
        "id": "EST-MASQUEFA",
        "name": "Masquefa",
        "line": "R60 Plaça d'Espanya - Igualada (Semidirecto)"
      },
      "geometry": {
        "type": "Point",
        "coordinates": [
          1.8125,
          41.50296
        ]
      }
    },
    {
      "type": "Feature",
      "properties": {
        "id": "EST-PIERA",
        "name": "Piera",
        "line": "R60 Plaça d'Espanya - Igualada (Semidirecto)"
      },
      "geometry": {
        "type": "Point",
        "coordinates": [
          1.75441,
          41.52588
        ]
      }
    },
    {
      "type": "Feature",
      "properties": {
        "id": "EST-VALLBONADANOIA",
        "name": "Vallbona d'Anoia",
        "line": "R60 Plaça d'Espanya - Igualada (Semidirecto)"
      },
      "geometry": {
        "type": "Point",
        "coordinates": [
          1.70851,
          41.52034
        ]
      }
    },
    {
      "type": "Feature",
      "properties": {
        "id": "EST-CAPELLADES",
        "name": "Capellades",
        "line": "R60 Plaça d'Espanya - Igualada (Semidirecto)"
      },
      "geometry": {
        "type": "Point",
        "coordinates": [
          1.69535,
          41.52156
        ]
      }
    },
    {
      "type": "Feature",
      "properties": {
        "id": "EST-LAPOBLADECLARAMUNT",
        "name": "La Pobla de Claramunt",
        "line": "R60 Plaça d'Espanya - Igualada (Semidirecto)"
      },
      "geometry": {
        "type": "Point",
        "coordinates": [
          1.67797,
          41.55456
        ]
      }
    },
    {
      "type": "Feature",
      "properties": {
        "id": "EST-VILANOVADELCAMI",
        "name": "Vilanova del Camí",
        "line": "R60 Plaça d'Espanya - Igualada (Semidirecto)"
      },
      "geometry": {
        "type": "Point",
        "coordinates": [
          1.64138,
          41.57369
        ]
      }
    },
    {
      "type": "Feature",
      "properties": {
        "id": "EST-IGUALADA",
        "name": "Igualada",
        "line": "R60 Plaça d'Espanya - Igualada (Semidirecto)"
      },
      "geometry": {
        "type": "Point",
        "coordinates": [
          1.6298,
          41.57807
        ]
      }
    }
  ]
}