{
  "type": "FeatureCollection",
  "features": [
    {
      "type": "Feature",
      "properties": {
        "id": "176",
        "name": "L4 Trinitat Nova - La Pau",
        "line_type": "Metro",
        "operator": "TMB"
      },
      "geometry": {
        "type": "LineString",
        "coordinates": [
          [
            2.18416,
            41.44948
          ],
          [
            2.1786,
            41.44385
          ],
          [
            2.17336,
            41.43701
          ],
          [
            2.1765,
            41.42503
          ],
          [
            2.17407,
            41.41608
          ],
          [
            2.16551,
            41.4121
          ],
          [
            2.16319,
            41.40627
          ],
          [
            2.16843,
            41.40009
          ],
          [
            2.17096,
            41.39502
          ],
          [
            2.16828,
            41.38944
          ],
          [
            2.17331,
            41.38809
          ],
          [
            2.17871,
            41.384
          ],
          [
            2.18548,
            41.38212
          ],
          [
            2.19348,
            41.38785
          ],
          [
            2.19204,
            41.3951
          ],
          [
            2.19765,
            41.39938
          ],
          [
            2.20328,
            41.40364
          ],
          [
            2.20911,
            41.40801
          ],
          [
            2.21668,
            41.41178
          ],
          [
            2.21609,
            41.41509
          ],
          [
            2.20971,
            41.42037
          ],
          [
            -0.77562,
            38.40462
          ]
        ]
      }
    },
    {
      "type": "Feature",
      "properties": {
        "id": "EST-TRINITATNOVA",
        "name": "Trinitat Nova",
        "line": "L4 Trinitat Nova - La Pau"
      },
      "geometry": {
        "type": "Point",
        "coordinates": [
          2.18416,
          41.44948
        ]
      }
    },
    {
      "type": "Feature",
      "properties": {
        "id": "EST-VIAJULIA",
        "name": "Via Júlia",
        "line": "L4 Trinitat Nova - La Pau"
      },
      "geometry": {
        "type": "Point",
        "coordinates": [
          2.1786,
          41.44385
        ]
      }
    },
    {
      "type": "Feature",
      "properties": {
        "id": "EST-LLUCMAJOR",
        "name": "Llucmajor",
        "line": "L4 Trinitat Nova - La Pau"
      },
      "geometry": {
        "type": "Point",
        "coordinates": [
          2.17336,
          41.43701
        ]
      }
    },
    {
      "type": "Feature",
      "properties": {
        "id": "EST-MARAGALL",
        "name": "Maragall",
        "line": "L4 Trinitat Nova - La Pau"
      },
      "geometry": {
        "type": "Point",
        "coordinates": [
          2.1765,
          41.42503
        ]
      }
    },
    {
      "type": "Feature",
      "properties": {
        "id": "EST-GUINARDOHOSPITALDESANTPAU",
        "name": "Guinardó | Hospital de Sant Pau",
        "line": "L4 Trinitat Nova - La Pau"
      },
      "geometry": {
        "type": "Point",
        "coordinates": [
          2.17407,
          41.41608
        ]
      }
    },
    {
      "type": "Feature",
      "properties": {
        "id": "EST-ALFONSX",
        "name": "Alfons X",
        "line": "L4 Trinitat Nova - La Pau"
      },
      "geometry": {
        "type": "Point",
        "coordinates": [
          2.16551,
          41.4121
        ]
      }
    },
    {
      "type": "Feature",
      "properties": {
        "id": "EST-JOANIC",
        "name": "Joanic",
        "line": "L4 Trinitat Nova - La Pau"
      },
      "geometry": {
        "type": "Point",
        "coordinates": [
          2.16319,
          41.40627
        ]
      }
    },
    {
      "type": "Feature",
      "properties": {
        "id": "EST-VERDAGUER",
        "name": "Verdaguer",
        "line": "L4 Trinitat Nova - La Pau"
      },
      "geometry": {
        "type": "Point",
        "coordinates": [
          2.16843,
          41.40009
        ]
      }
    },
    {
      "type": "Feature",
      "properties": {
        "id": "EST-GIRONABCN",
        "name": "Girona",
        "line": "L4 Trinitat Nova - La Pau"
      },
      "geometry": {
        "type": "Point",
        "coordinates": [
          2.17096,
          41.39502
        ]
      }
    },
    {
      "type": "Feature",
      "properties": {
        "id": "EST-PASSEIGDEGRACIA",
        "name": "Passeig de Gràcia",
        "line": "L4 Trinitat Nova - La Pau"
      },
      "geometry": {
        "type": "Point",
        "coordinates": [
          2.16828,
          41.38944
        ]
      }
    },
    {
      "type": "Feature",
      "properties": {
        "id": "EST-URQUINAONA",
        "name": "Urquinaona",
        "line": "L4 Trinitat Nova - La Pau"
      },
      "geometry": {
        "type": "Point",
        "coordinates": [
          2.17331,
          41.38809
        ]
      }
    },
    {
      "type": "Feature",
      "properties": {
        "id": "EST-JAUMEI",
        "name": "Jaume I",
        "line": "L4 Trinitat Nova - La Pau"
      },
      "geometry": {
        "type": "Point",
        "coordinates": [
          2.17871,
          41.384
        ]
      }
    },
    {
      "type": "Feature",
      "properties": {
        "id": "EST-BARCELONETA",
        "name": "Barceloneta",
        "line": "L4 Trinitat Nova - La Pau"
      },
      "geometry": {
        "type": "Point",
        "coordinates": [
          2.18548,
          41.38212
        ]
      }
    },
    {
      "type": "Feature",
      "properties": {
        "id": "EST-CIUTADELLAVILAOLIMPICA",
        "name": "Ciutadella | Vila Olímpica",
        "line": "L4 Trinitat Nova - La Pau"
      },
      "geometry": {
        "type": "Point",
        "coordinates": [
          2.19348,
          41.38785
        ]
      }
    },
    {
      "type": "Feature",
      "properties": {
        "id": "EST-BOGATELL",
        "name": "Bogatell",
        "line": "L4 Trinitat Nova - La Pau"
      },
      "geometry": {
        "type": "Point",
        "coordinates": [
          2.19204,
          41.3951
        ]
      }
    },
    {
      "type": "Feature",
      "properties": {
        "id": "EST-LLACUNA",
        "name": "Llacuna",
        "line": "L4 Trinitat Nova - La Pau"
      },
      "geometry": {
        "type": "Point",
        "coordinates": [
          2.19765,
          41.39938
        ]
      }
    },
    {
      "type": "Feature",
      "properties": {
        "id": "EST-POBLENOU",
        "name": "Poblenou",
        "line": "L4 Trinitat Nova - La Pau"
      },
      "geometry": {
        "type": "Point",
        "coordinates": [
          2.20328,
          41.40364
        ]
      }
    },
    {
      "type": "Feature",
      "properties": {
        "id": "EST-SELVADEMAR",
        "name": "Selva de Mar",
        "line": "L4 Trinitat Nova - La Pau"
      },
      "geometry": {
        "type": "Point",
        "coordinates": [
          2.20911,
          41.40801
        ]
      }
    },
    {
      "type": "Feature",
      "properties": {
        "id": "EST-ELMARESMEFORUM",
        "name": "El Maresme | Fòrum",
        "line": "L4 Trinitat Nova - La Pau"
      },
      "geometry": {
        "type": "Point",
        "coordinates": [
          2.21668,
          41.41178
        ]
      }
    },
    {
      "type": "Feature",
      "properties": {
        "id": "EST-BESOSMAR",
        "name": "Besòs Mar",
        "line": "L4 Trinitat Nova - La Pau"
      },
      "geometry": {
        "type": "Point",
        "coordinates": [
          2.21609,
          41.41509
        ]
      }
    },
    {
      "type": "Feature",
      "properties": {
        "id": "EST-BESOS",
        "name": "Besòs",
        "line": "L4 Trinitat Nova - La Pau"
      },
      "geometry": {
        "type": "Point",
        "coordinates": [
          2.20971,
          41.42037
        ]
      }
    },
    {
      "type": "Feature",
      "properties": {
        "id": "EST-LAPAU",
        "name": "La Pau",
        "line": "L4 Trinitat Nova - La Pau"
      },
      "geometry": {
        "type": "Point",
        "coordinates": [
          -0.77562,
          38.40462
        ]
      }
    }
  ]
}