{
  "type": "FeatureCollection",
  "features": [
    {
      "type": "Feature",
      "properties": {
        "id": "180",
        "name": "L8 Barcelona Plaça d'Espanya - Molí Nou",
        "line_type": "Metro",
        "operator": "FGC"
      },
      "geometry": {
        "type": "LineString",
        "coordinates": [
          [
            2.13937,
            41.36786
          ],
          [
            2.13017,
            41.36116
          ],
          [
            2.13068,
            41.35192
          ],
          [
            2.11707,
            41.35478
          ],
          [
            2.11036,
            41.36095
          ],
          [
            2.10248,
            41.35891
          ],
          [
            2.08451,
            41.35304
          ],
          [
            2.07056,
            41.35752
          ],
          [
            2.04295,
            41.34849
          ],
          [
            2.03528,
            41.35752
          ]
        ]
      }
    },
    {
      "type": "Feature",
      "properties": {
        "id": "EST-MAGORIALACAMPANA",
        "name": "Magòria-La Campana",
        "line": "L8 Barcelona Plaça d'Espanya - Molí Nou"
      },
      "geometry": {
        "type": "Point",
        "coordinates": [
          2.13937,
          41.36786
        ]
      }
    },
    {
      "type": "Feature",
      "properties": {
        "id": "EST-ILDEFONSCERDA",
        "name": "Ildefons Cerdà",
        "line": "L8 Barcelona Plaça d'Espanya - Molí Nou"
      },
      "geometry": {
        "type": "Point",
        "coordinates": [
          2.13017,
          41.36116
        ]
      }
    },
    {
      "type": "Feature",
      "properties": {
        "id": "EST-EUROPAFIRA",
        "name": "Europa Fira",
        "line": "L8 Barcelona Plaça d'Espanya - Molí Nou"
      },
      "geometry": {
        "type": "Point",
        "coordinates": [
          2.13068,
          41.35192
        ]
      }
    },
    {
      "type": "Feature",
      "properties": {
        "id": "EST-GORNAL",
        "name": "Gornal",
        "line": "L8 Barcelona Plaça d'Espanya - Molí Nou"
      },
      "geometry": {
        "type": "Point",
        "coordinates": [
          2.11707,
          41.35478
        ]
      }
    },
    {
      "type": "Feature",
      "properties": {
        "id": "EST-SANTJOSEP",
        "name": "Sant Josep",
        "line": "L8 Barcelona Plaça d'Espanya - Molí Nou"
      },
      "geometry": {
        "type": "Point",
        "coordinates": [
          2.11036,
          41.36095
        ]
      }
    },
    {
      "type": "Feature",
      "properties": {
        "id": "EST-LHOSPITALETAVCARRILET",
        "name": "L'Hospitalet Av. Carrilet",
        "line": "L8 Barcelona Plaça d'Espanya - Molí Nou"
      },
      "geometry": {
        "type": "Point",
        "coordinates": [
          2.10248,
          41.35891
        ]
      }
    },
    {
      "type": "Feature",
      "properties": {
        "id": "EST-ALMEDA",
        "name": "Almeda",
        "line": "L8 Barcelona Plaça d'Espanya - Molí Nou"
      },
      "geometry": {
        "type": "Point",
        "coordinates": [
          2.08451,
          41.35304
        ]
      }
    },
    {
      "type": "Feature",
      "properties": {
        "id": "EST-CORNELLARIERA",
        "name": "Cornellà Riera",
        "line": "L8 Barcelona Plaça d'Espanya - Molí Nou"
      },
      "geometry": {
        "type": "Point",
        "coordinates": [
          2.07056,
          41.35752
        ]
      }
    },
    {
      "type": "Feature",
      "properties": {
        "id": "EST-SANTBOI",
        "name": "Sant Boi",
        "line": "L8 Barcelona Plaça d'Espanya - Molí Nou"
      },
      "geometry": {
        "type": "Point",
        "coordinates": [
          2.04295,
          41.34849
        ]
      }
    },
    {
      "type": "Feature",
      "properties": {
        "id": "EST-MOLINOUCIUTATCOOPERATIVA",
        "name": "Molí Nou-Ciutat Cooperativa",
        "line": "L8 Barcelona Plaça d'Espanya - Molí Nou"
      },
      "geometry": {
        "type": "Point",
        "coordinates": [
          2.03528,
          41.35752
        ]
      }
    }
  ]
}