{
  "type": "FeatureCollection",
  "features": [
    {
      "type": "Feature",
      "properties": {
        "id": "183",
        "name": "L10 Nord La Sagrera - Gorg",
        "line_type": "Metro",
        "operator": "TMB"
      },
      "geometry": {
        "type": "LineString",
        "coordinates": [
          [
            2.18702,
            41.42262
          ],
          [
            2.19344,
            41.42976
          ],
          [
            2.20481,
            41.43613
          ],
          [
            2.21755,
            41.4413
          ],
          [
            2.22458,
            41.44273
          ],
          [
            2.23369,
            41.44044
          ]
        ]
      }
    },
    {
      "type": "Feature",
      "properties": {
        "id": "EST-LASAGRERA",
        "name": "La Sagrera",
        "line": "L10 Nord La Sagrera - Gorg"
      },
      "geometry": {
        "type": "Point",
        "coordinates": [
          2.18702,
          41.42262
        ]
      }
    },
    {
      "type": "Feature",
      "properties": {
        "id": "EST-ONZEDESETEMBRE",
        "name": "Onze de Setembre",
        "line": "L10 Nord La Sagrera - Gorg"
      },
      "geometry": {
        "type": "Point",
        "coordinates": [
          2.19344,
          41.42976
        ]
      }
    },
    {
      "type": "Feature",
      "properties": {
        "id": "EST-BONPASTOR",
        "name": "Bon Pastor",
        "line": "L10 Nord La Sagrera - Gorg"
      },
      "geometry": {
        "type": "Point",
        "coordinates": [
          2.20481,
          41.43613
        ]
      }
    },
    {
      "type": "Feature",
      "properties": {
        "id": "EST-LLEFIA",
        "name": "Llefià",
        "line": "L10 Nord La Sagrera - Gorg"
      },
      "geometry": {
        "type": "Point",
        "coordinates": [
          2.21755,
          41.4413
        ]
      }
    },
    {
      "type": "Feature",
      "properties": {
        "id": "EST-LASALUT",
        "name": "La Salut",
        "line": "L10 Nord La Sagrera - Gorg"
      },
      "geometry": {
        "type": "Point",
        "coordinates": [
          2.22458,
          41.44273
        ]
      }
    },
    {
      "type": "Feature",
      "properties": {
        "id": "EST-GORG",
        "name": "Gorg",
        "line": "L10 Nord La Sagrera - Gorg"
      },
      "geometry": {
        "type": "Point",
        "coordinates": [
          2.23369,
          41.44044
        ]
      }
    }
  ]
}