{
  "type": "FeatureCollection",
  "features": [
    {
      "type": "Feature",
      "properties": {
        "id": "209",
        "name": "L7 Torrent Avinguda - Marítim",
        "line_type": "Metro",
        "operator": "Metrovalencia"
      },
      "geometry": {
        "type": "LineString",
        "coordinates": [
          [
            -0.47263,
            39.43168
          ],
          [
            -0.46093,
            39.4361
          ],
          [
            -0.39777,
            39.45509
          ],
          [
            -0.4095,
            39.458
          ],
          [
            -0.38465,
            39.45936
          ],
          [
            -0.37928,
            39.4636
          ],
          [
            -3.69204,
            40.4258
          ],
          [
            -0.36602,
            39.47311
          ],
          [
            -0.33863,
            39.46486
          ]
        ]
      }
    },
    {
      "type": "Feature",
      "properties": {
        "id": "EST-TORRENTAVINGUDA",
        "name": "Torrent Avinguda",
        "line": "L7 Torrent Avinguda - Marítim"
      },
      "geometry": {
        "type": "Point",
        "coordinates": [
          -0.47263,
          39.43168
        ]
      }
    },
    {
      "type": "Feature",
      "properties": {
        "id": "EST-TORRENT",
        "name": "Torrent",
        "line": "L7 Torrent Avinguda - Marítim"
      },
      "geometry": {
        "type": "Point",
        "coordinates": [
          -0.46093,
          39.4361
        ]
      }
    },
    {
      "type": "Feature",
      "properties": {
        "id": "EST-SAFRANAR",
        "name": "Safranar",
        "line": "L7 Torrent Avinguda - Marítim"
      },
      "geometry": {
        "type": "Point",
        "coordinates": [
          -0.39777,
          39.45509
        ]
      }
    },
    {
      "type": "Feature",
      "properties": {
        "id": "EST-PATRAIX",
        "name": "Patraix",
        "line": "L7 Torrent Avinguda - Marítim"
      },
      "geometry": {
        "type": "Point",
        "coordinates": [
          -0.4095,
          39.458
        ]
      }
    },
    {
      "type": "Feature",
      "properties": {
        "id": "EST-JESUS",
        "name": "Jesús",
        "line": "L7 Torrent Avinguda - Marítim"
      },
      "geometry": {
        "type": "Point",
        "coordinates": [
          -0.38465,
          39.45936
        ]
      }
    },
    {
      "type": "Feature",
      "properties": {
        "id": "EST-BAILEN",
        "name": "Bailén",
        "line": "L7 Torrent Avinguda - Marítim"
      },
      "geometry": {
        "type": "Point",
        "coordinates": [
          -0.37928,
          39.4636
        ]
      }
    },
    {
      "type": "Feature",
      "properties": {
        "id": "EST-COLON",
        "name": "Colón",
        "line": "L7 Torrent Avinguda - Marítim"
      },
      "geometry": {
        "type": "Point",
        "coordinates": [
          -3.69204,
          40.4258
        ]
      }
    },
    {
      "type": "Feature",
      "properties": {
        "id": "EST-ALAMEDA",
        "name": "Alameda",
        "line": "L7 Torrent Avinguda - Marítim"
      },
      "geometry": {
        "type": "Point",
        "coordinates": [
          -0.36602,
          39.47311
        ]
      }
    },
    {
      "type": "Feature",
      "properties": {
        "id": "EST-MARITIM",
        "name": "Marítim",
        "line": "L7 Torrent Avinguda - Marítim"
      },
      "geometry": {
        "type": "Point",
        "coordinates": [
          -0.33863,
          39.46486
        ]
      }
    }
  ]
}