{
  "type": "FeatureCollection",
  "features": [
    {
      "type": "Feature",
      "properties": {
        "id": "211",
        "name": "L10 Alacant - Natzaret",
        "line_type": "Tranvía",
        "operator": "Metrovalencia"
      },
      "geometry": {
        "type": "LineString",
        "coordinates": [
          [
            -0.49606,
            38.34498
          ],
          [
            -0.37777,
            39.46613
          ],
          [
            -0.36431,
            39.45784
          ],
          [
            -0.37146,
            39.44153
          ],
          [
            -0.35255,
            39.45576
          ],
          [
            -0.34718,
            39.45305
          ],
          [
            -0.3336,
            39.45005
          ]
        ]
      }
    },
    {
      "type": "Feature",
      "properties": {
        "id": "EST-ALACANT",
        "name": "Alacant",
        "line": "L10 Alacant - Natzaret"
      },
      "geometry": {
        "type": "Point",
        "coordinates": [
          -0.49606,
          38.34498
        ]
      }
    },
    {
      "type": "Feature",
      "properties": {
        "id": "EST-RUSSAFA",
        "name": "Russafa",
        "line": "L10 Alacant - Natzaret"
      },
      "geometry": {
        "type": "Point",
        "coordinates": [
          -0.37777,
          39.46613
        ]
      }
    },
    {
      "type": "Feature",
      "properties": {
        "id": "EST-AMADOGRANELL",
        "name": "Amado Granell",
        "line": "L10 Alacant - Natzaret"
      },
      "geometry": {
        "type": "Point",
        "coordinates": [
          -0.36431,
          39.45784
        ]
      }
    },
    {
      "type": "Feature",
      "properties": {
        "id": "EST-QUATRECARRERES",
        "name": "Quatre Carreres",
        "line": "L10 Alacant - Natzaret"
      },
      "geometry": {
        "type": "Point",
        "coordinates": [
          -0.37146,
          39.44153
        ]
      }
    },
    {
      "type": "Feature",
      "properties": {
        "id": "EST-CIUTATARTISICIENCIES",
        "name": "Ciutat Arts i Ciències",
        "line": "L10 Alacant - Natzaret"
      },
      "geometry": {
        "type": "Point",
        "coordinates": [
          -0.35255,
          39.45576
        ]
      }
    },
    {
      "type": "Feature",
      "properties": {
        "id": "EST-OCEANOGRAFIC",
        "name": "Oceanogràfic",
        "line": "L10 Alacant - Natzaret"
      },
      "geometry": {
        "type": "Point",
        "coordinates": [
          -0.34718,
          39.45305
        ]
      }
    },
    {
      "type": "Feature",
      "properties": {
        "id": "EST-NATZARET",
        "name": "Natzaret",
        "line": "L10 Alacant - Natzaret"
      },
      "geometry": {
        "type": "Point",
        "coordinates": [
          -0.3336,
          39.45005
        ]
      }
    }
  ]
}