{
  "type": "FeatureCollection",
  "features": [
    {
      "type": "Feature",
      "properties": {
        "id": "224",
        "name": "L1b Los Rectores Terra Natura - UCAM Gabarrón",
        "line_type": "Tranvía",
        "operator": "Tranvía de Murcia"
      },
      "geometry": {
        "type": "LineString",
        "coordinates": [
          [
            -1.16265,
            38.01253
          ],
          [
            -3.62492,
            40.38258
          ],
          [
            -3.62406,
            40.55091
          ],
          [
            -1.18407,
            37.99741
          ],
          [
            -1.18659,
            37.99296
          ]
        ]
      }
    },
    {
      "type": "Feature",
      "properties": {
        "id": "EST-LOSRECTORESTERRANATURA",
        "name": "Los Rectores - Terra Natura",
        "line": "L1b Los Rectores Terra Natura - UCAM Gabarrón"
      },
      "geometry": {
        "type": "Point",
        "coordinates": [
          -1.16265,
          38.01253
        ]
      }
    },
    {
      "type": "Feature",
      "properties": {
        "id": "EST-GUADALUPE",
        "name": "Guadalupe",
        "line": "L1b Los Rectores Terra Natura - UCAM Gabarrón"
      },
      "geometry": {
        "type": "Point",
        "coordinates": [
          -3.62492,
          40.38258
        ]
      }
    },
    {
      "type": "Feature",
      "properties": {
        "id": "EST-REYESCATOLICOSMURCIA",
        "name": "Reyes Católicos",
        "line": "L1b Los Rectores Terra Natura - UCAM Gabarrón"
      },
      "geometry": {
        "type": "Point",
        "coordinates": [
          -3.62406,
          40.55091
        ]
      }
    },
    {
      "type": "Feature",
      "properties": {
        "id": "EST-ELPORTON",
        "name": "El Portón",
        "line": "L1b Los Rectores Terra Natura - UCAM Gabarrón"
      },
      "geometry": {
        "type": "Point",
        "coordinates": [
          -1.18407,
          37.99741
        ]
      }
    },
    {
      "type": "Feature",
      "properties": {
        "id": "EST-UCAMLOSJERONIMOS",
        "name": "UCAM - Los Jerónimos",
        "line": "L1b Los Rectores Terra Natura - UCAM Gabarrón"
      },
      "geometry": {
        "type": "Point",
        "coordinates": [
          -1.18659,
          37.99296
        ]
      }
    }
  ]
}