{
  "type": "FeatureCollection",
  "features": [
    {
      "type": "Feature",
      "properties": {
        "id": "228",
        "name": "C-4 Circular",
        "line_type": "Cercanías",
        "operator": "Renfe"
      },
      "geometry": {
        "type": "LineString",
        "coordinates": [
          [
            -5.9364,
            37.40368
          ],
          [
            -5.93933,
            37.37082
          ],
          [
            -5.97582,
            37.36281
          ],
          [
            -3.70576,
            40.42977
          ],
          [
            -3.69995,
            40.41777
          ]
        ]
      }
    },
    {
      "type": "Feature",
      "properties": {
        "id": "EST-PALACIODECONGRESOS",
        "name": "Palacio de Congresos",
        "line": "C-4 Circular"
      },
      "geometry": {
        "type": "Point",
        "coordinates": [
          -5.9364,
          37.40368
        ]
      }
    },
    {
      "type": "Feature",
      "properties": {
        "id": "EST-PADREPIOPALMETE",
        "name": "Padre Pío-Palmete",
        "line": "C-4 Circular"
      },
      "geometry": {
        "type": "Point",
        "coordinates": [
          -5.93933,
          37.37082
        ]
      }
    },
    {
      "type": "Feature",
      "properties": {
        "id": "EST-VIRGENDELROCIO",
        "name": "Virgen del Rocío",
        "line": "C-4 Circular"
      },
      "geometry": {
        "type": "Point",
        "coordinates": [
          -5.97582,
          37.36281
        ]
      }
    },
    {
      "type": "Feature",
      "properties": {
        "id": "EST-SANBERNARDO",
        "name": "San Bernardo",
        "line": "C-4 Circular"
      },
      "geometry": {
        "type": "Point",
        "coordinates": [
          -3.70576,
          40.42977
        ]
      }
    },
    {
      "type": "Feature",
      "properties": {
        "id": "EST-SEVILLASANTAJUSTA",
        "name": "Sevilla-Santa Justa",
        "line": "C-4 Circular"
      },
      "geometry": {
        "type": "Point",
        "coordinates": [
          -3.69995,
          40.41777
        ]
      }
    }
  ]
}