{
  "type": "FeatureCollection",
  "features": [
    {
      "type": "Feature",
      "properties": {
        "id": "26",
        "name": "Alvia Barcelona - Irún",
        "line_type": "Larga Distancia",
        "operator": "Renfe"
      },
      "geometry": {
        "type": "LineString",
        "coordinates": [
          [
            2.13996,
            41.37901
          ],
          [
            1.27357,
            41.19217
          ],
          [
            0.63304,
            41.62073
          ],
          [
            -0.91139,
            41.65857
          ],
          [
            -1.59767,
            42.0595
          ],
          [
            -1.69244,
            42.17287
          ],
          [
            -1.67121,
            42.52575
          ],
          [
            -1.66149,
            42.82505
          ],
          [
            -2.31988,
            43.08701
          ],
          [
            -2.07914,
            43.13564
          ],
          [
            -3.6346,
            40.54675
          ],
          [
            -1.80058,
            43.33921
          ]
        ]
      }
    },
    {
      "type": "Feature",
      "properties": {
        "id": "EST-BARCELONASANTS",
        "name": "Barcelona-Sants",
        "line": "Alvia Barcelona - Irún"
      },
      "geometry": {
        "type": "Point",
        "coordinates": [
          2.13996,
          41.37901
        ]
      }
    },
    {
      "type": "Feature",
      "properties": {
        "id": "EST-CAMPDETARRAGONA",
        "name": "Camp de Tarragona",
        "line": "Alvia Barcelona - Irún"
      },
      "geometry": {
        "type": "Point",
        "coordinates": [
          1.27357,
          41.19217
        ]
      }
    },
    {
      "type": "Feature",
      "properties": {
        "id": "EST-LLEIDAPIRINEUS",
        "name": "Lleida Pirineus",
        "line": "Alvia Barcelona - Irún"
      },
      "geometry": {
        "type": "Point",
        "coordinates": [
          0.63304,
          41.62073
        ]
      }
    },
    {
      "type": "Feature",
      "properties": {
        "id": "EST-ZARAGOZADELICIAS",
        "name": "Zaragoza-Delicias",
        "line": "Alvia Barcelona - Irún"
      },
      "geometry": {
        "type": "Point",
        "coordinates": [
          -0.91139,
          41.65857
        ]
      }
    },
    {
      "type": "Feature",
      "properties": {
        "id": "EST-TUDELADENAVARRA",
        "name": "Tudela de Navarra",
        "line": "Alvia Barcelona - Irún"
      },
      "geometry": {
        "type": "Point",
        "coordinates": [
          -1.59767,
          42.0595
        ]
      }
    },
    {
      "type": "Feature",
      "properties": {
        "id": "EST-CASTEJONDEEBRO",
        "name": "Castejón de Ebro",
        "line": "Alvia Barcelona - Irún"
      },
      "geometry": {
        "type": "Point",
        "coordinates": [
          -1.69244,
          42.17287
        ]
      }
    },
    {
      "type": "Feature",
      "properties": {
        "id": "EST-TAFALLA",
        "name": "Tafalla",
        "line": "Alvia Barcelona - Irún"
      },
      "geometry": {
        "type": "Point",
        "coordinates": [
          -1.67121,
          42.52575
        ]
      }
    },
    {
      "type": "Feature",
      "properties": {
        "id": "EST-PAMPLONA",
        "name": "Pamplona",
        "line": "Alvia Barcelona - Irún"
      },
      "geometry": {
        "type": "Point",
        "coordinates": [
          -1.66149,
          42.82505
        ]
      }
    },
    {
      "type": "Feature",
      "properties": {
        "id": "EST-ZUMARRAGA",
        "name": "Zumárraga",
        "line": "Alvia Barcelona - Irún"
      },
      "geometry": {
        "type": "Point",
        "coordinates": [
          -2.31988,
          43.08701
        ]
      }
    },
    {
      "type": "Feature",
      "properties": {
        "id": "EST-TOLOSA",
        "name": "Tolosa",
        "line": "Alvia Barcelona - Irún"
      },
      "geometry": {
        "type": "Point",
        "coordinates": [
          -2.07914,
          43.13564
        ]
      }
    },
    {
      "type": "Feature",
      "properties": {
        "id": "EST-SANSEBASTIAN",
        "name": "San Sebastián",
        "line": "Alvia Barcelona - Irún"
      },
      "geometry": {
        "type": "Point",
        "coordinates": [
          -3.6346,
          40.54675
        ]
      }
    },
    {
      "type": "Feature",
      "properties": {
        "id": "EST-IRUN",
        "name": "Irún",
        "line": "Alvia Barcelona - Irún"
      },
      "geometry": {
        "type": "Point",
        "coordinates": [
          -1.80058,
          43.33921
        ]
      }
    }
  ]
}