{
  "type": "FeatureCollection",
  "features": [
    {
      "type": "Feature",
      "properties": {
        "id": "278",
        "name": "M1 Plaça d'Espanya - UIB",
        "line_type": "Metro",
        "operator": "SFM"
      },
      "geometry": {
        "type": "LineString",
        "coordinates": [
          [
            2.65413,
            39.5763
          ],
          [
            2.65997,
            39.58005
          ],
          [
            2.66579,
            39.58417
          ],
          [
            2.67149,
            39.59547
          ],
          [
            2.66095,
            39.6203
          ],
          [
            2.648,
            39.63461
          ]
        ]
      }
    },
    {
      "type": "Feature",
      "properties": {
        "id": "EST-ESTACIOINTERMODAL",
        "name": "Estació Intermodal",
        "line": "M1 Plaça d'Espanya - UIB"
      },
      "geometry": {
        "type": "Point",
        "coordinates": [
          2.65413,
          39.5763
        ]
      }
    },
    {
      "type": "Feature",
      "properties": {
        "id": "EST-JACINTVERDAGUER",
        "name": "Jacint Verdaguer",
        "line": "M1 Plaça d'Espanya - UIB"
      },
      "geometry": {
        "type": "Point",
        "coordinates": [
          2.65997,
          39.58005
        ]
      }
    },
    {
      "type": "Feature",
      "properties": {
        "id": "EST-SONCOSTASONFORTESA",
        "name": "Son Costa-Son Fortesa",
        "line": "M1 Plaça d'Espanya - UIB"
      },
      "geometry": {
        "type": "Point",
        "coordinates": [
          2.66579,
          39.58417
        ]
      }
    },
    {
      "type": "Feature",
      "properties": {
        "id": "EST-SONFUSTERVELL",
        "name": "Son Fuster Vell",
        "line": "M1 Plaça d'Espanya - UIB"
      },
      "geometry": {
        "type": "Point",
        "coordinates": [
          2.67149,
          39.59547
        ]
      }
    },
    {
      "type": "Feature",
      "properties": {
        "id": "EST-SONSARDINA",
        "name": "Son Sardina",
        "line": "M1 Plaça d'Espanya - UIB"
      },
      "geometry": {
        "type": "Point",
        "coordinates": [
          2.66095,
          39.6203
        ]
      }
    },
    {
      "type": "Feature",
      "properties": {
        "id": "EST-UIB",
        "name": "UIB",
        "line": "M1 Plaça d'Espanya - UIB"
      },
      "geometry": {
        "type": "Point",
        "coordinates": [
          2.648,
          39.63461
        ]
      }
    }
  ]
}