{
  "type": "FeatureCollection",
  "features": [
    {
      "type": "Feature",
      "properties": {
        "id": "288",
        "name": "Avlo Madrid - Málaga",
        "line_type": "Avlo",
        "operator": "Renfe"
      },
      "geometry": {
        "type": "LineString",
        "coordinates": [
          [
            -3.6886,
            40.40697
          ],
          [
            -3.91314,
            38.98487
          ],
          [
            -4.11194,
            38.69129
          ],
          [
            -4.78952,
            37.88851
          ],
          [
            -4.82223,
            37.35892
          ],
          [
            -4.71971,
            37.07017
          ],
          [
            -4.01003,
            43.3983
          ]
        ]
      }
    },
    {
      "type": "Feature",
      "properties": {
        "id": "EST-MADRIDPUERTADEATOCHA",
        "name": "Madrid-Puerta de Atocha",
        "line": "Avlo Madrid - Málaga"
      },
      "geometry": {
        "type": "Point",
        "coordinates": [
          -3.6886,
          40.40697
        ]
      }
    },
    {
      "type": "Feature",
      "properties": {
        "id": "EST-CIUDADREAL",
        "name": "Ciudad Real",
        "line": "Avlo Madrid - Málaga"
      },
      "geometry": {
        "type": "Point",
        "coordinates": [
          -3.91314,
          38.98487
        ]
      }
    },
    {
      "type": "Feature",
      "properties": {
        "id": "EST-PUERTOLLANO",
        "name": "Puertollano",
        "line": "Avlo Madrid - Málaga"
      },
      "geometry": {
        "type": "Point",
        "coordinates": [
          -4.11194,
          38.69129
        ]
      }
    },
    {
      "type": "Feature",
      "properties": {
        "id": "EST-CORDOBACENTRAL",
        "name": "Córdoba-Central",
        "line": "Avlo Madrid - Málaga"
      },
      "geometry": {
        "type": "Point",
        "coordinates": [
          -4.78952,
          37.88851
        ]
      }
    },
    {
      "type": "Feature",
      "properties": {
        "id": "EST-PUENTEGENILHERRERA",
        "name": "Puente Genil-Herrera",
        "line": "Avlo Madrid - Málaga"
      },
      "geometry": {
        "type": "Point",
        "coordinates": [
          -4.82223,
          37.35892
        ]
      }
    },
    {
      "type": "Feature",
      "properties": {
        "id": "EST-ANTEQUERASANTAANA",
        "name": "Antequera-Santa Ana",
        "line": "Avlo Madrid - Málaga"
      },
      "geometry": {
        "type": "Point",
        "coordinates": [
          -4.71971,
          37.07017
        ]
      }
    },
    {
      "type": "Feature",
      "properties": {
        "id": "EST-MALAGAMARIAZAMBRANO",
        "name": "Málaga-María Zambrano",
        "line": "Avlo Madrid - Málaga"
      },
      "geometry": {
        "type": "Point",
        "coordinates": [
          -4.01003,
          43.3983
        ]
      }
    }
  ]
}