{
  "type": "FeatureCollection",
  "features": [
    {
      "type": "Feature",
      "properties": {
        "id": "306",
        "name": "AVE Madrid-Chamartín-Clara Campoamor - Gijón",
        "line_type": "AVE",
        "operator": "Renfe"
      },
      "geometry": {
        "type": "LineString",
        "coordinates": [
          [
            -3.68226,
            40.47206
          ],
          [
            -4.7272,
            41.64334
          ],
          [
            -6.52214,
            42.4055
          ],
          [
            -5.85487,
            43.36636
          ],
          [
            -5.67563,
            43.53773
          ]
        ]
      }
    },
    {
      "type": "Feature",
      "properties": {
        "id": "EST-MADRIDCHAMARTINCLARACAMPOAMOR",
        "name": "Madrid-Chamartín-Clara Campoamor",
        "line": "AVE Madrid-Chamartín-Clara Campoamor - Gijón"
      },
      "geometry": {
        "type": "Point",
        "coordinates": [
          -3.68226,
          40.47206
        ]
      }
    },
    {
      "type": "Feature",
      "properties": {
        "id": "EST-VALLADOLIDCAMPOGRANDE",
        "name": "Valladolid-Campo Grande",
        "line": "AVE Madrid-Chamartín-Clara Campoamor - Gijón"
      },
      "geometry": {
        "type": "Point",
        "coordinates": [
          -4.7272,
          41.64334
        ]
      }
    },
    {
      "type": "Feature",
      "properties": {
        "id": "EST-LEON",
        "name": "León",
        "line": "AVE Madrid-Chamartín-Clara Campoamor - Gijón"
      },
      "geometry": {
        "type": "Point",
        "coordinates": [
          -6.52214,
          42.4055
        ]
      }
    },
    {
      "type": "Feature",
      "properties": {
        "id": "EST-OVIEDO",
        "name": "Oviedo",
        "line": "AVE Madrid-Chamartín-Clara Campoamor - Gijón"
      },
      "geometry": {
        "type": "Point",
        "coordinates": [
          -5.85487,
          43.36636
        ]
      }
    },
    {
      "type": "Feature",
      "properties": {
        "id": "EST-GIJON",
        "name": "Gijón",
        "line": "AVE Madrid-Chamartín-Clara Campoamor - Gijón"
      },
      "geometry": {
        "type": "Point",
        "coordinates": [
          -5.67563,
          43.53773
        ]
      }
    }
  ]
}