{
  "type": "FeatureCollection",
  "features": [
    {
      "type": "Feature",
      "properties": {
        "id": "31",
        "name": "Intercity Madrid - Badajoz",
        "line_type": "Larga Distancia",
        "operator": "Renfe"
      },
      "geometry": {
        "type": "LineString",
        "coordinates": [
          [
            -3.68226,
            40.47206
          ],
          [
            -3.6886,
            40.40697
          ],
          [
            -3.77236,
            40.32809
          ],
          [
            -4.28316,
            39.97881
          ],
          [
            -4.82654,
            39.97063
          ],
          [
            -5.18621,
            39.92185
          ],
          [
            -5.54565,
            39.89496
          ],
          [
            -6.10125,
            39.93762
          ],
          [
            -6.09963,
            40.02226
          ],
          [
            -6.38572,
            39.46118
          ],
          [
            -6.34305,
            38.92159
          ],
          [
            -6.59867,
            38.91358
          ],
          [
            -6.98162,
            38.89073
          ]
        ]
      }
    },
    {
      "type": "Feature",
      "properties": {
        "id": "EST-MADRIDCHAMARTINCLARACAMPOAMOR",
        "name": "Madrid-Chamartín-Clara Campoamor",
        "line": "Intercity Madrid - Badajoz"
      },
      "geometry": {
        "type": "Point",
        "coordinates": [
          -3.68226,
          40.47206
        ]
      }
    },
    {
      "type": "Feature",
      "properties": {
        "id": "EST-MADRIDATOCHACERCANIAS",
        "name": "Madrid-Atocha Cercanías",
        "line": "Intercity Madrid - Badajoz"
      },
      "geometry": {
        "type": "Point",
        "coordinates": [
          -3.6886,
          40.40697
        ]
      }
    },
    {
      "type": "Feature",
      "properties": {
        "id": "EST-LEGANES",
        "name": "Leganés",
        "line": "Intercity Madrid - Badajoz"
      },
      "geometry": {
        "type": "Point",
        "coordinates": [
          -3.77236,
          40.32809
        ]
      }
    },
    {
      "type": "Feature",
      "properties": {
        "id": "EST-TORRIJOS",
        "name": "Torrijos",
        "line": "Intercity Madrid - Badajoz"
      },
      "geometry": {
        "type": "Point",
        "coordinates": [
          -4.28316,
          39.97881
        ]
      }
    },
    {
      "type": "Feature",
      "properties": {
        "id": "EST-TALAVERADELAREINA",
        "name": "Talavera de la Reina",
        "line": "Intercity Madrid - Badajoz"
      },
      "geometry": {
        "type": "Point",
        "coordinates": [
          -4.82654,
          39.97063
        ]
      }
    },
    {
      "type": "Feature",
      "properties": {
        "id": "EST-OROPESADETOLEDO",
        "name": "Oropesa de Toledo",
        "line": "Intercity Madrid - Badajoz"
      },
      "geometry": {
        "type": "Point",
        "coordinates": [
          -5.18621,
          39.92185
        ]
      }
    },
    {
      "type": "Feature",
      "properties": {
        "id": "EST-NAVALMORALDELAMATA",
        "name": "Navalmoral de la Mata",
        "line": "Intercity Madrid - Badajoz"
      },
      "geometry": {
        "type": "Point",
        "coordinates": [
          -5.54565,
          39.89496
        ]
      }
    },
    {
      "type": "Feature",
      "properties": {
        "id": "EST-MONFRAGUE",
        "name": "Monfragüe",
        "line": "Intercity Madrid - Badajoz"
      },
      "geometry": {
        "type": "Point",
        "coordinates": [
          -6.10125,
          39.93762
        ]
      }
    },
    {
      "type": "Feature",
      "properties": {
        "id": "EST-PLASENCIA",
        "name": "Plasencia",
        "line": "Intercity Madrid - Badajoz"
      },
      "geometry": {
        "type": "Point",
        "coordinates": [
          -6.09963,
          40.02226
        ]
      }
    },
    {
      "type": "Feature",
      "properties": {
        "id": "EST-CACERES",
        "name": "Cáceres",
        "line": "Intercity Madrid - Badajoz"
      },
      "geometry": {
        "type": "Point",
        "coordinates": [
          -6.38572,
          39.46118
        ]
      }
    },
    {
      "type": "Feature",
      "properties": {
        "id": "EST-MERIDA",
        "name": "Mérida",
        "line": "Intercity Madrid - Badajoz"
      },
      "geometry": {
        "type": "Point",
        "coordinates": [
          -6.34305,
          38.92159
        ]
      }
    },
    {
      "type": "Feature",
      "properties": {
        "id": "EST-MONTIJO",
        "name": "Montijo",
        "line": "Intercity Madrid - Badajoz"
      },
      "geometry": {
        "type": "Point",
        "coordinates": [
          -6.59867,
          38.91358
        ]
      }
    },
    {
      "type": "Feature",
      "properties": {
        "id": "EST-BADAJOZ",
        "name": "Badajoz",
        "line": "Intercity Madrid - Badajoz"
      },
      "geometry": {
        "type": "Point",
        "coordinates": [
          -6.98162,
          38.89073
        ]
      }
    }
  ]
}