{
  "type": "FeatureCollection",
  "features": [
    {
      "type": "Feature",
      "properties": {
        "id": "310",
        "name": "AVE Barcelona-Sants - Granada",
        "line_type": "AVE",
        "operator": "Renfe"
      },
      "geometry": {
        "type": "LineString",
        "coordinates": [
          [
            2.13996,
            41.37901
          ],
          [
            1.27357,
            41.19217
          ],
          [
            0.63304,
            41.62073
          ],
          [
            -0.91139,
            41.65857
          ],
          [
            -4.78952,
            37.88851
          ],
          [
            -4.56137,
            37.02948
          ],
          [
            -3.60863,
            37.18369
          ]
        ]
      }
    },
    {
      "type": "Feature",
      "properties": {
        "id": "EST-BARCELONASANTS",
        "name": "Barcelona-Sants",
        "line": "AVE Barcelona-Sants - Granada"
      },
      "geometry": {
        "type": "Point",
        "coordinates": [
          2.13996,
          41.37901
        ]
      }
    },
    {
      "type": "Feature",
      "properties": {
        "id": "EST-CAMPDETARRAGONA",
        "name": "Camp de Tarragona",
        "line": "AVE Barcelona-Sants - Granada"
      },
      "geometry": {
        "type": "Point",
        "coordinates": [
          1.27357,
          41.19217
        ]
      }
    },
    {
      "type": "Feature",
      "properties": {
        "id": "EST-LLEIDAPIRINEUS",
        "name": "Lleida Pirineus",
        "line": "AVE Barcelona-Sants - Granada"
      },
      "geometry": {
        "type": "Point",
        "coordinates": [
          0.63304,
          41.62073
        ]
      }
    },
    {
      "type": "Feature",
      "properties": {
        "id": "EST-ZARAGOZADELICIAS",
        "name": "Zaragoza-Delicias",
        "line": "AVE Barcelona-Sants - Granada"
      },
      "geometry": {
        "type": "Point",
        "coordinates": [
          -0.91139,
          41.65857
        ]
      }
    },
    {
      "type": "Feature",
      "properties": {
        "id": "EST-CORDOBACENTRAL",
        "name": "Córdoba-Central",
        "line": "AVE Barcelona-Sants - Granada"
      },
      "geometry": {
        "type": "Point",
        "coordinates": [
          -4.78952,
          37.88851
        ]
      }
    },
    {
      "type": "Feature",
      "properties": {
        "id": "EST-ANTEQUERAAV",
        "name": "Antequera AV",
        "line": "AVE Barcelona-Sants - Granada"
      },
      "geometry": {
        "type": "Point",
        "coordinates": [
          -4.56137,
          37.02948
        ]
      }
    },
    {
      "type": "Feature",
      "properties": {
        "id": "EST-GRANADA",
        "name": "Granada",
        "line": "AVE Barcelona-Sants - Granada"
      },
      "geometry": {
        "type": "Point",
        "coordinates": [
          -3.60863,
          37.18369
        ]
      }
    }
  ]
}