{
  "type": "FeatureCollection",
  "features": [
    {
      "type": "Feature",
      "properties": {
        "id": "319",
        "name": "AVE Huesca - Sevilla-Santa Justa",
        "line_type": "AVE",
        "operator": "Renfe"
      },
      "geometry": {
        "type": "LineString",
        "coordinates": [
          [
            -0.40985,
            42.13275
          ],
          [
            -0.53843,
            41.97557
          ],
          [
            -0.91139,
            41.65857
          ],
          [
            -1.63842,
            41.34636
          ],
          [
            -3.18225,
            40.64408
          ],
          [
            -3.6886,
            40.40697
          ],
          [
            -4.78952,
            37.88851
          ],
          [
            -3.69995,
            40.41777
          ]
        ]
      }
    },
    {
      "type": "Feature",
      "properties": {
        "id": "EST-HUESCA",
        "name": "Huesca",
        "line": "AVE Huesca - Sevilla-Santa Justa"
      },
      "geometry": {
        "type": "Point",
        "coordinates": [
          -0.40985,
          42.13275
        ]
      }
    },
    {
      "type": "Feature",
      "properties": {
        "id": "EST-TARDIENTA",
        "name": "Tardienta",
        "line": "AVE Huesca - Sevilla-Santa Justa"
      },
      "geometry": {
        "type": "Point",
        "coordinates": [
          -0.53843,
          41.97557
        ]
      }
    },
    {
      "type": "Feature",
      "properties": {
        "id": "EST-ZARAGOZADELICIAS",
        "name": "Zaragoza-Delicias",
        "line": "AVE Huesca - Sevilla-Santa Justa"
      },
      "geometry": {
        "type": "Point",
        "coordinates": [
          -0.91139,
          41.65857
        ]
      }
    },
    {
      "type": "Feature",
      "properties": {
        "id": "EST-CALATAYUD",
        "name": "Calatayud",
        "line": "AVE Huesca - Sevilla-Santa Justa"
      },
      "geometry": {
        "type": "Point",
        "coordinates": [
          -1.63842,
          41.34636
        ]
      }
    },
    {
      "type": "Feature",
      "properties": {
        "id": "EST-GUADALAJARAYEBES",
        "name": "Guadalajara-Yebes",
        "line": "AVE Huesca - Sevilla-Santa Justa"
      },
      "geometry": {
        "type": "Point",
        "coordinates": [
          -3.18225,
          40.64408
        ]
      }
    },
    {
      "type": "Feature",
      "properties": {
        "id": "EST-MADRIDPUERTADEATOCHA",
        "name": "Madrid-Puerta de Atocha",
        "line": "AVE Huesca - Sevilla-Santa Justa"
      },
      "geometry": {
        "type": "Point",
        "coordinates": [
          -3.6886,
          40.40697
        ]
      }
    },
    {
      "type": "Feature",
      "properties": {
        "id": "EST-CORDOBACENTRAL",
        "name": "Córdoba-Central",
        "line": "AVE Huesca - Sevilla-Santa Justa"
      },
      "geometry": {
        "type": "Point",
        "coordinates": [
          -4.78952,
          37.88851
        ]
      }
    },
    {
      "type": "Feature",
      "properties": {
        "id": "EST-SEVILLASANTAJUSTA",
        "name": "Sevilla-Santa Justa",
        "line": "AVE Huesca - Sevilla-Santa Justa"
      },
      "geometry": {
        "type": "Point",
        "coordinates": [
          -3.69995,
          40.41777
        ]
      }
    }
  ]
}