{
  "type": "FeatureCollection",
  "features": [
    {
      "type": "Feature",
      "properties": {
        "id": "32",
        "name": "Intercity Madrid - Almería",
        "line_type": "Larga Distancia",
        "operator": "Renfe"
      },
      "geometry": {
        "type": "LineString",
        "coordinates": [
          [
            -3.68226,
            40.47206
          ],
          [
            -3.6886,
            40.40697
          ],
          [
            -3.20537,
            39.39566
          ],
          [
            -3.3706,
            39.0059
          ],
          [
            -3.39614,
            38.76328
          ],
          [
            -3.5177,
            38.21573
          ],
          [
            -3.58914,
            38.06908
          ],
          [
            -3.35018,
            37.91348
          ],
          [
            -3.26237,
            37.65659
          ],
          [
            -3.31075,
            37.43113
          ],
          [
            -3.12702,
            37.31688
          ],
          [
            -2.83948,
            37.18472
          ],
          [
            -2.48751,
            36.9515
          ],
          [
            -3.62279,
            38.09617
          ]
        ]
      }
    },
    {
      "type": "Feature",
      "properties": {
        "id": "EST-MADRIDCHAMARTINCLARACAMPOAMOR",
        "name": "Madrid-Chamartín-Clara Campoamor",
        "line": "Intercity Madrid - Almería"
      },
      "geometry": {
        "type": "Point",
        "coordinates": [
          -3.68226,
          40.47206
        ]
      }
    },
    {
      "type": "Feature",
      "properties": {
        "id": "EST-MADRIDATOCHACERCANIAS",
        "name": "Madrid-Atocha Cercanías",
        "line": "Intercity Madrid - Almería"
      },
      "geometry": {
        "type": "Point",
        "coordinates": [
          -3.6886,
          40.40697
        ]
      }
    },
    {
      "type": "Feature",
      "properties": {
        "id": "EST-ALCAZARDESANJUAN",
        "name": "Alcázar de San Juan",
        "line": "Intercity Madrid - Almería"
      },
      "geometry": {
        "type": "Point",
        "coordinates": [
          -3.20537,
          39.39566
        ]
      }
    },
    {
      "type": "Feature",
      "properties": {
        "id": "EST-MANZANARES",
        "name": "Manzanares",
        "line": "Intercity Madrid - Almería"
      },
      "geometry": {
        "type": "Point",
        "coordinates": [
          -3.3706,
          39.0059
        ]
      }
    },
    {
      "type": "Feature",
      "properties": {
        "id": "EST-VALDEPENAS",
        "name": "Valdepeñas",
        "line": "Intercity Madrid - Almería"
      },
      "geometry": {
        "type": "Point",
        "coordinates": [
          -3.39614,
          38.76328
        ]
      }
    },
    {
      "type": "Feature",
      "properties": {
        "id": "EST-VILCHES",
        "name": "Vilches",
        "line": "Intercity Madrid - Almería"
      },
      "geometry": {
        "type": "Point",
        "coordinates": [
          -3.5177,
          38.21573
        ]
      }
    },
    {
      "type": "Feature",
      "properties": {
        "id": "EST-LINARESBAEZA",
        "name": "Linares-Baeza",
        "line": "Intercity Madrid - Almería"
      },
      "geometry": {
        "type": "Point",
        "coordinates": [
          -3.58914,
          38.06908
        ]
      }
    },
    {
      "type": "Feature",
      "properties": {
        "id": "EST-JODARUBEDA",
        "name": "Jódar-Úbeda",
        "line": "Intercity Madrid - Almería"
      },
      "geometry": {
        "type": "Point",
        "coordinates": [
          -3.35018,
          37.91348
        ]
      }
    },
    {
      "type": "Feature",
      "properties": {
        "id": "EST-CABRADELSANTOCRISTOYALICUN",
        "name": "Cabra del Santo Cristo y Alicún",
        "line": "Intercity Madrid - Almería"
      },
      "geometry": {
        "type": "Point",
        "coordinates": [
          -3.26237,
          37.65659
        ]
      }
    },
    {
      "type": "Feature",
      "properties": {
        "id": "EST-MOREDAASTURIAS",
        "name": "Moreda",
        "line": "Intercity Madrid - Almería"
      },
      "geometry": {
        "type": "Point",
        "coordinates": [
          -3.31075,
          37.43113
        ]
      }
    },
    {
      "type": "Feature",
      "properties": {
        "id": "EST-GUADIX",
        "name": "Guadix",
        "line": "Intercity Madrid - Almería"
      },
      "geometry": {
        "type": "Point",
        "coordinates": [
          -3.12702,
          37.31688
        ]
      }
    },
    {
      "type": "Feature",
      "properties": {
        "id": "EST-FINANA",
        "name": "Fiñana",
        "line": "Intercity Madrid - Almería"
      },
      "geometry": {
        "type": "Point",
        "coordinates": [
          -2.83948,
          37.18472
        ]
      }
    },
    {
      "type": "Feature",
      "properties": {
        "id": "EST-GADOR",
        "name": "Gádor",
        "line": "Intercity Madrid - Almería"
      },
      "geometry": {
        "type": "Point",
        "coordinates": [
          -2.48751,
          36.9515
        ]
      }
    },
    {
      "type": "Feature",
      "properties": {
        "id": "EST-ALMERIA",
        "name": "Almería",
        "line": "Intercity Madrid - Almería"
      },
      "geometry": {
        "type": "Point",
        "coordinates": [
          -3.62279,
          38.09617
        ]
      }
    }
  ]
}