{
  "type": "FeatureCollection",
  "features": [
    {
      "type": "Feature",
      "properties": {
        "id": "322",
        "name": "AVE Valencia-Joaquín Sorolla - León",
        "line_type": "AVE",
        "operator": "Renfe"
      },
      "geometry": {
        "type": "LineString",
        "coordinates": [
          [
            -0.38121,
            39.46005
          ],
          [
            -1.13473,
            39.52175
          ],
          [
            -2.14369,
            40.03396
          ],
          [
            -3.68226,
            40.47206
          ],
          [
            -4.09476,
            40.91014
          ],
          [
            -4.7272,
            41.64334
          ],
          [
            -4.53386,
            42.01573
          ],
          [
            -6.52214,
            42.4055
          ]
        ]
      }
    },
    {
      "type": "Feature",
      "properties": {
        "id": "EST-VALENCIAJOAQUINSOROLLA",
        "name": "Valencia-Joaquín Sorolla",
        "line": "AVE Valencia-Joaquín Sorolla - León"
      },
      "geometry": {
        "type": "Point",
        "coordinates": [
          -0.38121,
          39.46005
        ]
      }
    },
    {
      "type": "Feature",
      "properties": {
        "id": "EST-REQUENAUTIEL",
        "name": "Requena-Utiel",
        "line": "AVE Valencia-Joaquín Sorolla - León"
      },
      "geometry": {
        "type": "Point",
        "coordinates": [
          -1.13473,
          39.52175
        ]
      }
    },
    {
      "type": "Feature",
      "properties": {
        "id": "EST-CUENCAFERNANDOZOBEL",
        "name": "Cuenca-Fernando Zóbel",
        "line": "AVE Valencia-Joaquín Sorolla - León"
      },
      "geometry": {
        "type": "Point",
        "coordinates": [
          -2.14369,
          40.03396
        ]
      }
    },
    {
      "type": "Feature",
      "properties": {
        "id": "EST-MADRIDCHAMARTINCLARACAMPOAMOR",
        "name": "Madrid-Chamartín-Clara Campoamor",
        "line": "AVE Valencia-Joaquín Sorolla - León"
      },
      "geometry": {
        "type": "Point",
        "coordinates": [
          -3.68226,
          40.47206
        ]
      }
    },
    {
      "type": "Feature",
      "properties": {
        "id": "EST-SEGOVIAGUIOMAR",
        "name": "Segovia-Guiomar",
        "line": "AVE Valencia-Joaquín Sorolla - León"
      },
      "geometry": {
        "type": "Point",
        "coordinates": [
          -4.09476,
          40.91014
        ]
      }
    },
    {
      "type": "Feature",
      "properties": {
        "id": "EST-VALLADOLIDCAMPOGRANDE",
        "name": "Valladolid-Campo Grande",
        "line": "AVE Valencia-Joaquín Sorolla - León"
      },
      "geometry": {
        "type": "Point",
        "coordinates": [
          -4.7272,
          41.64334
        ]
      }
    },
    {
      "type": "Feature",
      "properties": {
        "id": "EST-PALENCIA",
        "name": "Palencia",
        "line": "AVE Valencia-Joaquín Sorolla - León"
      },
      "geometry": {
        "type": "Point",
        "coordinates": [
          -4.53386,
          42.01573
        ]
      }
    },
    {
      "type": "Feature",
      "properties": {
        "id": "EST-LEON",
        "name": "León",
        "line": "AVE Valencia-Joaquín Sorolla - León"
      },
      "geometry": {
        "type": "Point",
        "coordinates": [
          -6.52214,
          42.4055
        ]
      }
    }
  ]
}