{
  "type": "FeatureCollection",
  "features": [
    {
      "type": "Feature",
      "properties": {
        "id": "327",
        "name": "AVE Madrid-Chamartín-Clara Campoamor - Alicante-Terminal",
        "line_type": "AVE",
        "operator": "Renfe"
      },
      "geometry": {
        "type": "LineString",
        "coordinates": [
          [
            -3.68226,
            40.47206
          ],
          [
            -2.14369,
            40.03396
          ],
          [
            -3.98261,
            42.98795
          ],
          [
            -0.86795,
            38.63227
          ],
          [
            -0.49606,
            38.34498
          ]
        ]
      }
    },
    {
      "type": "Feature",
      "properties": {
        "id": "EST-MADRIDCHAMARTINCLARACAMPOAMOR",
        "name": "Madrid-Chamartín-Clara Campoamor",
        "line": "AVE Madrid-Chamartín-Clara Campoamor - Alicante-Terminal"
      },
      "geometry": {
        "type": "Point",
        "coordinates": [
          -3.68226,
          40.47206
        ]
      }
    },
    {
      "type": "Feature",
      "properties": {
        "id": "EST-CUENCAFERNANDOZOBEL",
        "name": "Cuenca-Fernando Zóbel",
        "line": "AVE Madrid-Chamartín-Clara Campoamor - Alicante-Terminal"
      },
      "geometry": {
        "type": "Point",
        "coordinates": [
          -2.14369,
          40.03396
        ]
      }
    },
    {
      "type": "Feature",
      "properties": {
        "id": "EST-ALBACETELOSLLANOS",
        "name": "Albacete-Los Llanos",
        "line": "AVE Madrid-Chamartín-Clara Campoamor - Alicante-Terminal"
      },
      "geometry": {
        "type": "Point",
        "coordinates": [
          -3.98261,
          42.98795
        ]
      }
    },
    {
      "type": "Feature",
      "properties": {
        "id": "EST-VILLENAAV",
        "name": "Villena AV",
        "line": "AVE Madrid-Chamartín-Clara Campoamor - Alicante-Terminal"
      },
      "geometry": {
        "type": "Point",
        "coordinates": [
          -0.86795,
          38.63227
        ]
      }
    },
    {
      "type": "Feature",
      "properties": {
        "id": "EST-ALICANTERMINAL",
        "name": "Alicante-Terminal",
        "line": "AVE Madrid-Chamartín-Clara Campoamor - Alicante-Terminal"
      },
      "geometry": {
        "type": "Point",
        "coordinates": [
          -0.49606,
          38.34498
        ]
      }
    }
  ]
}