{
  "type": "FeatureCollection",
  "features": [
    {
      "type": "Feature",
      "properties": {
        "id": "347",
        "name": "Proximidad Palencia - Medina del Campo",
        "line_type": "Proximidad",
        "operator": "Renfe"
      },
      "geometry": {
        "type": "LineString",
        "coordinates": [
          [
            -4.53386,
            42.01573
          ],
          [
            -4.49627,
            41.9174
          ],
          [
            -4.54073,
            41.87124
          ],
          [
            -4.57957,
            41.80898
          ],
          [
            -4.62337,
            41.76635
          ],
          [
            -4.65127,
            41.73725
          ],
          [
            -4.70422,
            41.66016
          ],
          [
            -4.7272,
            41.64334
          ],
          [
            -4.75456,
            41.52407
          ],
          [
            -4.77295,
            41.48874
          ],
          [
            -4.80147,
            41.4219
          ],
          [
            -4.83566,
            41.36766
          ],
          [
            -4.90968,
            41.31726
          ]
        ]
      }
    },
    {
      "type": "Feature",
      "properties": {
        "id": "EST-PALENCIA",
        "name": "Palencia",
        "line": "Proximidad Palencia - Medina del Campo"
      },
      "geometry": {
        "type": "Point",
        "coordinates": [
          -4.53386,
          42.01573
        ]
      }
    },
    {
      "type": "Feature",
      "properties": {
        "id": "EST-VENTADEBANOS",
        "name": "Venta de Baños",
        "line": "Proximidad Palencia - Medina del Campo"
      },
      "geometry": {
        "type": "Point",
        "coordinates": [
          -4.49627,
          41.9174
        ]
      }
    },
    {
      "type": "Feature",
      "properties": {
        "id": "EST-DUENAS",
        "name": "Dueñas",
        "line": "Proximidad Palencia - Medina del Campo"
      },
      "geometry": {
        "type": "Point",
        "coordinates": [
          -4.54073,
          41.87124
        ]
      }
    },
    {
      "type": "Feature",
      "properties": {
        "id": "EST-CUBILLASDESANTAMARTA",
        "name": "Cubillas de Santa Marta",
        "line": "Proximidad Palencia - Medina del Campo"
      },
      "geometry": {
        "type": "Point",
        "coordinates": [
          -4.57957,
          41.80898
        ]
      }
    },
    {
      "type": "Feature",
      "properties": {
        "id": "EST-CORCOSAGUILAREJO",
        "name": "Corcos-Aguilarejo",
        "line": "Proximidad Palencia - Medina del Campo"
      },
      "geometry": {
        "type": "Point",
        "coordinates": [
          -4.62337,
          41.76635
        ]
      }
    },
    {
      "type": "Feature",
      "properties": {
        "id": "EST-CABEZONDEPISUERGA",
        "name": "Cabezón de Pisuerga",
        "line": "Proximidad Palencia - Medina del Campo"
      },
      "geometry": {
        "type": "Point",
        "coordinates": [
          -4.65127,
          41.73725
        ]
      }
    },
    {
      "type": "Feature",
      "properties": {
        "id": "EST-VALLADOLIDUNIVERSIDAD",
        "name": "Valladolid-Universidad",
        "line": "Proximidad Palencia - Medina del Campo"
      },
      "geometry": {
        "type": "Point",
        "coordinates": [
          -4.70422,
          41.66016
        ]
      }
    },
    {
      "type": "Feature",
      "properties": {
        "id": "EST-VALLADOLIDCAMPOGRANDE",
        "name": "Valladolid-Campo Grande",
        "line": "Proximidad Palencia - Medina del Campo"
      },
      "geometry": {
        "type": "Point",
        "coordinates": [
          -4.7272,
          41.64334
        ]
      }
    },
    {
      "type": "Feature",
      "properties": {
        "id": "EST-VIANADECEGA",
        "name": "Viana de Cega",
        "line": "Proximidad Palencia - Medina del Campo"
      },
      "geometry": {
        "type": "Point",
        "coordinates": [
          -4.75456,
          41.52407
        ]
      }
    },
    {
      "type": "Feature",
      "properties": {
        "id": "EST-VALDESTILLAS",
        "name": "Valdestillas",
        "line": "Proximidad Palencia - Medina del Campo"
      },
      "geometry": {
        "type": "Point",
        "coordinates": [
          -4.77295,
          41.48874
        ]
      }
    },
    {
      "type": "Feature",
      "properties": {
        "id": "EST-MATAPOZUELOS",
        "name": "Matapozuelos",
        "line": "Proximidad Palencia - Medina del Campo"
      },
      "geometry": {
        "type": "Point",
        "coordinates": [
          -4.80147,
          41.4219
        ]
      }
    },
    {
      "type": "Feature",
      "properties": {
        "id": "EST-POZALDEZ",
        "name": "Pozaldez",
        "line": "Proximidad Palencia - Medina del Campo"
      },
      "geometry": {
        "type": "Point",
        "coordinates": [
          -4.83566,
          41.36766
        ]
      }
    },
    {
      "type": "Feature",
      "properties": {
        "id": "EST-MEDINADELCAMPO",
        "name": "Medina del Campo",
        "line": "Proximidad Palencia - Medina del Campo"
      },
      "geometry": {
        "type": "Point",
        "coordinates": [
          -4.90968,
          41.31726
        ]
      }
    }
  ]
}