{
  "type": "FeatureCollection",
  "features": [
    {
      "type": "Feature",
      "properties": {
        "id": "354",
        "name": "Regional 1 La Coruña - Vigo-Guixar",
        "line_type": "Regional",
        "operator": "Renfe"
      },
      "geometry": {
        "type": "LineString",
        "coordinates": [
          [
            -8.41215,
            43.35037
          ],
          [
            -8.44688,
            43.20764
          ],
          [
            -8.371,
            42.9398
          ],
          [
            -8.5452,
            42.87044
          ],
          [
            -8.65241,
            42.73898
          ],
          [
            -8.72537,
            42.67224
          ],
          [
            -8.76228,
            42.60199
          ],
          [
            -4.4722,
            36.71704
          ],
          [
            -8.6354,
            42.42168
          ],
          [
            -8.61067,
            42.34041
          ],
          [
            -8.60372,
            42.28549
          ],
          [
            -8.60372,
            42.28549
          ],
          [
            -8.71188,
            42.23952
          ]
        ]
      }
    },
    {
      "type": "Feature",
      "properties": {
        "id": "EST-ACORUNA",
        "name": "A Coruña",
        "line": "Regional 1 La Coruña - Vigo-Guixar"
      },
      "geometry": {
        "type": "Point",
        "coordinates": [
          -8.41215,
          43.35037
        ]
      }
    },
    {
      "type": "Feature",
      "properties": {
        "id": "EST-CERCEDAMEIRAMA",
        "name": "Cerceda-Meirama",
        "line": "Regional 1 La Coruña - Vigo-Guixar"
      },
      "geometry": {
        "type": "Point",
        "coordinates": [
          -8.44688,
          43.20764
        ]
      }
    },
    {
      "type": "Feature",
      "properties": {
        "id": "EST-ORDENES",
        "name": "Órdenes",
        "line": "Regional 1 La Coruña - Vigo-Guixar"
      },
      "geometry": {
        "type": "Point",
        "coordinates": [
          -8.371,
          42.9398
        ]
      }
    },
    {
      "type": "Feature",
      "properties": {
        "id": "EST-SANTIAGODECOMPOSTELA",
        "name": "Santiago de Compostela",
        "line": "Regional 1 La Coruña - Vigo-Guixar"
      },
      "geometry": {
        "type": "Point",
        "coordinates": [
          -8.5452,
          42.87044
        ]
      }
    },
    {
      "type": "Feature",
      "properties": {
        "id": "EST-PADRONBARBANZA",
        "name": "Padrón-Barbanza",
        "line": "Regional 1 La Coruña - Vigo-Guixar"
      },
      "geometry": {
        "type": "Point",
        "coordinates": [
          -8.65241,
          42.73898
        ]
      }
    },
    {
      "type": "Feature",
      "properties": {
        "id": "EST-CATOIRA",
        "name": "Catoira",
        "line": "Regional 1 La Coruña - Vigo-Guixar"
      },
      "geometry": {
        "type": "Point",
        "coordinates": [
          -8.72537,
          42.67224
        ]
      }
    },
    {
      "type": "Feature",
      "properties": {
        "id": "EST-VILAGARCIADEAROUSA",
        "name": "Vilagarcía de Arousa",
        "line": "Regional 1 La Coruña - Vigo-Guixar"
      },
      "geometry": {
        "type": "Point",
        "coordinates": [
          -8.76228,
          42.60199
        ]
      }
    },
    {
      "type": "Feature",
      "properties": {
        "id": "EST-UNIVERSIDADMALAGA",
        "name": "Universidad",
        "line": "Regional 1 La Coruña - Vigo-Guixar"
      },
      "geometry": {
        "type": "Point",
        "coordinates": [
          -4.4722,
          36.71704
        ]
      }
    },
    {
      "type": "Feature",
      "properties": {
        "id": "EST-PONTEVEDRA",
        "name": "Pontevedra",
        "line": "Regional 1 La Coruña - Vigo-Guixar"
      },
      "geometry": {
        "type": "Point",
        "coordinates": [
          -8.6354,
          42.42168
        ]
      }
    },
    {
      "type": "Feature",
      "properties": {
        "id": "EST-ARCADE",
        "name": "Arcade",
        "line": "Regional 1 La Coruña - Vigo-Guixar"
      },
      "geometry": {
        "type": "Point",
        "coordinates": [
          -8.61067,
          42.34041
        ]
      }
    },
    {
      "type": "Feature",
      "properties": {
        "id": "EST-REDONDELA",
        "name": "Redondela",
        "line": "Regional 1 La Coruña - Vigo-Guixar"
      },
      "geometry": {
        "type": "Point",
        "coordinates": [
          -8.60372,
          42.28549
        ]
      }
    },
    {
      "type": "Feature",
      "properties": {
        "id": "EST-REDONDELA",
        "name": "Redondela",
        "line": "Regional 1 La Coruña - Vigo-Guixar"
      },
      "geometry": {
        "type": "Point",
        "coordinates": [
          -8.60372,
          42.28549
        ]
      }
    },
    {
      "type": "Feature",
      "properties": {
        "id": "EST-VIGOGUIXAR",
        "name": "Vigo-Guixar",
        "line": "Regional 1 La Coruña - Vigo-Guixar"
      },
      "geometry": {
        "type": "Point",
        "coordinates": [
          -8.71188,
          42.23952
        ]
      }
    }
  ]
}