{
  "type": "FeatureCollection",
  "features": [
    {
      "type": "Feature",
      "properties": {
        "id": "358",
        "name": "Regional Exprés 18 Valladolid - Zamora - Puebla de Sanabria",
        "line_type": "Regional Exprés",
        "operator": "Renfe"
      },
      "geometry": {
        "type": "LineString",
        "coordinates": [
          [
            -4.7272,
            41.64334
          ],
          [
            -4.75456,
            41.52407
          ],
          [
            -4.77295,
            41.48874
          ],
          [
            -4.80147,
            41.4219
          ],
          [
            -4.83566,
            41.36766
          ],
          [
            -4.90968,
            41.31726
          ],
          [
            -5.50899,
            43.36119
          ],
          [
            -5.38333,
            41.51178
          ],
          [
            -5.73978,
            41.516
          ],
          [
            -5.99324,
            41.65288
          ],
          [
            -1.23859,
            41.06384
          ],
          [
            -6.45336,
            41.73022
          ],
          [
            -3.85841,
            42.99637
          ],
          [
            -5.40664,
            41.07987
          ],
          [
            -6.62699,
            42.04552
          ]
        ]
      }
    },
    {
      "type": "Feature",
      "properties": {
        "id": "EST-VALLADOLIDCAMPOGRANDE",
        "name": "Valladolid-Campo Grande",
        "line": "Regional Exprés 18 Valladolid - Zamora - Puebla de Sanabria"
      },
      "geometry": {
        "type": "Point",
        "coordinates": [
          -4.7272,
          41.64334
        ]
      }
    },
    {
      "type": "Feature",
      "properties": {
        "id": "EST-VIANADOCASTELO",
        "name": "Viana do Castelo",
        "line": "Regional Exprés 18 Valladolid - Zamora - Puebla de Sanabria"
      },
      "geometry": {
        "type": "Point",
        "coordinates": [
          -4.75456,
          41.52407
        ]
      }
    },
    {
      "type": "Feature",
      "properties": {
        "id": "EST-VALDESTILLAS",
        "name": "Valdestillas",
        "line": "Regional Exprés 18 Valladolid - Zamora - Puebla de Sanabria"
      },
      "geometry": {
        "type": "Point",
        "coordinates": [
          -4.77295,
          41.48874
        ]
      }
    },
    {
      "type": "Feature",
      "properties": {
        "id": "EST-MATAPOZUELOS",
        "name": "Matapozuelos",
        "line": "Regional Exprés 18 Valladolid - Zamora - Puebla de Sanabria"
      },
      "geometry": {
        "type": "Point",
        "coordinates": [
          -4.80147,
          41.4219
        ]
      }
    },
    {
      "type": "Feature",
      "properties": {
        "id": "EST-POZALDEZ",
        "name": "Pozaldez",
        "line": "Regional Exprés 18 Valladolid - Zamora - Puebla de Sanabria"
      },
      "geometry": {
        "type": "Point",
        "coordinates": [
          -4.83566,
          41.36766
        ]
      }
    },
    {
      "type": "Feature",
      "properties": {
        "id": "EST-MEDINADELCAMPO",
        "name": "Medina del Campo",
        "line": "Regional Exprés 18 Valladolid - Zamora - Puebla de Sanabria"
      },
      "geometry": {
        "type": "Point",
        "coordinates": [
          -4.90968,
          41.31726
        ]
      }
    },
    {
      "type": "Feature",
      "properties": {
        "id": "EST-NAVA",
        "name": "Nava",
        "line": "Regional Exprés 18 Valladolid - Zamora - Puebla de Sanabria"
      },
      "geometry": {
        "type": "Point",
        "coordinates": [
          -5.50899,
          43.36119
        ]
      }
    },
    {
      "type": "Feature",
      "properties": {
        "id": "EST-PLAZADETOROS",
        "name": "Plaza de Toros",
        "line": "Regional Exprés 18 Valladolid - Zamora - Puebla de Sanabria"
      },
      "geometry": {
        "type": "Point",
        "coordinates": [
          -5.38333,
          41.51178
        ]
      }
    },
    {
      "type": "Feature",
      "properties": {
        "id": "EST-ZAMORA",
        "name": "Zamora",
        "line": "Regional Exprés 18 Valladolid - Zamora - Puebla de Sanabria"
      },
      "geometry": {
        "type": "Point",
        "coordinates": [
          -5.73978,
          41.516
        ]
      }
    },
    {
      "type": "Feature",
      "properties": {
        "id": "EST-CARBAJALESDEALBA",
        "name": "Carbajales de Alba",
        "line": "Regional Exprés 18 Valladolid - Zamora - Puebla de Sanabria"
      },
      "geometry": {
        "type": "Point",
        "coordinates": [
          -5.99324,
          41.65288
        ]
      }
    },
    {
      "type": "Feature",
      "properties": {
        "id": "EST-FERRERUELA",
        "name": "Ferreruela",
        "line": "Regional Exprés 18 Valladolid - Zamora - Puebla de Sanabria"
      },
      "geometry": {
        "type": "Point",
        "coordinates": [
          -1.23859,
          41.06384
        ]
      }
    },
    {
      "type": "Feature",
      "properties": {
        "id": "EST-SEJASDEALISTE",
        "name": "Sejas de Aliste",
        "line": "Regional Exprés 18 Valladolid - Zamora - Puebla de Sanabria"
      },
      "geometry": {
        "type": "Point",
        "coordinates": [
          -6.45336,
          41.73022
        ]
      }
    },
    {
      "type": "Feature",
      "properties": {
        "id": "EST-CABANASDEVIRTUS",
        "name": "Cabañas de Virtus",
        "line": "Regional Exprés 18 Valladolid - Zamora - Puebla de Sanabria"
      },
      "geometry": {
        "type": "Point",
        "coordinates": [
          -3.85841,
          42.99637
        ]
      }
    },
    {
      "type": "Feature",
      "properties": {
        "id": "EST-ELPEDROSO",
        "name": "El Pedroso",
        "line": "Regional Exprés 18 Valladolid - Zamora - Puebla de Sanabria"
      },
      "geometry": {
        "type": "Point",
        "coordinates": [
          -5.40664,
          41.07987
        ]
      }
    },
    {
      "type": "Feature",
      "properties": {
        "id": "EST-PUEBLADESANABRIA",
        "name": "Puebla de Sanabria",
        "line": "Regional Exprés 18 Valladolid - Zamora - Puebla de Sanabria"
      },
      "geometry": {
        "type": "Point",
        "coordinates": [
          -6.62699,
          42.04552
        ]
      }
    }
  ]
}