{
  "type": "FeatureCollection",
  "features": [
    {
      "type": "Feature",
      "properties": {
        "id": "359",
        "name": "MD 19 Palencia - Valladolid - Salamanca",
        "line_type": "Media Distancia",
        "operator": "Renfe"
      },
      "geometry": {
        "type": "LineString",
        "coordinates": [
          [
            -4.53386,
            42.01573
          ],
          [
            -4.49627,
            41.9174
          ],
          [
            -4.54073,
            41.87124
          ],
          [
            -4.57957,
            41.80898
          ],
          [
            -4.65127,
            41.73725
          ],
          [
            -4.70422,
            41.66016
          ],
          [
            -4.7272,
            41.64334
          ],
          [
            -4.75456,
            41.52407
          ],
          [
            -4.77295,
            41.48874
          ],
          [
            -4.80147,
            41.4219
          ],
          [
            -4.83566,
            41.36766
          ],
          [
            -4.90968,
            41.31726
          ],
          [
            -4.8635,
            37.03203
          ],
          [
            -0.3119,
            39.58819
          ],
          [
            -3.77656,
            40.6452
          ],
          [
            -5.40664,
            41.07987
          ],
          [
            -5.64706,
            40.9718
          ],
          [
            -5.64706,
            40.9718
          ]
        ]
      }
    },
    {
      "type": "Feature",
      "properties": {
        "id": "EST-PALENCIA",
        "name": "Palencia",
        "line": "MD 19 Palencia - Valladolid - Salamanca"
      },
      "geometry": {
        "type": "Point",
        "coordinates": [
          -4.53386,
          42.01573
        ]
      }
    },
    {
      "type": "Feature",
      "properties": {
        "id": "EST-VENTADEBANOS",
        "name": "Venta de Baños",
        "line": "MD 19 Palencia - Valladolid - Salamanca"
      },
      "geometry": {
        "type": "Point",
        "coordinates": [
          -4.49627,
          41.9174
        ]
      }
    },
    {
      "type": "Feature",
      "properties": {
        "id": "EST-DUENAS",
        "name": "Dueñas",
        "line": "MD 19 Palencia - Valladolid - Salamanca"
      },
      "geometry": {
        "type": "Point",
        "coordinates": [
          -4.54073,
          41.87124
        ]
      }
    },
    {
      "type": "Feature",
      "properties": {
        "id": "EST-CUBILLASDESANTAMARTA",
        "name": "Cubillas de Santa Marta",
        "line": "MD 19 Palencia - Valladolid - Salamanca"
      },
      "geometry": {
        "type": "Point",
        "coordinates": [
          -4.57957,
          41.80898
        ]
      }
    },
    {
      "type": "Feature",
      "properties": {
        "id": "EST-CABEZONDEPISUERGA",
        "name": "Cabezón de Pisuerga",
        "line": "MD 19 Palencia - Valladolid - Salamanca"
      },
      "geometry": {
        "type": "Point",
        "coordinates": [
          -4.65127,
          41.73725
        ]
      }
    },
    {
      "type": "Feature",
      "properties": {
        "id": "EST-VALLADOLIDUNIVERSIDAD",
        "name": "Valladolid-Universidad",
        "line": "MD 19 Palencia - Valladolid - Salamanca"
      },
      "geometry": {
        "type": "Point",
        "coordinates": [
          -4.70422,
          41.66016
        ]
      }
    },
    {
      "type": "Feature",
      "properties": {
        "id": "EST-VALLADOLIDCAMPOGRANDE",
        "name": "Valladolid-Campo Grande",
        "line": "MD 19 Palencia - Valladolid - Salamanca"
      },
      "geometry": {
        "type": "Point",
        "coordinates": [
          -4.7272,
          41.64334
        ]
      }
    },
    {
      "type": "Feature",
      "properties": {
        "id": "EST-VIANADOCASTELO",
        "name": "Viana do Castelo",
        "line": "MD 19 Palencia - Valladolid - Salamanca"
      },
      "geometry": {
        "type": "Point",
        "coordinates": [
          -4.75456,
          41.52407
        ]
      }
    },
    {
      "type": "Feature",
      "properties": {
        "id": "EST-VALDESTILLAS",
        "name": "Valdestillas",
        "line": "MD 19 Palencia - Valladolid - Salamanca"
      },
      "geometry": {
        "type": "Point",
        "coordinates": [
          -4.77295,
          41.48874
        ]
      }
    },
    {
      "type": "Feature",
      "properties": {
        "id": "EST-MATAPOZUELOS",
        "name": "Matapozuelos",
        "line": "MD 19 Palencia - Valladolid - Salamanca"
      },
      "geometry": {
        "type": "Point",
        "coordinates": [
          -4.80147,
          41.4219
        ]
      }
    },
    {
      "type": "Feature",
      "properties": {
        "id": "EST-POZALDEZ",
        "name": "Pozaldez",
        "line": "MD 19 Palencia - Valladolid - Salamanca"
      },
      "geometry": {
        "type": "Point",
        "coordinates": [
          -4.83566,
          41.36766
        ]
      }
    },
    {
      "type": "Feature",
      "properties": {
        "id": "EST-MEDINADELCAMPO",
        "name": "Medina del Campo",
        "line": "MD 19 Palencia - Valladolid - Salamanca"
      },
      "geometry": {
        "type": "Point",
        "coordinates": [
          -4.90968,
          41.31726
        ]
      }
    },
    {
      "type": "Feature",
      "properties": {
        "id": "EST-CAMPILLOS",
        "name": "Campillos",
        "line": "MD 19 Palencia - Valladolid - Salamanca"
      },
      "geometry": {
        "type": "Point",
        "coordinates": [
          -4.8635,
          37.03203
        ]
      }
    },
    {
      "type": "Feature",
      "properties": {
        "id": "EST-ELPUIG",
        "name": "El Puig",
        "line": "MD 19 Palencia - Valladolid - Salamanca"
      },
      "geometry": {
        "type": "Point",
        "coordinates": [
          -0.3119,
          39.58819
        ]
      }
    },
    {
      "type": "Feature",
      "properties": {
        "id": "EST-COLMENARVIEJO",
        "name": "Colmenar Viejo",
        "line": "MD 19 Palencia - Valladolid - Salamanca"
      },
      "geometry": {
        "type": "Point",
        "coordinates": [
          -3.77656,
          40.6452
        ]
      }
    },
    {
      "type": "Feature",
      "properties": {
        "id": "EST-ELPEDROSO",
        "name": "El Pedroso",
        "line": "MD 19 Palencia - Valladolid - Salamanca"
      },
      "geometry": {
        "type": "Point",
        "coordinates": [
          -5.40664,
          41.07987
        ]
      }
    },
    {
      "type": "Feature",
      "properties": {
        "id": "EST-SALAMANCA",
        "name": "Salamanca",
        "line": "MD 19 Palencia - Valladolid - Salamanca"
      },
      "geometry": {
        "type": "Point",
        "coordinates": [
          -5.64706,
          40.9718
        ]
      }
    },
    {
      "type": "Feature",
      "properties": {
        "id": "EST-SALAMANCA",
        "name": "Salamanca",
        "line": "MD 19 Palencia - Valladolid - Salamanca"
      },
      "geometry": {
        "type": "Point",
        "coordinates": [
          -5.64706,
          40.9718
        ]
      }
    }
  ]
}