{
  "type": "FeatureCollection",
  "features": [
    {
      "type": "Feature",
      "properties": {
        "id": "362",
        "name": "MD, Regional Exprés 22 Zaragoza - Logroño",
        "line_type": "Media Distancia",
        "operator": "Renfe"
      },
      "geometry": {
        "type": "LineString",
        "coordinates": [
          [
            -0.86832,
            41.63319
          ],
          [
            -0.89134,
            41.64392
          ],
          [
            -0.8959,
            41.65274
          ],
          [
            -0.91139,
            41.65857
          ],
          [
            -0.99849,
            41.71092
          ],
          [
            -1.02049,
            41.72273
          ],
          [
            -1.11261,
            41.77163
          ],
          [
            -3.85841,
            42.99637
          ],
          [
            -1.32133,
            41.86709
          ],
          [
            -1.42087,
            41.91536
          ],
          [
            -1.51548,
            41.99707
          ],
          [
            -1.59767,
            42.0595
          ],
          [
            -1.69244,
            42.17287
          ],
          [
            -1.74814,
            42.18661
          ],
          [
            -1.84786,
            42.23005
          ],
          [
            -1.95782,
            42.3107
          ],
          [
            -5.50899,
            43.36119
          ],
          [
            -2.44082,
            42.45757
          ]
        ]
      }
    },
    {
      "type": "Feature",
      "properties": {
        "id": "EST-ZARAGOZAMIRAFLORES",
        "name": "Zaragoza-Miraflores",
        "line": "MD, Regional Exprés 22 Zaragoza - Logroño"
      },
      "geometry": {
        "type": "Point",
        "coordinates": [
          -0.86832,
          41.63319
        ]
      }
    },
    {
      "type": "Feature",
      "properties": {
        "id": "EST-ZARAGOZAGOYA",
        "name": "Zaragoza-Goya",
        "line": "MD, Regional Exprés 22 Zaragoza - Logroño"
      },
      "geometry": {
        "type": "Point",
        "coordinates": [
          -0.89134,
          41.64392
        ]
      }
    },
    {
      "type": "Feature",
      "properties": {
        "id": "EST-ZARAGOZAPORTILLO",
        "name": "Zaragoza-Portillo",
        "line": "MD, Regional Exprés 22 Zaragoza - Logroño"
      },
      "geometry": {
        "type": "Point",
        "coordinates": [
          -0.8959,
          41.65274
        ]
      }
    },
    {
      "type": "Feature",
      "properties": {
        "id": "EST-ZARAGOZADELICIAS",
        "name": "Zaragoza-Delicias",
        "line": "MD, Regional Exprés 22 Zaragoza - Logroño"
      },
      "geometry": {
        "type": "Point",
        "coordinates": [
          -0.91139,
          41.65857
        ]
      }
    },
    {
      "type": "Feature",
      "properties": {
        "id": "EST-UTEBO",
        "name": "Utebo",
        "line": "MD, Regional Exprés 22 Zaragoza - Logroño"
      },
      "geometry": {
        "type": "Point",
        "coordinates": [
          -0.99849,
          41.71092
        ]
      }
    },
    {
      "type": "Feature",
      "properties": {
        "id": "EST-CASETAS",
        "name": "Casetas",
        "line": "MD, Regional Exprés 22 Zaragoza - Logroño"
      },
      "geometry": {
        "type": "Point",
        "coordinates": [
          -1.02049,
          41.72273
        ]
      }
    },
    {
      "type": "Feature",
      "properties": {
        "id": "EST-ALAGON",
        "name": "Alagón",
        "line": "MD, Regional Exprés 22 Zaragoza - Logroño"
      },
      "geometry": {
        "type": "Point",
        "coordinates": [
          -1.11261,
          41.77163
        ]
      }
    },
    {
      "type": "Feature",
      "properties": {
        "id": "EST-CABANASDEVIRTUS",
        "name": "Cabañas de Virtus",
        "line": "MD, Regional Exprés 22 Zaragoza - Logroño"
      },
      "geometry": {
        "type": "Point",
        "coordinates": [
          -3.85841,
          42.99637
        ]
      }
    },
    {
      "type": "Feature",
      "properties": {
        "id": "EST-GALLUR",
        "name": "Gallur",
        "line": "MD, Regional Exprés 22 Zaragoza - Logroño"
      },
      "geometry": {
        "type": "Point",
        "coordinates": [
          -1.32133,
          41.86709
        ]
      }
    },
    {
      "type": "Feature",
      "properties": {
        "id": "EST-CORTESDENAVARRA",
        "name": "Cortes de Navarra",
        "line": "MD, Regional Exprés 22 Zaragoza - Logroño"
      },
      "geometry": {
        "type": "Point",
        "coordinates": [
          -1.42087,
          41.91536
        ]
      }
    },
    {
      "type": "Feature",
      "properties": {
        "id": "EST-RIBAFORADA",
        "name": "Ribaforada",
        "line": "MD, Regional Exprés 22 Zaragoza - Logroño"
      },
      "geometry": {
        "type": "Point",
        "coordinates": [
          -1.51548,
          41.99707
        ]
      }
    },
    {
      "type": "Feature",
      "properties": {
        "id": "EST-TUDELADENAVARRA",
        "name": "Tudela de Navarra",
        "line": "MD, Regional Exprés 22 Zaragoza - Logroño"
      },
      "geometry": {
        "type": "Point",
        "coordinates": [
          -1.59767,
          42.0595
        ]
      }
    },
    {
      "type": "Feature",
      "properties": {
        "id": "EST-CASTEJONDEEBRO",
        "name": "Castejón de Ebro",
        "line": "MD, Regional Exprés 22 Zaragoza - Logroño"
      },
      "geometry": {
        "type": "Point",
        "coordinates": [
          -1.69244,
          42.17287
        ]
      }
    },
    {
      "type": "Feature",
      "properties": {
        "id": "EST-ALFARO",
        "name": "Alfaro",
        "line": "MD, Regional Exprés 22 Zaragoza - Logroño"
      },
      "geometry": {
        "type": "Point",
        "coordinates": [
          -1.74814,
          42.18661
        ]
      }
    },
    {
      "type": "Feature",
      "properties": {
        "id": "EST-RINCONDESOTO",
        "name": "Rincón de Soto",
        "line": "MD, Regional Exprés 22 Zaragoza - Logroño"
      },
      "geometry": {
        "type": "Point",
        "coordinates": [
          -1.84786,
          42.23005
        ]
      }
    },
    {
      "type": "Feature",
      "properties": {
        "id": "EST-CALAHORRA",
        "name": "Calahorra",
        "line": "MD, Regional Exprés 22 Zaragoza - Logroño"
      },
      "geometry": {
        "type": "Point",
        "coordinates": [
          -1.95782,
          42.3107
        ]
      }
    },
    {
      "type": "Feature",
      "properties": {
        "id": "EST-NAVA",
        "name": "Nava",
        "line": "MD, Regional Exprés 22 Zaragoza - Logroño"
      },
      "geometry": {
        "type": "Point",
        "coordinates": [
          -5.50899,
          43.36119
        ]
      }
    },
    {
      "type": "Feature",
      "properties": {
        "id": "EST-LOGRONO",
        "name": "Logroño",
        "line": "MD, Regional Exprés 22 Zaragoza - Logroño"
      },
      "geometry": {
        "type": "Point",
        "coordinates": [
          -2.44082,
          42.45757
        ]
      }
    }
  ]
}