{
  "type": "FeatureCollection",
  "features": [
    {
      "type": "Feature",
      "properties": {
        "id": "368",
        "name": "MD Regional 33/R11 Barcelona - Gerona - Figueras - Portbou",
        "line_type": "Media Distancia",
        "operator": "Renfe"
      },
      "geometry": {
        "type": "LineString",
        "coordinates": [
          [
            2.13996,
            41.37901
          ],
          [
            2.15215,
            41.39976
          ],
          [
            -0.35754,
            39.47241
          ],
          [
            -6.19402,
            36.47588
          ],
          [
            2.27658,
            41.61124
          ],
          [
            2.49097,
            41.68565
          ],
          [
            2.53893,
            41.71796
          ],
          [
            2.56869,
            41.72649
          ],
          [
            2.63167,
            41.7479
          ],
          [
            2.74502,
            41.80748
          ],
          [
            -4.07311,
            43.29859
          ],
          [
            2.81174,
            41.89616
          ],
          [
            2.20911,
            41.40801
          ],
          [
            2.17096,
            41.39502
          ],
          [
            2.87485,
            42.02732
          ],
          [
            2.9153,
            42.03698
          ],
          [
            2.96476,
            42.06828
          ],
          [
            2.96561,
            42.12222
          ],
          [
            2.98933,
            42.17229
          ],
          [
            2.97803,
            42.21637
          ],
          [
            2.96897,
            42.265
          ],
          [
            3.0863,
            42.32515
          ],
          [
            3.15418,
            42.407
          ],
          [
            3.15801,
            42.4248
          ]
        ]
      }
    },
    {
      "type": "Feature",
      "properties": {
        "id": "EST-BARCELONASANTS",
        "name": "Barcelona-Sants",
        "line": "MD Regional 33/R11 Barcelona - Gerona - Figueras - Portbou"
      },
      "geometry": {
        "type": "Point",
        "coordinates": [
          2.13996,
          41.37901
        ]
      }
    },
    {
      "type": "Feature",
      "properties": {
        "id": "EST-GRACIA-Barcelona-Barcelona",
        "name": "Gràcia",
        "line": "MD Regional 33/R11 Barcelona - Gerona - Figueras - Portbou"
      },
      "geometry": {
        "type": "Point",
        "coordinates": [
          2.15215,
          41.39976
        ]
      }
    },
    {
      "type": "Feature",
      "properties": {
        "id": "EST-ARAGON",
        "name": "Aragón",
        "line": "MD Regional 33/R11 Barcelona - Gerona - Figueras - Portbou"
      },
      "geometry": {
        "type": "Point",
        "coordinates": [
          -0.35754,
          39.47241
        ]
      }
    },
    {
      "type": "Feature",
      "properties": {
        "id": "EST-SANFERNANDOCENTRO",
        "name": "San Fernando-Centro",
        "line": "MD Regional 33/R11 Barcelona - Gerona - Figueras - Portbou"
      },
      "geometry": {
        "type": "Point",
        "coordinates": [
          -6.19402,
          36.47588
        ]
      }
    },
    {
      "type": "Feature",
      "properties": {
        "id": "EST-GRANOLLERSCANOVELLES",
        "name": "Granollers-Canovelles",
        "line": "MD Regional 33/R11 Barcelona - Gerona - Figueras - Portbou"
      },
      "geometry": {
        "type": "Point",
        "coordinates": [
          2.27658,
          41.61124
        ]
      }
    },
    {
      "type": "Feature",
      "properties": {
        "id": "EST-SANTCELONI",
        "name": "Sant Celoni",
        "line": "MD Regional 33/R11 Barcelona - Gerona - Figueras - Portbou"
      },
      "geometry": {
        "type": "Point",
        "coordinates": [
          2.49097,
          41.68565
        ]
      }
    },
    {
      "type": "Feature",
      "properties": {
        "id": "EST-GUALBA",
        "name": "Gualba",
        "line": "MD Regional 33/R11 Barcelona - Gerona - Figueras - Portbou"
      },
      "geometry": {
        "type": "Point",
        "coordinates": [
          2.53893,
          41.71796
        ]
      }
    },
    {
      "type": "Feature",
      "properties": {
        "id": "EST-RIELLSIVIABREABREDA",
        "name": "Riells i Viabrea-Breda",
        "line": "MD Regional 33/R11 Barcelona - Gerona - Figueras - Portbou"
      },
      "geometry": {
        "type": "Point",
        "coordinates": [
          2.56869,
          41.72649
        ]
      }
    },
    {
      "type": "Feature",
      "properties": {
        "id": "EST-HOSTALRIC",
        "name": "Hostalric",
        "line": "MD Regional 33/R11 Barcelona - Gerona - Figueras - Portbou"
      },
      "geometry": {
        "type": "Point",
        "coordinates": [
          2.63167,
          41.7479
        ]
      }
    },
    {
      "type": "Feature",
      "properties": {
        "id": "EST-SILS",
        "name": "Sils",
        "line": "MD Regional 33/R11 Barcelona - Gerona - Figueras - Portbou"
      },
      "geometry": {
        "type": "Point",
        "coordinates": [
          2.74502,
          41.80748
        ]
      }
    },
    {
      "type": "Feature",
      "properties": {
        "id": "EST-LASCALDASDEBESAYA",
        "name": "Las Caldas de Besaya",
        "line": "MD Regional 33/R11 Barcelona - Gerona - Figueras - Portbou"
      },
      "geometry": {
        "type": "Point",
        "coordinates": [
          -4.07311,
          43.29859
        ]
      }
    },
    {
      "type": "Feature",
      "properties": {
        "id": "EST-RIUDELLOTS",
        "name": "Riudellots",
        "line": "MD Regional 33/R11 Barcelona - Gerona - Figueras - Portbou"
      },
      "geometry": {
        "type": "Point",
        "coordinates": [
          2.81174,
          41.89616
        ]
      }
    },
    {
      "type": "Feature",
      "properties": {
        "id": "EST-SELVADEMAR",
        "name": "Selva de Mar",
        "line": "MD Regional 33/R11 Barcelona - Gerona - Figueras - Portbou"
      },
      "geometry": {
        "type": "Point",
        "coordinates": [
          2.20911,
          41.40801
        ]
      }
    },
    {
      "type": "Feature",
      "properties": {
        "id": "EST-GIRONA",
        "name": "Girona",
        "line": "MD Regional 33/R11 Barcelona - Gerona - Figueras - Portbou"
      },
      "geometry": {
        "type": "Point",
        "coordinates": [
          2.17096,
          41.39502
        ]
      }
    },
    {
      "type": "Feature",
      "properties": {
        "id": "EST-CELRA",
        "name": "Celrà",
        "line": "MD Regional 33/R11 Barcelona - Gerona - Figueras - Portbou"
      },
      "geometry": {
        "type": "Point",
        "coordinates": [
          2.87485,
          42.02732
        ]
      }
    },
    {
      "type": "Feature",
      "properties": {
        "id": "EST-BORDILSJUIA",
        "name": "Bordils-Juià",
        "line": "MD Regional 33/R11 Barcelona - Gerona - Figueras - Portbou"
      },
      "geometry": {
        "type": "Point",
        "coordinates": [
          2.9153,
          42.03698
        ]
      }
    },
    {
      "type": "Feature",
      "properties": {
        "id": "EST-SANTJORDIDESVALLS",
        "name": "Sant Jordi Desvalls",
        "line": "MD Regional 33/R11 Barcelona - Gerona - Figueras - Portbou"
      },
      "geometry": {
        "type": "Point",
        "coordinates": [
          2.96476,
          42.06828
        ]
      }
    },
    {
      "type": "Feature",
      "properties": {
        "id": "EST-CAMALLERA",
        "name": "Camallera",
        "line": "MD Regional 33/R11 Barcelona - Gerona - Figueras - Portbou"
      },
      "geometry": {
        "type": "Point",
        "coordinates": [
          2.96561,
          42.12222
        ]
      }
    },
    {
      "type": "Feature",
      "properties": {
        "id": "EST-FLUVIA",
        "name": "Fluvià",
        "line": "MD Regional 33/R11 Barcelona - Gerona - Figueras - Portbou"
      },
      "geometry": {
        "type": "Point",
        "coordinates": [
          2.98933,
          42.17229
        ]
      }
    },
    {
      "type": "Feature",
      "properties": {
        "id": "EST-VILAMALLA",
        "name": "Vilamalla",
        "line": "MD Regional 33/R11 Barcelona - Gerona - Figueras - Portbou"
      },
      "geometry": {
        "type": "Point",
        "coordinates": [
          2.97803,
          42.21637
        ]
      }
    },
    {
      "type": "Feature",
      "properties": {
        "id": "EST-FIGUERES",
        "name": "Figueres",
        "line": "MD Regional 33/R11 Barcelona - Gerona - Figueras - Portbou"
      },
      "geometry": {
        "type": "Point",
        "coordinates": [
          2.96897,
          42.265
        ]
      }
    },
    {
      "type": "Feature",
      "properties": {
        "id": "EST-VILAJUIGA",
        "name": "Vilajuïga",
        "line": "MD Regional 33/R11 Barcelona - Gerona - Figueras - Portbou"
      },
      "geometry": {
        "type": "Point",
        "coordinates": [
          3.0863,
          42.32515
        ]
      }
    },
    {
      "type": "Feature",
      "properties": {
        "id": "EST-COLERA",
        "name": "Colera",
        "line": "MD Regional 33/R11 Barcelona - Gerona - Figueras - Portbou"
      },
      "geometry": {
        "type": "Point",
        "coordinates": [
          3.15418,
          42.407
        ]
      }
    },
    {
      "type": "Feature",
      "properties": {
        "id": "EST-PORTBOU",
        "name": "Portbou",
        "line": "MD Regional 33/R11 Barcelona - Gerona - Figueras - Portbou"
      },
      "geometry": {
        "type": "Point",
        "coordinates": [
          3.15801,
          42.4248
        ]
      }
    }
  ]
}