{
  "type": "FeatureCollection",
  "features": [
    {
      "type": "Feature",
      "properties": {
        "id": "375",
        "name": "MD 45 Alicante - Albacete - Alcázar - Ciudad Real",
        "line_type": "Media Distancia",
        "operator": "Renfe"
      },
      "geometry": {
        "type": "LineString",
        "coordinates": [
          [
            -0.49606,
            38.34498
          ],
          [
            -0.8011,
            38.4849
          ],
          [
            -0.86795,
            38.63227
          ],
          [
            -0.95956,
            38.71627
          ],
          [
            -1.10557,
            38.86765
          ],
          [
            -3.98261,
            42.98795
          ],
          [
            -2.16292,
            39.19932
          ],
          [
            -2.59851,
            39.26072
          ],
          [
            -2.77539,
            39.27854
          ],
          [
            -4.7272,
            41.64334
          ],
          [
            -3.20537,
            39.39566
          ],
          [
            -3.3706,
            39.0059
          ],
          [
            -3.60408,
            39.06141
          ],
          [
            -3.70965,
            38.89551
          ],
          [
            -3.91314,
            38.98487
          ]
        ]
      }
    },
    {
      "type": "Feature",
      "properties": {
        "id": "EST-ALICANTERMINAL",
        "name": "Alicante-Terminal",
        "line": "MD 45 Alicante - Albacete - Alcázar - Ciudad Real"
      },
      "geometry": {
        "type": "Point",
        "coordinates": [
          -0.49606,
          38.34498
        ]
      }
    },
    {
      "type": "Feature",
      "properties": {
        "id": "EST-ELDAPETRER",
        "name": "Elda-Petrer",
        "line": "MD 45 Alicante - Albacete - Alcázar - Ciudad Real"
      },
      "geometry": {
        "type": "Point",
        "coordinates": [
          -0.8011,
          38.4849
        ]
      }
    },
    {
      "type": "Feature",
      "properties": {
        "id": "EST-VILLENA",
        "name": "Villena",
        "line": "MD 45 Alicante - Albacete - Alcázar - Ciudad Real"
      },
      "geometry": {
        "type": "Point",
        "coordinates": [
          -0.86795,
          38.63227
        ]
      }
    },
    {
      "type": "Feature",
      "properties": {
        "id": "EST-CAUDETE",
        "name": "Caudete",
        "line": "MD 45 Alicante - Albacete - Alcázar - Ciudad Real"
      },
      "geometry": {
        "type": "Point",
        "coordinates": [
          -0.95956,
          38.71627
        ]
      }
    },
    {
      "type": "Feature",
      "properties": {
        "id": "EST-ALMANSA",
        "name": "Almansa",
        "line": "MD 45 Alicante - Albacete - Alcázar - Ciudad Real"
      },
      "geometry": {
        "type": "Point",
        "coordinates": [
          -1.10557,
          38.86765
        ]
      }
    },
    {
      "type": "Feature",
      "properties": {
        "id": "EST-ALBACETELOSLLANOS",
        "name": "Albacete-Los Llanos",
        "line": "MD 45 Alicante - Albacete - Alcázar - Ciudad Real"
      },
      "geometry": {
        "type": "Point",
        "coordinates": [
          -3.98261,
          42.98795
        ]
      }
    },
    {
      "type": "Feature",
      "properties": {
        "id": "EST-LARODA",
        "name": "La Roda",
        "line": "MD 45 Alicante - Albacete - Alcázar - Ciudad Real"
      },
      "geometry": {
        "type": "Point",
        "coordinates": [
          -2.16292,
          39.19932
        ]
      }
    },
    {
      "type": "Feature",
      "properties": {
        "id": "EST-VILLARROBLEDO",
        "name": "Villarrobledo",
        "line": "MD 45 Alicante - Albacete - Alcázar - Ciudad Real"
      },
      "geometry": {
        "type": "Point",
        "coordinates": [
          -2.59851,
          39.26072
        ]
      }
    },
    {
      "type": "Feature",
      "properties": {
        "id": "EST-SOCUELLAMOS",
        "name": "Socuéllamos",
        "line": "MD 45 Alicante - Albacete - Alcázar - Ciudad Real"
      },
      "geometry": {
        "type": "Point",
        "coordinates": [
          -2.77539,
          39.27854
        ]
      }
    },
    {
      "type": "Feature",
      "properties": {
        "id": "EST-VALLADOLIDCAMPOGRANDE",
        "name": "Valladolid-Campo Grande",
        "line": "MD 45 Alicante - Albacete - Alcázar - Ciudad Real"
      },
      "geometry": {
        "type": "Point",
        "coordinates": [
          -4.7272,
          41.64334
        ]
      }
    },
    {
      "type": "Feature",
      "properties": {
        "id": "EST-ALCAZARDESANJUAN",
        "name": "Alcázar de San Juan",
        "line": "MD 45 Alicante - Albacete - Alcázar - Ciudad Real"
      },
      "geometry": {
        "type": "Point",
        "coordinates": [
          -3.20537,
          39.39566
        ]
      }
    },
    {
      "type": "Feature",
      "properties": {
        "id": "EST-MANZANARES",
        "name": "Manzanares",
        "line": "MD 45 Alicante - Albacete - Alcázar - Ciudad Real"
      },
      "geometry": {
        "type": "Point",
        "coordinates": [
          -3.3706,
          39.0059
        ]
      }
    },
    {
      "type": "Feature",
      "properties": {
        "id": "EST-DAIMIEL",
        "name": "Daimiel",
        "line": "MD 45 Alicante - Albacete - Alcázar - Ciudad Real"
      },
      "geometry": {
        "type": "Point",
        "coordinates": [
          -3.60408,
          39.06141
        ]
      }
    },
    {
      "type": "Feature",
      "properties": {
        "id": "EST-ALMAGRO",
        "name": "Almagro",
        "line": "MD 45 Alicante - Albacete - Alcázar - Ciudad Real"
      },
      "geometry": {
        "type": "Point",
        "coordinates": [
          -3.70965,
          38.89551
        ]
      }
    },
    {
      "type": "Feature",
      "properties": {
        "id": "EST-CIUDADREAL",
        "name": "Ciudad Real",
        "line": "MD 45 Alicante - Albacete - Alcázar - Ciudad Real"
      },
      "geometry": {
        "type": "Point",
        "coordinates": [
          -3.91314,
          38.98487
        ]
      }
    }
  ]
}