{
  "type": "FeatureCollection",
  "features": [
    {
      "type": "Feature",
      "properties": {
        "id": "39",
        "name": "Avant Sevilla - Granada",
        "line_type": "Media Distancia AV",
        "operator": "Renfe"
      },
      "geometry": {
        "type": "LineString",
        "coordinates": [
          [
            -3.69995,
            40.41777
          ],
          [
            -4.57142,
            38.25524
          ],
          [
            -4.82223,
            37.35892
          ],
          [
            -4.71971,
            37.07017
          ],
          [
            -4.13567,
            37.17511
          ],
          [
            -3.60863,
            37.18369
          ]
        ]
      }
    },
    {
      "type": "Feature",
      "properties": {
        "id": "EST-SEVILLASANTAJUSTA",
        "name": "Sevilla-Santa Justa",
        "line": "Avant Sevilla - Granada"
      },
      "geometry": {
        "type": "Point",
        "coordinates": [
          -3.69995,
          40.41777
        ]
      }
    },
    {
      "type": "Feature",
      "properties": {
        "id": "EST-CORDOBA",
        "name": "Córdoba",
        "line": "Avant Sevilla - Granada"
      },
      "geometry": {
        "type": "Point",
        "coordinates": [
          -4.57142,
          38.25524
        ]
      }
    },
    {
      "type": "Feature",
      "properties": {
        "id": "EST-PUENTEGENILHERRERA",
        "name": "Puente Genil-Herrera",
        "line": "Avant Sevilla - Granada"
      },
      "geometry": {
        "type": "Point",
        "coordinates": [
          -4.82223,
          37.35892
        ]
      }
    },
    {
      "type": "Feature",
      "properties": {
        "id": "EST-ANTEQUERASANTAANA",
        "name": "Antequera-Santa Ana",
        "line": "Avant Sevilla - Granada"
      },
      "geometry": {
        "type": "Point",
        "coordinates": [
          -4.71971,
          37.07017
        ]
      }
    },
    {
      "type": "Feature",
      "properties": {
        "id": "EST-LOJA",
        "name": "Loja",
        "line": "Avant Sevilla - Granada"
      },
      "geometry": {
        "type": "Point",
        "coordinates": [
          -4.13567,
          37.17511
        ]
      }
    },
    {
      "type": "Feature",
      "properties": {
        "id": "EST-GRANADA",
        "name": "Granada",
        "line": "Avant Sevilla - Granada"
      },
      "geometry": {
        "type": "Point",
        "coordinates": [
          -3.60863,
          37.18369
        ]
      }
    }
  ]
}