{
  "type": "FeatureCollection",
  "features": [
    {
      "type": "Feature",
      "properties": {
        "id": "393",
        "name": "Ronda - Málaga",
        "line_type": "Media Distancia",
        "operator": "Renfe"
      },
      "geometry": {
        "type": "LineString",
        "coordinates": [
          [
            -5.16196,
            36.74859
          ],
          [
            -5.01989,
            37.00094
          ],
          [
            -4.8635,
            37.03203
          ],
          [
            -4.72798,
            37.03764
          ],
          [
            -4.75913,
            36.90707
          ],
          [
            -4.7192,
            36.87322
          ],
          [
            -4.6994,
            36.81971
          ],
          [
            -4.712,
            36.76431
          ],
          [
            -4.60857,
            36.73386
          ],
          [
            -4.01003,
            43.3983
          ]
        ]
      }
    },
    {
      "type": "Feature",
      "properties": {
        "id": "EST-RONDA",
        "name": "Ronda",
        "line": "Ronda - Málaga"
      },
      "geometry": {
        "type": "Point",
        "coordinates": [
          -5.16196,
          36.74859
        ]
      }
    },
    {
      "type": "Feature",
      "properties": {
        "id": "EST-ALMARGENCANETELAREAL",
        "name": "Almargen-Cañete la Real",
        "line": "Ronda - Málaga"
      },
      "geometry": {
        "type": "Point",
        "coordinates": [
          -5.01989,
          37.00094
        ]
      }
    },
    {
      "type": "Feature",
      "properties": {
        "id": "EST-CAMPILLOS",
        "name": "Campillos",
        "line": "Ronda - Málaga"
      },
      "geometry": {
        "type": "Point",
        "coordinates": [
          -4.8635,
          37.03203
        ]
      }
    },
    {
      "type": "Feature",
      "properties": {
        "id": "EST-BOBADILLA",
        "name": "Bobadilla",
        "line": "Ronda - Málaga"
      },
      "geometry": {
        "type": "Point",
        "coordinates": [
          -4.72798,
          37.03764
        ]
      }
    },
    {
      "type": "Feature",
      "properties": {
        "id": "EST-ELCHORROCAMINITODELREY",
        "name": "El Chorro-Caminito del Rey",
        "line": "Ronda - Málaga"
      },
      "geometry": {
        "type": "Point",
        "coordinates": [
          -4.75913,
          36.90707
        ]
      }
    },
    {
      "type": "Feature",
      "properties": {
        "id": "EST-LASMELLIZAS",
        "name": "Las Mellizas",
        "line": "Ronda - Málaga"
      },
      "geometry": {
        "type": "Point",
        "coordinates": [
          -4.7192,
          36.87322
        ]
      }
    },
    {
      "type": "Feature",
      "properties": {
        "id": "EST-ALORA",
        "name": "Álora",
        "line": "Ronda - Málaga"
      },
      "geometry": {
        "type": "Point",
        "coordinates": [
          -4.6994,
          36.81971
        ]
      }
    },
    {
      "type": "Feature",
      "properties": {
        "id": "EST-PIZARRA",
        "name": "Pizarra",
        "line": "Ronda - Málaga"
      },
      "geometry": {
        "type": "Point",
        "coordinates": [
          -4.712,
          36.76431
        ]
      }
    },
    {
      "type": "Feature",
      "properties": {
        "id": "EST-CARTAMA",
        "name": "Cártama",
        "line": "Ronda - Málaga"
      },
      "geometry": {
        "type": "Point",
        "coordinates": [
          -4.60857,
          36.73386
        ]
      }
    },
    {
      "type": "Feature",
      "properties": {
        "id": "EST-MALAGAMARIAZAMBRANO",
        "name": "Málaga-María Zambrano",
        "line": "Ronda - Málaga"
      },
      "geometry": {
        "type": "Point",
        "coordinates": [
          -4.01003,
          43.3983
        ]
      }
    }
  ]
}