{
  "type": "FeatureCollection",
  "features": [
    {
      "type": "Feature",
      "properties": {
        "id": "66",
        "name": "MD 13 Madrid - León",
        "line_type": "Media Distancia",
        "operator": "Renfe"
      },
      "geometry": {
        "type": "LineString",
        "coordinates": [
          [
            -3.68226,
            40.47206
          ],
          [
            -4.68332,
            40.65721
          ],
          [
            -5.20648,
            40.89793
          ],
          [
            -4.90968,
            41.31726
          ],
          [
            -4.7272,
            41.64334
          ],
          [
            -4.53386,
            42.01573
          ],
          [
            -5.0226,
            42.3694
          ],
          [
            -6.52214,
            42.4055
          ]
        ]
      }
    },
    {
      "type": "Feature",
      "properties": {
        "id": "EST-MADRIDCHAMARTINCLARACAMPOAMOR",
        "name": "Madrid-Chamartín-Clara Campoamor",
        "line": "MD 13 Madrid - León"
      },
      "geometry": {
        "type": "Point",
        "coordinates": [
          -3.68226,
          40.47206
        ]
      }
    },
    {
      "type": "Feature",
      "properties": {
        "id": "EST-AVILA",
        "name": "Ávila",
        "line": "MD 13 Madrid - León"
      },
      "geometry": {
        "type": "Point",
        "coordinates": [
          -4.68332,
          40.65721
        ]
      }
    },
    {
      "type": "Feature",
      "properties": {
        "id": "EST-PENARANDADEBRACAMONTE",
        "name": "Peñaranda de Bracamonte",
        "line": "MD 13 Madrid - León"
      },
      "geometry": {
        "type": "Point",
        "coordinates": [
          -5.20648,
          40.89793
        ]
      }
    },
    {
      "type": "Feature",
      "properties": {
        "id": "EST-MEDINADELCAMPO",
        "name": "Medina del Campo",
        "line": "MD 13 Madrid - León"
      },
      "geometry": {
        "type": "Point",
        "coordinates": [
          -4.90968,
          41.31726
        ]
      }
    },
    {
      "type": "Feature",
      "properties": {
        "id": "EST-VALLADOLIDCAMPOGRANDE",
        "name": "Valladolid-Campo Grande",
        "line": "MD 13 Madrid - León"
      },
      "geometry": {
        "type": "Point",
        "coordinates": [
          -4.7272,
          41.64334
        ]
      }
    },
    {
      "type": "Feature",
      "properties": {
        "id": "EST-PALENCIA",
        "name": "Palencia",
        "line": "MD 13 Madrid - León"
      },
      "geometry": {
        "type": "Point",
        "coordinates": [
          -4.53386,
          42.01573
        ]
      }
    },
    {
      "type": "Feature",
      "properties": {
        "id": "EST-SAHAGUN",
        "name": "Sahagún",
        "line": "MD 13 Madrid - León"
      },
      "geometry": {
        "type": "Point",
        "coordinates": [
          -5.0226,
          42.3694
        ]
      }
    },
    {
      "type": "Feature",
      "properties": {
        "id": "EST-LEON",
        "name": "León",
        "line": "MD 13 Madrid - León"
      },
      "geometry": {
        "type": "Point",
        "coordinates": [
          -6.52214,
          42.4055
        ]
      }
    }
  ]
}