{
  "type": "FeatureCollection",
  "features": [
    {
      "type": "Feature",
      "properties": {
        "id": "69",
        "name": "MD 17 Valladolid - León",
        "line_type": "Media Distancia",
        "operator": "Renfe"
      },
      "geometry": {
        "type": "LineString",
        "coordinates": [
          [
            -4.7272,
            41.64334
          ],
          [
            -4.75456,
            41.52407
          ],
          [
            -4.77295,
            41.48874
          ],
          [
            -4.80147,
            41.4219
          ],
          [
            -4.83566,
            41.36766
          ],
          [
            -4.90968,
            41.31726
          ],
          [
            -4.7272,
            41.64334
          ],
          [
            -4.49627,
            41.9174
          ],
          [
            -4.53386,
            42.01573
          ],
          [
            -5.0226,
            42.3694
          ],
          [
            -6.52214,
            42.4055
          ]
        ]
      }
    },
    {
      "type": "Feature",
      "properties": {
        "id": "EST-VALLADOLIDCAMPOGRANDE",
        "name": "Valladolid-Campo Grande",
        "line": "MD 17 Valladolid - León"
      },
      "geometry": {
        "type": "Point",
        "coordinates": [
          -4.7272,
          41.64334
        ]
      }
    },
    {
      "type": "Feature",
      "properties": {
        "id": "EST-VIANADECEGA",
        "name": "Viana de Cega",
        "line": "MD 17 Valladolid - León"
      },
      "geometry": {
        "type": "Point",
        "coordinates": [
          -4.75456,
          41.52407
        ]
      }
    },
    {
      "type": "Feature",
      "properties": {
        "id": "EST-VALDESTILLAS",
        "name": "Valdestillas",
        "line": "MD 17 Valladolid - León"
      },
      "geometry": {
        "type": "Point",
        "coordinates": [
          -4.77295,
          41.48874
        ]
      }
    },
    {
      "type": "Feature",
      "properties": {
        "id": "EST-MATAPOZUELOS",
        "name": "Matapozuelos",
        "line": "MD 17 Valladolid - León"
      },
      "geometry": {
        "type": "Point",
        "coordinates": [
          -4.80147,
          41.4219
        ]
      }
    },
    {
      "type": "Feature",
      "properties": {
        "id": "EST-POZALDEZ",
        "name": "Pozaldez",
        "line": "MD 17 Valladolid - León"
      },
      "geometry": {
        "type": "Point",
        "coordinates": [
          -4.83566,
          41.36766
        ]
      }
    },
    {
      "type": "Feature",
      "properties": {
        "id": "EST-MEDINADELCAMPO",
        "name": "Medina del Campo",
        "line": "MD 17 Valladolid - León"
      },
      "geometry": {
        "type": "Point",
        "coordinates": [
          -4.90968,
          41.31726
        ]
      }
    },
    {
      "type": "Feature",
      "properties": {
        "id": "EST-VALLADOLIDCAMPOGRANDE",
        "name": "Valladolid-Campo Grande",
        "line": "MD 17 Valladolid - León"
      },
      "geometry": {
        "type": "Point",
        "coordinates": [
          -4.7272,
          41.64334
        ]
      }
    },
    {
      "type": "Feature",
      "properties": {
        "id": "EST-VENTADEBANOS",
        "name": "Venta de Baños",
        "line": "MD 17 Valladolid - León"
      },
      "geometry": {
        "type": "Point",
        "coordinates": [
          -4.49627,
          41.9174
        ]
      }
    },
    {
      "type": "Feature",
      "properties": {
        "id": "EST-PALENCIA",
        "name": "Palencia",
        "line": "MD 17 Valladolid - León"
      },
      "geometry": {
        "type": "Point",
        "coordinates": [
          -4.53386,
          42.01573
        ]
      }
    },
    {
      "type": "Feature",
      "properties": {
        "id": "EST-SAHAGUN",
        "name": "Sahagún",
        "line": "MD 17 Valladolid - León"
      },
      "geometry": {
        "type": "Point",
        "coordinates": [
          -5.0226,
          42.3694
        ]
      }
    },
    {
      "type": "Feature",
      "properties": {
        "id": "EST-LEON",
        "name": "León",
        "line": "MD 17 Valladolid - León"
      },
      "geometry": {
        "type": "Point",
        "coordinates": [
          -6.52214,
          42.4055
        ]
      }
    }
  ]
}