{
  "type": "FeatureCollection",
  "features": [
    {
      "type": "Feature",
      "properties": {
        "id": "70",
        "name": "MD 18 Valladolid - Puebla de Sanabria",
        "line_type": "Media Distancia",
        "operator": "Renfe"
      },
      "geometry": {
        "type": "LineString",
        "coordinates": [
          [
            -4.7272,
            41.64334
          ],
          [
            -4.90968,
            41.31726
          ],
          [
            -5.73978,
            41.516
          ],
          [
            -5.99324,
            41.65288
          ],
          [
            -1.23859,
            41.06384
          ],
          [
            -6.34716,
            41.6997
          ],
          [
            -6.45336,
            41.73022
          ],
          [
            -6.62699,
            42.04552
          ]
        ]
      }
    },
    {
      "type": "Feature",
      "properties": {
        "id": "EST-VALLADOLIDCAMPOGRANDE",
        "name": "Valladolid-Campo Grande",
        "line": "MD 18 Valladolid - Puebla de Sanabria"
      },
      "geometry": {
        "type": "Point",
        "coordinates": [
          -4.7272,
          41.64334
        ]
      }
    },
    {
      "type": "Feature",
      "properties": {
        "id": "EST-MEDINADELCAMPO",
        "name": "Medina del Campo",
        "line": "MD 18 Valladolid - Puebla de Sanabria"
      },
      "geometry": {
        "type": "Point",
        "coordinates": [
          -4.90968,
          41.31726
        ]
      }
    },
    {
      "type": "Feature",
      "properties": {
        "id": "EST-ZAMORA",
        "name": "Zamora",
        "line": "MD 18 Valladolid - Puebla de Sanabria"
      },
      "geometry": {
        "type": "Point",
        "coordinates": [
          -5.73978,
          41.516
        ]
      }
    },
    {
      "type": "Feature",
      "properties": {
        "id": "EST-CARBAJALESDEALBA",
        "name": "Carbajales de Alba",
        "line": "MD 18 Valladolid - Puebla de Sanabria"
      },
      "geometry": {
        "type": "Point",
        "coordinates": [
          -5.99324,
          41.65288
        ]
      }
    },
    {
      "type": "Feature",
      "properties": {
        "id": "EST-FERRERUELA",
        "name": "Ferreruela",
        "line": "MD 18 Valladolid - Puebla de Sanabria"
      },
      "geometry": {
        "type": "Point",
        "coordinates": [
          -1.23859,
          41.06384
        ]
      }
    },
    {
      "type": "Feature",
      "properties": {
        "id": "EST-ALCANICES",
        "name": "Alcañices",
        "line": "MD 18 Valladolid - Puebla de Sanabria"
      },
      "geometry": {
        "type": "Point",
        "coordinates": [
          -6.34716,
          41.6997
        ]
      }
    },
    {
      "type": "Feature",
      "properties": {
        "id": "EST-SEJASDEALISTE",
        "name": "Sejas de Aliste",
        "line": "MD 18 Valladolid - Puebla de Sanabria"
      },
      "geometry": {
        "type": "Point",
        "coordinates": [
          -6.45336,
          41.73022
        ]
      }
    },
    {
      "type": "Feature",
      "properties": {
        "id": "EST-PUEBLADESANABRIA",
        "name": "Puebla de Sanabria",
        "line": "MD 18 Valladolid - Puebla de Sanabria"
      },
      "geometry": {
        "type": "Point",
        "coordinates": [
          -6.62699,
          42.04552
        ]
      }
    }
  ]
}