{
  "type": "FeatureCollection",
  "features": [
    {
      "type": "Feature",
      "properties": {
        "id": "74",
        "name": "Regional Exprés Gijón - Valladolid",
        "line_type": "Regional Exprés",
        "operator": "Renfe"
      },
      "geometry": {
        "type": "LineString",
        "coordinates": [
          [
            -5.67563,
            43.53773
          ],
          [
            -5.85487,
            43.36636
          ],
          [
            -5.78239,
            43.25004
          ],
          [
            -5.83113,
            43.15865
          ],
          [
            -6.52214,
            42.4055
          ],
          [
            -5.0226,
            42.3694
          ],
          [
            -4.53386,
            42.01573
          ],
          [
            -4.49627,
            41.9174
          ],
          [
            -4.7272,
            41.64334
          ]
        ]
      }
    },
    {
      "type": "Feature",
      "properties": {
        "id": "EST-GIJON",
        "name": "Gijón",
        "line": "Regional Exprés Gijón - Valladolid"
      },
      "geometry": {
        "type": "Point",
        "coordinates": [
          -5.67563,
          43.53773
        ]
      }
    },
    {
      "type": "Feature",
      "properties": {
        "id": "EST-OVIEDO",
        "name": "Oviedo",
        "line": "Regional Exprés Gijón - Valladolid"
      },
      "geometry": {
        "type": "Point",
        "coordinates": [
          -5.85487,
          43.36636
        ]
      }
    },
    {
      "type": "Feature",
      "properties": {
        "id": "EST-MIERESPUENTE",
        "name": "Mieres-Puente",
        "line": "Regional Exprés Gijón - Valladolid"
      },
      "geometry": {
        "type": "Point",
        "coordinates": [
          -5.78239,
          43.25004
        ]
      }
    },
    {
      "type": "Feature",
      "properties": {
        "id": "EST-POLADELENA",
        "name": "Pola de Lena",
        "line": "Regional Exprés Gijón - Valladolid"
      },
      "geometry": {
        "type": "Point",
        "coordinates": [
          -5.83113,
          43.15865
        ]
      }
    },
    {
      "type": "Feature",
      "properties": {
        "id": "EST-LEON",
        "name": "León",
        "line": "Regional Exprés Gijón - Valladolid"
      },
      "geometry": {
        "type": "Point",
        "coordinates": [
          -6.52214,
          42.4055
        ]
      }
    },
    {
      "type": "Feature",
      "properties": {
        "id": "EST-SAHAGUN",
        "name": "Sahagún",
        "line": "Regional Exprés Gijón - Valladolid"
      },
      "geometry": {
        "type": "Point",
        "coordinates": [
          -5.0226,
          42.3694
        ]
      }
    },
    {
      "type": "Feature",
      "properties": {
        "id": "EST-PALENCIA",
        "name": "Palencia",
        "line": "Regional Exprés Gijón - Valladolid"
      },
      "geometry": {
        "type": "Point",
        "coordinates": [
          -4.53386,
          42.01573
        ]
      }
    },
    {
      "type": "Feature",
      "properties": {
        "id": "EST-VENTADEBANOS",
        "name": "Venta de Baños",
        "line": "Regional Exprés Gijón - Valladolid"
      },
      "geometry": {
        "type": "Point",
        "coordinates": [
          -4.49627,
          41.9174
        ]
      }
    },
    {
      "type": "Feature",
      "properties": {
        "id": "EST-VALLADOLIDCAMPOGRANDE",
        "name": "Valladolid-Campo Grande",
        "line": "Regional Exprés Gijón - Valladolid"
      },
      "geometry": {
        "type": "Point",
        "coordinates": [
          -4.7272,
          41.64334
        ]
      }
    }
  ]
}