{
  "type": "FeatureCollection",
  "features": [
    {
      "type": "Feature",
      "properties": {
        "id": "82",
        "name": "Regional Valencia - Madrid",
        "line_type": "Regional",
        "operator": "Renfe"
      },
      "geometry": {
        "type": "LineString",
        "coordinates": [
          [
            -0.37719,
            39.46691
          ],
          [
            -3.69002,
            40.40568
          ]
        ]
      }
    },
    {
      "type": "Feature",
      "properties": {
        "id": "EST-VALENCIANORD",
        "name": "València-Nord",
        "line": "Regional Valencia - Madrid"
      },
      "geometry": {
        "type": "Point",
        "coordinates": [
          -0.37719,
          39.46691
        ]
      }
    },
    {
      "type": "Feature",
      "properties": {
        "id": "EST-MADRIDPUERTADEATOCHAALMUDENAGRANDES",
        "name": "Madrid-Puerta de Atocha-Almudena Grandes",
        "line": "Regional Valencia - Madrid"
      },
      "geometry": {
        "type": "Point",
        "coordinates": [
          -3.69002,
          40.40568
        ]
      }
    }
  ]
}