{
 "type": "FeatureCollection",
 "features": [
  {
   "type": "Feature",
   "geometry": {
    "type": "LineString",
    "coordinates": [
     [
      2.18556,
      41.38439
     ],
     [
      2.16828,
      41.38944
     ],
     [
      2.14,
      41.37901
     ],
     [
      1.73082,
      41.22018
     ],
     [
      1.52579,
      41.18608
     ],
     [
      1.40571,
      41.14279
     ],
     [
      1.3733,
      41.13661
     ],
     [
      1.25354,
      41.11122
     ],
     [
      1.15044,
      41.11288
     ],
     [
      1.04528,
      41.08111
     ],
     [
      0.52288,
      40.80712
     ],
     [
      0.55586,
      40.75908
     ]
    ]
   },
   "properties": {
    "lid": "113",
    "name": "R16 Barcelona - Ulldecona",
    "type": "Regional",
    "operator": "Renfe",
    "stroke": "#FF8200",
    "stroke-width": 3,
    "stroke-opacity": 0.8,
    "total_sta": 18,
    "coords_sta": 12
   }
  },
  {
   "type": "Feature",
   "geometry": {
    "type": "Point",
    "coordinates": [
     2.18556,
     41.38439
    ]
   },
   "properties": {
    "id": "EST-BARCELONAESTACIODEFRANCA",
    "name": "Barcelona Estació de França",
    "province": "Barcelona",
    "marker-symbol": "rail",
    "marker-size": "small",
    "marker-color": "#FF8200"
   }
  },
  {
   "type": "Feature",
   "geometry": {
    "type": "Point",
    "coordinates": [
     2.16828,
     41.38944
    ]
   },
   "properties": {
    "id": "EST-PASSEIGDEGRACIA",
    "name": "Passeig de Gràcia",
    "province": "Barcelona",
    "marker-symbol": "rail",
    "marker-size": "small",
    "marker-color": "#FF8200"
   }
  },
  {
   "type": "Feature",
   "geometry": {
    "type": "Point",
    "coordinates": [
     2.14,
     41.37901
    ]
   },
   "properties": {
    "id": "EST-SANTS",
    "name": "Sants",
    "province": "Barcelona",
    "marker-symbol": "rail",
    "marker-size": "small",
    "marker-color": "#FF8200"
   }
  },
  {
   "type": "Feature",
   "geometry": {
    "type": "Point",
    "coordinates": [
     1.73082,
     41.22018
    ]
   },
   "properties": {
    "id": "EST-VILANOVAILAGELTRU",
    "name": "Vilanova i la Geltrú",
    "province": "Barcelona",
    "marker-symbol": "rail",
    "marker-size": "small",
    "marker-color": "#FF8200"
   }
  },
  {
   "type": "Feature",
   "geometry": {
    "type": "Point",
    "coordinates": [
     1.52579,
     41.18608
    ]
   },
   "properties": {
    "id": "EST-SANTVICENCDECALDERS",
    "name": "Sant Vicenç de Calders",
    "province": "Tarragona",
    "marker-symbol": "rail",
    "marker-size": "small",
    "marker-color": "#FF8200"
   }
  },
  {
   "type": "Feature",
   "geometry": {
    "type": "Point",
    "coordinates": [
     1.40571,
     41.14279
    ]
   },
   "properties": {
    "id": "EST-TORREDEMBARRA",
    "name": "Torredembarra",
    "province": "Tarragona",
    "marker-symbol": "rail",
    "marker-size": "small",
    "marker-color": "#FF8200"
   }
  },
  {
   "type": "Feature",
   "geometry": {
    "type": "Point",
    "coordinates": [
     1.3733,
     41.13661
    ]
   },
   "properties": {
    "id": "EST-ALTAFULLATAMARIT",
    "name": "Altafulla-Tamarit",
    "province": "Tarragona",
    "marker-symbol": "rail",
    "marker-size": "small",
    "marker-color": "#FF8200"
   }
  },
  {
   "type": "Feature",
   "geometry": {
    "type": "Point",
    "coordinates": [
     1.25354,
     41.11122
    ]
   },
   "properties": {
    "id": "EST-TARRAGONA",
    "name": "Tarragona",
    "province": "Tarragona",
    "marker-symbol": "rail",
    "marker-size": "small",
    "marker-color": "#FF8200"
   }
  },
  {
   "type": "Feature",
   "geometry": {
    "type": "Point",
    "coordinates": [
     1.15044,
     41.11288
    ]
   },
   "properties": {
    "id": "EST-VILASECA",
    "name": "Vila-seca",
    "province": "Tarragona",
    "marker-symbol": "rail",
    "marker-size": "small",
    "marker-color": "#FF8200"
   }
  },
  {
   "type": "Feature",
   "geometry": {
    "type": "Point",
    "coordinates": [
     1.04528,
     41.08111
    ]
   },
   "properties": {
    "id": "EST-CAMBRILS",
    "name": "Cambrils",
    "province": "Tarragona",
    "marker-symbol": "rail",
    "marker-size": "small",
    "marker-color": "#FF8200"
   }
  },
  {
   "type": "Feature",
   "geometry": {
    "type": "Point",
    "coordinates": [
     0.52288,
     40.80712
    ]
   },
   "properties": {
    "id": "EST-LALDEAAMPOSTATORTOSA",
    "name": "L'Aldea-Amposta-Tortosa",
    "province": "Tarragona",
    "marker-symbol": "rail",
    "marker-size": "small",
    "marker-color": "#FF8200"
   }
  },
  {
   "type": "Feature",
   "geometry": {
    "type": "Point",
    "coordinates": [
     0.55586,
     40.75908
    ]
   },
   "properties": {
    "id": "EST-CAMPREDO",
    "name": "Camp-redó",
    "province": "Tarragona",
    "marker-symbol": "rail",
    "marker-size": "small",
    "marker-color": "#FF8200"
   }
  }
 ]
}