{
 "type": "FeatureCollection",
 "features": [
  {
   "type": "Feature",
   "geometry": {
    "type": "LineString",
    "coordinates": [
     [
      -3.6886,
      40.40697
     ],
     [
      -4.57142,
      38.25524
     ],
     [
      -4.71971,
      37.07017
     ],
     [
      -4.13567,
      37.17511
     ],
     [
      -3.60863,
      37.18369
     ]
    ]
   },
   "properties": {
    "lid": "11",
    "name": "AVE Madrid - Granada",
    "type": "AVE",
    "operator": "Renfe",
    "stroke": "#EC1C24",
    "stroke-width": 3,
    "stroke-opacity": 0.8,
    "total_sta": 5,
    "coords_sta": 5
   }
  },
  {
   "type": "Feature",
   "geometry": {
    "type": "Point",
    "coordinates": [
     -3.6886,
     40.40697
    ]
   },
   "properties": {
    "id": "EST-MADRIDPUERTADEATOCHA",
    "name": "Madrid-Puerta de Atocha",
    "province": "Madrid",
    "marker-symbol": "rail",
    "marker-size": "small",
    "marker-color": "#EC1C24"
   }
  },
  {
   "type": "Feature",
   "geometry": {
    "type": "Point",
    "coordinates": [
     -4.57142,
     38.25524
    ]
   },
   "properties": {
    "id": "EST-CORDOBA",
    "name": "Córdoba",
    "province": "Córdoba",
    "marker-symbol": "rail",
    "marker-size": "small",
    "marker-color": "#EC1C24"
   }
  },
  {
   "type": "Feature",
   "geometry": {
    "type": "Point",
    "coordinates": [
     -4.71971,
     37.07017
    ]
   },
   "properties": {
    "id": "EST-ANTEQUERASANTAANA",
    "name": "Antequera-Santa Ana",
    "province": "Málaga",
    "marker-symbol": "rail",
    "marker-size": "small",
    "marker-color": "#EC1C24"
   }
  },
  {
   "type": "Feature",
   "geometry": {
    "type": "Point",
    "coordinates": [
     -4.13567,
     37.17511
    ]
   },
   "properties": {
    "id": "EST-LOJA",
    "name": "Loja",
    "province": "Granada",
    "marker-symbol": "rail",
    "marker-size": "small",
    "marker-color": "#EC1C24"
   }
  },
  {
   "type": "Feature",
   "geometry": {
    "type": "Point",
    "coordinates": [
     -3.60863,
     37.18369
    ]
   },
   "properties": {
    "id": "EST-GRANADA",
    "name": "Granada",
    "province": "Granada",
    "marker-symbol": "rail",
    "marker-size": "small",
    "marker-color": "#EC1C24"
   }
  }
 ]
}