{
 "type": "FeatureCollection",
 "features": [
  {
   "type": "Feature",
   "geometry": {
    "type": "LineString",
    "coordinates": [
     [
      -3.18225,
      40.64408
     ],
     [
      -3.26534,
      40.56101
     ],
     [
      -3.29857,
      40.53463
     ],
     [
      -3.3353,
      40.50544
     ],
     [
      -3.36619,
      40.48906
     ],
     [
      -3.39299,
      40.48035
     ],
     [
      -3.47973,
      40.45473
     ],
     [
      -3.56101,
      40.42373
     ],
     [
      -3.60889,
      40.4042
     ],
     [
      -3.60909,
      40.38713
     ],
     [
      -3.62479,
      40.38206
     ],
     [
      -3.65609,
      40.37617
     ],
     [
      -3.66802,
      40.38163
     ],
     [
      -3.6886,
      40.40697
     ],
     [
      -3.6917,
      40.4225
     ],
     [
      -3.6917,
      40.44584
     ],
     [
      -3.68271,
      40.47395
     ]
    ]
   },
   "properties": {
    "lid": "121",
    "name": "C-2 Guadalajara - Alcalá - Atocha - Chamartín",
    "type": "Cercanías",
    "operator": "Renfe",
    "stroke": "#00A650",
    "stroke-width": 3,
    "stroke-opacity": 0.8,
    "total_sta": 18,
    "coords_sta": 17
   }
  },
  {
   "type": "Feature",
   "geometry": {
    "type": "Point",
    "coordinates": [
     -3.18225,
     40.64408
    ]
   },
   "properties": {
    "id": "EST-GUADALAJARA",
    "name": "Guadalajara",
    "province": "Guadalajara",
    "marker-symbol": "rail",
    "marker-size": "small",
    "marker-color": "#00A650"
   }
  },
  {
   "type": "Feature",
   "geometry": {
    "type": "Point",
    "coordinates": [
     -3.26534,
     40.56101
    ]
   },
   "properties": {
    "id": "EST-AZUQUECA",
    "name": "Azuqueca",
    "province": "Guadalajara",
    "marker-symbol": "rail",
    "marker-size": "small",
    "marker-color": "#00A650"
   }
  },
  {
   "type": "Feature",
   "geometry": {
    "type": "Point",
    "coordinates": [
     -3.29857,
     40.53463
    ]
   },
   "properties": {
    "id": "EST-MECO",
    "name": "Meco",
    "province": "Madrid",
    "marker-symbol": "rail",
    "marker-size": "small",
    "marker-color": "#00A650"
   }
  },
  {
   "type": "Feature",
   "geometry": {
    "type": "Point",
    "coordinates": [
     -3.3353,
     40.50544
    ]
   },
   "properties": {
    "id": "EST-ALCALADEHENARESUNIVERSIDAD",
    "name": "Alcalá de Henares Universidad",
    "province": "Madrid",
    "marker-symbol": "rail",
    "marker-size": "small",
    "marker-color": "#00A650"
   }
  },
  {
   "type": "Feature",
   "geometry": {
    "type": "Point",
    "coordinates": [
     -3.36619,
     40.48906
    ]
   },
   "properties": {
    "id": "EST-ALCALADEHENARES",
    "name": "Alcalá de Henares",
    "province": "Madrid",
    "marker-symbol": "rail",
    "marker-size": "small",
    "marker-color": "#00A650"
   }
  },
  {
   "type": "Feature",
   "geometry": {
    "type": "Point",
    "coordinates": [
     -3.39299,
     40.48035
    ]
   },
   "properties": {
    "id": "EST-LAGARENA",
    "name": "La Garena",
    "province": "Madrid",
    "marker-symbol": "rail",
    "marker-size": "small",
    "marker-color": "#00A650"
   }
  },
  {
   "type": "Feature",
   "geometry": {
    "type": "Point",
    "coordinates": [
     -3.47973,
     40.45473
    ]
   },
   "properties": {
    "id": "EST-TORREJONDEARDOZ",
    "name": "Torrejón de Ardoz",
    "province": "Madrid",
    "marker-symbol": "rail",
    "marker-size": "small",
    "marker-color": "#00A650"
   }
  },
  {
   "type": "Feature",
   "geometry": {
    "type": "Point",
    "coordinates": [
     -3.56101,
     40.42373
    ]
   },
   "properties": {
    "id": "EST-COSLADA",
    "name": "Coslada",
    "province": "Madrid",
    "marker-symbol": "rail",
    "marker-size": "small",
    "marker-color": "#00A650"
   }
  },
  {
   "type": "Feature",
   "geometry": {
    "type": "Point",
    "coordinates": [
     -3.60889,
     40.4042
    ]
   },
   "properties": {
    "id": "EST-VICALVARO",
    "name": "Vicálvaro",
    "province": "Madrid",
    "marker-symbol": "rail",
    "marker-size": "small",
    "marker-color": "#00A650"
   }
  },
  {
   "type": "Feature",
   "geometry": {
    "type": "Point",
    "coordinates": [
     -3.60909,
     40.38713
    ]
   },
   "properties": {
    "id": "EST-SANTAEUGENIA",
    "name": "Santa Eugenia",
    "province": "Madrid",
    "marker-symbol": "rail",
    "marker-size": "small",
    "marker-color": "#00A650"
   }
  },
  {
   "type": "Feature",
   "geometry": {
    "type": "Point",
    "coordinates": [
     -3.62479,
     40.38206
    ]
   },
   "properties": {
    "id": "EST-VALLECAS",
    "name": "Vallecas",
    "province": "Madrid",
    "marker-symbol": "rail",
    "marker-size": "small",
    "marker-color": "#00A650"
   }
  },
  {
   "type": "Feature",
   "geometry": {
    "type": "Point",
    "coordinates": [
     -3.65609,
     40.37617
    ]
   },
   "properties": {
    "id": "EST-ELPOZO",
    "name": "El Pozo",
    "province": "Madrid",
    "marker-symbol": "rail",
    "marker-size": "small",
    "marker-color": "#00A650"
   }
  },
  {
   "type": "Feature",
   "geometry": {
    "type": "Point",
    "coordinates": [
     -3.66802,
     40.38163
    ]
   },
   "properties": {
    "id": "EST-ASAMBLEADEMADRIDENTREVIAS",
    "name": "Asamblea de Madrid-Entrevías",
    "province": "Madrid",
    "marker-symbol": "rail",
    "marker-size": "small",
    "marker-color": "#00A650"
   }
  },
  {
   "type": "Feature",
   "geometry": {
    "type": "Point",
    "coordinates": [
     -3.6886,
     40.40697
    ]
   },
   "properties": {
    "id": "EST-ATOCHA",
    "name": "Atocha",
    "province": "Madrid",
    "marker-symbol": "rail",
    "marker-size": "small",
    "marker-color": "#00A650"
   }
  },
  {
   "type": "Feature",
   "geometry": {
    "type": "Point",
    "coordinates": [
     -3.6917,
     40.4225
    ]
   },
   "properties": {
    "id": "EST-RECOLETOS",
    "name": "Recoletos",
    "province": "Madrid",
    "marker-symbol": "rail",
    "marker-size": "small",
    "marker-color": "#00A650"
   }
  },
  {
   "type": "Feature",
   "geometry": {
    "type": "Point",
    "coordinates": [
     -3.6917,
     40.44584
    ]
   },
   "properties": {
    "id": "EST-NUEVOSMINISTERIOS",
    "name": "Nuevos Ministerios",
    "province": "Madrid",
    "marker-symbol": "rail",
    "marker-size": "small",
    "marker-color": "#00A650"
   }
  },
  {
   "type": "Feature",
   "geometry": {
    "type": "Point",
    "coordinates": [
     -3.68271,
     40.47395
    ]
   },
   "properties": {
    "id": "EST-CHAMARTIN",
    "name": "Chamartín",
    "province": "Madrid",
    "marker-symbol": "rail",
    "marker-size": "small",
    "marker-color": "#00A650"
   }
  }
 ]
}