{
 "type": "FeatureCollection",
 "features": [
  {
   "type": "Feature",
   "geometry": {
    "type": "LineString",
    "coordinates": [
     [
      -3.76936,
      40.24105
     ],
     [
      -3.73751,
      40.28824
     ],
     [
      -3.73407,
      40.30971
     ],
     [
      -3.72731,
      40.32296
     ],
     [
      -3.71177,
      40.34103
     ],
     [
      -3.6886,
      40.40697
     ],
     [
      -3.70339,
      40.41694
     ],
     [
      -3.6917,
      40.44584
     ],
     [
      -3.68271,
      40.47395
     ],
     [
      -3.65439,
      40.5474
     ]
    ]
   },
   "properties": {
    "lid": "123",
    "name": "C-4a Parla - Alcobendas - San Sebastián de los Reyes",
    "type": "Cercanías",
    "operator": "Renfe",
    "stroke": "#2251A2",
    "stroke-width": 3,
    "stroke-opacity": 0.8,
    "total_sta": 12,
    "coords_sta": 10
   }
  },
  {
   "type": "Feature",
   "geometry": {
    "type": "Point",
    "coordinates": [
     -3.76936,
     40.24105
    ]
   },
   "properties": {
    "id": "EST-PARLA",
    "name": "Parla",
    "province": "Madrid",
    "marker-symbol": "rail",
    "marker-size": "small",
    "marker-color": "#2251A2"
   }
  },
  {
   "type": "Feature",
   "geometry": {
    "type": "Point",
    "coordinates": [
     -3.73751,
     40.28824
    ]
   },
   "properties": {
    "id": "EST-GETAFESECTOR3",
    "name": "Getafe Sector 3",
    "province": "Madrid",
    "marker-symbol": "rail",
    "marker-size": "small",
    "marker-color": "#2251A2"
   }
  },
  {
   "type": "Feature",
   "geometry": {
    "type": "Point",
    "coordinates": [
     -3.73407,
     40.30971
    ]
   },
   "properties": {
    "id": "EST-GETAFECENTRO",
    "name": "Getafe Centro",
    "province": "Madrid",
    "marker-symbol": "rail",
    "marker-size": "small",
    "marker-color": "#2251A2"
   }
  },
  {
   "type": "Feature",
   "geometry": {
    "type": "Point",
    "coordinates": [
     -3.72731,
     40.32296
    ]
   },
   "properties": {
    "id": "EST-LASMARGARITASUNIVERSIDAD",
    "name": "Las Margaritas Universidad",
    "province": "Madrid",
    "marker-symbol": "rail",
    "marker-size": "small",
    "marker-color": "#2251A2"
   }
  },
  {
   "type": "Feature",
   "geometry": {
    "type": "Point",
    "coordinates": [
     -3.71177,
     40.34103
    ]
   },
   "properties": {
    "id": "EST-VILLAVERDEALTO",
    "name": "Villaverde Alto",
    "province": "Madrid",
    "marker-symbol": "rail",
    "marker-size": "small",
    "marker-color": "#2251A2"
   }
  },
  {
   "type": "Feature",
   "geometry": {
    "type": "Point",
    "coordinates": [
     -3.6886,
     40.40697
    ]
   },
   "properties": {
    "id": "EST-ATOCHA",
    "name": "Atocha",
    "province": "Madrid",
    "marker-symbol": "rail",
    "marker-size": "small",
    "marker-color": "#2251A2"
   }
  },
  {
   "type": "Feature",
   "geometry": {
    "type": "Point",
    "coordinates": [
     -3.70339,
     40.41694
    ]
   },
   "properties": {
    "id": "EST-SOL",
    "name": "Sol",
    "province": "Madrid",
    "marker-symbol": "rail",
    "marker-size": "small",
    "marker-color": "#2251A2"
   }
  },
  {
   "type": "Feature",
   "geometry": {
    "type": "Point",
    "coordinates": [
     -3.6917,
     40.44584
    ]
   },
   "properties": {
    "id": "EST-NUEVOSMINISTERIOS",
    "name": "Nuevos Ministerios",
    "province": "Madrid",
    "marker-symbol": "rail",
    "marker-size": "small",
    "marker-color": "#2251A2"
   }
  },
  {
   "type": "Feature",
   "geometry": {
    "type": "Point",
    "coordinates": [
     -3.68271,
     40.47395
    ]
   },
   "properties": {
    "id": "EST-CHAMARTIN",
    "name": "Chamartín",
    "province": "Madrid",
    "marker-symbol": "rail",
    "marker-size": "small",
    "marker-color": "#2251A2"
   }
  },
  {
   "type": "Feature",
   "geometry": {
    "type": "Point",
    "coordinates": [
     -3.65439,
     40.5474
    ]
   },
   "properties": {
    "id": "EST-VALDELASFUENTES",
    "name": "Valdelasfuentes",
    "province": "Madrid",
    "marker-symbol": "rail",
    "marker-size": "small",
    "marker-color": "#2251A2"
   }
  }
 ]
}