{
 "type": "FeatureCollection",
 "features": [
  {
   "type": "Feature",
   "geometry": {
    "type": "LineString",
    "coordinates": [
     [
      -3.70969,
      40.31853
     ],
     [
      -3.77236,
      40.32809
     ],
     [
      -3.77677,
      40.3367
     ],
     [
      -3.75238,
      40.33462
     ],
     [
      -3.62133,
      40.37943
     ],
     [
      -3.708,
      40.379
     ],
     [
      -3.65919,
      40.39301
     ],
     [
      -3.65388,
      40.39162
     ],
     [
      -3.74129,
      40.39281
     ],
     [
      -3.73172,
      40.38864
     ],
     [
      -3.72318,
      40.38693
     ],
     [
      -3.69496,
      40.39144
     ],
     [
      -3.70289,
      40.40522
     ],
     [
      -3.70066,
      40.40845
     ],
     [
      -3.70339,
      40.41694
     ],
     [
      -3.70591,
      40.42029
     ],
     [
      -3.7133,
      40.42676
     ],
     [
      -3.71617,
      40.43073
     ],
     [
      -3.83677,
      40.47388
     ]
    ]
   },
   "properties": {
    "lid": "133",
    "name": "Línea 3 El Casar - Moncloa",
    "type": "Metro",
    "operator": "Metro de Madrid",
    "stroke": "#FFCC00",
    "stroke-width": 3,
    "stroke-opacity": 0.8,
    "total_sta": 19,
    "coords_sta": 19
   }
  },
  {
   "type": "Feature",
   "geometry": {
    "type": "Point",
    "coordinates": [
     -3.70969,
     40.31853
    ]
   },
   "properties": {
    "id": "EST-ELCASAR",
    "name": "El Casar",
    "province": "Madrid",
    "marker-symbol": "rail",
    "marker-size": "small",
    "marker-color": "#FFCC00"
   }
  },
  {
   "type": "Feature",
   "geometry": {
    "type": "Point",
    "coordinates": [
     -3.77236,
     40.32809
    ]
   },
   "properties": {
    "id": "EST-LEGANESCENTRAL",
    "name": "Leganés Central",
    "province": "Madrid",
    "marker-symbol": "rail",
    "marker-size": "small",
    "marker-color": "#FFCC00"
   }
  },
  {
   "type": "Feature",
   "geometry": {
    "type": "Point",
    "coordinates": [
     -3.77677,
     40.3367
    ]
   },
   "properties": {
    "id": "EST-SANNICASIO",
    "name": "San Nicasio",
    "province": "Madrid",
    "marker-symbol": "rail",
    "marker-size": "small",
    "marker-color": "#FFCC00"
   }
  },
  {
   "type": "Feature",
   "geometry": {
    "type": "Point",
    "coordinates": [
     -3.75238,
     40.33462
    ]
   },
   "properties": {
    "id": "EST-JULIANBESTEIRO",
    "name": "Julián Besteiro",
    "province": "Madrid",
    "marker-symbol": "rail",
    "marker-size": "small",
    "marker-color": "#FFCC00"
   }
  },
  {
   "type": "Feature",
   "geometry": {
    "type": "Point",
    "coordinates": [
     -3.62133,
     40.37943
    ]
   },
   "properties": {
    "id": "EST-VILLADEVALLECAS",
    "name": "Villa de Vallecas",
    "province": "Madrid",
    "marker-symbol": "rail",
    "marker-size": "small",
    "marker-color": "#FFCC00"
   }
  },
  {
   "type": "Feature",
   "geometry": {
    "type": "Point",
    "coordinates": [
     -3.708,
     40.379
    ]
   },
   "properties": {
    "id": "EST-PRADOLONGO",
    "name": "Pradolongo",
    "province": "Madrid",
    "marker-symbol": "rail",
    "marker-size": "small",
    "marker-color": "#FFCC00"
   }
  },
  {
   "type": "Feature",
   "geometry": {
    "type": "Point",
    "coordinates": [
     -3.65919,
     40.39301
    ]
   },
   "properties": {
    "id": "EST-PORTAZGO",
    "name": "Portazgo",
    "province": "Madrid",
    "marker-symbol": "rail",
    "marker-size": "small",
    "marker-color": "#FFCC00"
   }
  },
  {
   "type": "Feature",
   "geometry": {
    "type": "Point",
    "coordinates": [
     -3.65388,
     40.39162
    ]
   },
   "properties": {
    "id": "EST-BUENOSAIRES",
    "name": "Buenos Aires",
    "province": "Madrid",
    "marker-symbol": "rail",
    "marker-size": "small",
    "marker-color": "#FFCC00"
   }
  },
  {
   "type": "Feature",
   "geometry": {
    "type": "Point",
    "coordinates": [
     -3.74129,
     40.39281
    ]
   },
   "properties": {
    "id": "EST-CARPETANA",
    "name": "Carpetana",
    "province": "Madrid",
    "marker-symbol": "rail",
    "marker-size": "small",
    "marker-color": "#FFCC00"
   }
  },
  {
   "type": "Feature",
   "geometry": {
    "type": "Point",
    "coordinates": [
     -3.73172,
     40.38864
    ]
   },
   "properties": {
    "id": "EST-OPORTO",
    "name": "Oporto",
    "province": "Madrid",
    "marker-symbol": "rail",
    "marker-size": "small",
    "marker-color": "#FFCC00"
   }
  },
  {
   "type": "Feature",
   "geometry": {
    "type": "Point",
    "coordinates": [
     -3.72318,
     40.38693
    ]
   },
   "properties": {
    "id": "EST-OPANEL",
    "name": "Opañel",
    "province": "Madrid",
    "marker-symbol": "rail",
    "marker-size": "small",
    "marker-color": "#FFCC00"
   }
  },
  {
   "type": "Feature",
   "geometry": {
    "type": "Point",
    "coordinates": [
     -3.69496,
     40.39144
    ]
   },
   "properties": {
    "id": "EST-LEGAZPI-Madrid-Madrid",
    "name": "Legazpi",
    "province": "Madrid",
    "marker-symbol": "rail",
    "marker-size": "small",
    "marker-color": "#FFCC00"
   }
  },
  {
   "type": "Feature",
   "geometry": {
    "type": "Point",
    "coordinates": [
     -3.70289,
     40.40522
    ]
   },
   "properties": {
    "id": "EST-EMBAJADORES",
    "name": "Embajadores",
    "province": "Madrid",
    "marker-symbol": "rail",
    "marker-size": "small",
    "marker-color": "#FFCC00"
   }
  },
  {
   "type": "Feature",
   "geometry": {
    "type": "Point",
    "coordinates": [
     -3.70066,
     40.40845
    ]
   },
   "properties": {
    "id": "EST-LAVAPIES",
    "name": "Lavapiés",
    "province": "Madrid",
    "marker-symbol": "rail",
    "marker-size": "small",
    "marker-color": "#FFCC00"
   }
  },
  {
   "type": "Feature",
   "geometry": {
    "type": "Point",
    "coordinates": [
     -3.70339,
     40.41694
    ]
   },
   "properties": {
    "id": "EST-SOL",
    "name": "Sol",
    "province": "Madrid",
    "marker-symbol": "rail",
    "marker-size": "small",
    "marker-color": "#FFCC00"
   }
  },
  {
   "type": "Feature",
   "geometry": {
    "type": "Point",
    "coordinates": [
     -3.70591,
     40.42029
    ]
   },
   "properties": {
    "id": "EST-CALLAO",
    "name": "Callao",
    "province": "Madrid",
    "marker-symbol": "rail",
    "marker-size": "small",
    "marker-color": "#FFCC00"
   }
  },
  {
   "type": "Feature",
   "geometry": {
    "type": "Point",
    "coordinates": [
     -3.7133,
     40.42676
    ]
   },
   "properties": {
    "id": "EST-VENTURARODRIGUEZ",
    "name": "Ventura Rodríguez",
    "province": "Madrid",
    "marker-symbol": "rail",
    "marker-size": "small",
    "marker-color": "#FFCC00"
   }
  },
  {
   "type": "Feature",
   "geometry": {
    "type": "Point",
    "coordinates": [
     -3.71617,
     40.43073
    ]
   },
   "properties": {
    "id": "EST-ARGUELLES",
    "name": "Argüelles",
    "province": "Madrid",
    "marker-symbol": "rail",
    "marker-size": "small",
    "marker-color": "#FFCC00"
   }
  },
  {
   "type": "Feature",
   "geometry": {
    "type": "Point",
    "coordinates": [
     -3.83677,
     40.47388
    ]
   },
   "properties": {
    "id": "EST-MONCLOA",
    "name": "Moncloa",
    "province": "Madrid",
    "marker-symbol": "rail",
    "marker-size": "small",
    "marker-color": "#FFCC00"
   }
  }
 ]
}