{
 "type": "FeatureCollection",
 "features": [
  {
   "type": "Feature",
   "geometry": {
    "type": "LineString",
    "coordinates": [
     [
      2.02099,
      41.40994
     ],
     [
      2.07056,
      41.35752
     ],
     [
      2.10094,
      41.36424
     ],
     [
      2.14,
      41.37901
     ],
     [
      2.17008,
      41.38655
     ],
     [
      2.18091,
      41.39211
     ],
     [
      2.18692,
      41.41014
     ],
     [
      2.2491,
      41.44571
     ],
     [
      2.27221,
      41.46291
     ],
     [
      2.28686,
      41.46874
     ],
     [
      2.31042,
      41.47691
     ],
     [
      2.31981,
      41.47902
     ],
     [
      2.35492,
      41.48761
     ],
     [
      2.38983,
      41.50049
     ],
     [
      2.71646,
      41.63015
     ],
     [
      1.90683,
      41.52259
     ],
     [
      2.44552,
      41.53305
     ],
     [
      2.49837,
      41.5554
     ],
     [
      2.52602,
      41.56844
     ],
     [
      2.54942,
      41.57741
     ],
     [
      2.58115,
      41.58645
     ],
     [
      2.59404,
      41.59227
     ],
     [
      2.66657,
      41.61471
     ],
     [
      2.69361,
      41.62236
     ],
     [
      2.71646,
      41.63015
     ],
     [
      2.7414,
      41.64153
     ],
     [
      2.76901,
      41.67334
     ],
     [
      2.71948,
      41.70705
     ],
     [
      2.67338,
      41.77217
     ]
    ]
   },
   "properties": {
    "lid": "148",
    "name": "R1 Molins de Rei - Maçanet-Massanes",
    "type": "Rodalies",
    "operator": "Renfe",
    "stroke": "#63B5E5",
    "stroke-width": 3,
    "stroke-opacity": 0.8,
    "total_sta": 31,
    "coords_sta": 29
   }
  },
  {
   "type": "Feature",
   "geometry": {
    "type": "Point",
    "coordinates": [
     2.02099,
     41.40994
    ]
   },
   "properties": {
    "id": "EST-MOLINSDEREI",
    "name": "Molins de Rei",
    "province": "Barcelona",
    "marker-symbol": "rail",
    "marker-size": "small",
    "marker-color": "#63B5E5"
   }
  },
  {
   "type": "Feature",
   "geometry": {
    "type": "Point",
    "coordinates": [
     2.07056,
     41.35752
    ]
   },
   "properties": {
    "id": "EST-CORNELLA",
    "name": "Cornellà",
    "province": "Barcelona",
    "marker-symbol": "rail",
    "marker-size": "small",
    "marker-color": "#63B5E5"
   }
  },
  {
   "type": "Feature",
   "geometry": {
    "type": "Point",
    "coordinates": [
     2.10094,
     41.36424
    ]
   },
   "properties": {
    "id": "EST-LHOSPITALETDELLOBREGAT",
    "name": "L'Hospitalet de Llobregat",
    "province": "Barcelona",
    "marker-symbol": "rail",
    "marker-size": "small",
    "marker-color": "#63B5E5"
   }
  },
  {
   "type": "Feature",
   "geometry": {
    "type": "Point",
    "coordinates": [
     2.14,
     41.37901
    ]
   },
   "properties": {
    "id": "EST-SANTS",
    "name": "Sants",
    "province": "Barcelona",
    "marker-symbol": "rail",
    "marker-size": "small",
    "marker-color": "#63B5E5"
   }
  },
  {
   "type": "Feature",
   "geometry": {
    "type": "Point",
    "coordinates": [
     2.17008,
     41.38655
    ]
   },
   "properties": {
    "id": "EST-PLACACATALUNYA",
    "name": "Plaça Catalunya",
    "province": "Barcelona",
    "marker-symbol": "rail",
    "marker-size": "small",
    "marker-color": "#63B5E5"
   }
  },
  {
   "type": "Feature",
   "geometry": {
    "type": "Point",
    "coordinates": [
     2.18091,
     41.39211
    ]
   },
   "properties": {
    "id": "EST-ARCDETRIOMF",
    "name": "Arc de Triomf",
    "province": "Barcelona",
    "marker-symbol": "rail",
    "marker-size": "small",
    "marker-color": "#63B5E5"
   }
  },
  {
   "type": "Feature",
   "geometry": {
    "type": "Point",
    "coordinates": [
     2.18692,
     41.41014
    ]
   },
   "properties": {
    "id": "EST-ELCLOTARAGO",
    "name": "El Clot-Aragó",
    "province": "Barcelona",
    "marker-symbol": "rail",
    "marker-size": "small",
    "marker-color": "#63B5E5"
   }
  },
  {
   "type": "Feature",
   "geometry": {
    "type": "Point",
    "coordinates": [
     2.2491,
     41.44571
    ]
   },
   "properties": {
    "id": "EST-BADALONA",
    "name": "Badalona",
    "province": "Barcelona",
    "marker-symbol": "rail",
    "marker-size": "small",
    "marker-color": "#63B5E5"
   }
  },
  {
   "type": "Feature",
   "geometry": {
    "type": "Point",
    "coordinates": [
     2.27221,
     41.46291
    ]
   },
   "properties": {
    "id": "EST-MONTGAT",
    "name": "Montgat",
    "province": "Barcelona",
    "marker-symbol": "rail",
    "marker-size": "small",
    "marker-color": "#63B5E5"
   }
  },
  {
   "type": "Feature",
   "geometry": {
    "type": "Point",
    "coordinates": [
     2.28686,
     41.46874
    ]
   },
   "properties": {
    "id": "EST-MONTGATNORD",
    "name": "Montgat Nord",
    "province": "Barcelona",
    "marker-symbol": "rail",
    "marker-size": "small",
    "marker-color": "#63B5E5"
   }
  },
  {
   "type": "Feature",
   "geometry": {
    "type": "Point",
    "coordinates": [
     2.31042,
     41.47691
    ]
   },
   "properties": {
    "id": "EST-ELMASNOU",
    "name": "El Masnou",
    "province": "Barcelona",
    "marker-symbol": "rail",
    "marker-size": "small",
    "marker-color": "#63B5E5"
   }
  },
  {
   "type": "Feature",
   "geometry": {
    "type": "Point",
    "coordinates": [
     2.31981,
     41.47902
    ]
   },
   "properties": {
    "id": "EST-OCATA",
    "name": "Ocata",
    "province": "Barcelona",
    "marker-symbol": "rail",
    "marker-size": "small",
    "marker-color": "#63B5E5"
   }
  },
  {
   "type": "Feature",
   "geometry": {
    "type": "Point",
    "coordinates": [
     2.35492,
     41.48761
    ]
   },
   "properties": {
    "id": "EST-PREMIADEMAR",
    "name": "Premià de Mar",
    "province": "Barcelona",
    "marker-symbol": "rail",
    "marker-size": "small",
    "marker-color": "#63B5E5"
   }
  },
  {
   "type": "Feature",
   "geometry": {
    "type": "Point",
    "coordinates": [
     2.38983,
     41.50049
    ]
   },
   "properties": {
    "id": "EST-VILASSARDEMAR",
    "name": "Vilassar de Mar",
    "province": "Barcelona",
    "marker-symbol": "rail",
    "marker-size": "small",
    "marker-color": "#63B5E5"
   }
  },
  {
   "type": "Feature",
   "geometry": {
    "type": "Point",
    "coordinates": [
     2.71646,
     41.63015
    ]
   },
   "properties": {
    "id": "EST-SANTASUSANNA",
    "name": "Santa Susanna",
    "province": "Barcelona",
    "marker-symbol": "rail",
    "marker-size": "small",
    "marker-color": "#63B5E5"
   }
  },
  {
   "type": "Feature",
   "geometry": {
    "type": "Point",
    "coordinates": [
     1.90683,
     41.52259
    ]
   },
   "properties": {
    "id": "EST-CABRERADEMARVILASSAR",
    "name": "Cabrera de Mar-Vilassar de Mar",
    "province": "Barcelona",
    "marker-symbol": "rail",
    "marker-size": "small",
    "marker-color": "#63B5E5"
   }
  },
  {
   "type": "Feature",
   "geometry": {
    "type": "Point",
    "coordinates": [
     2.44552,
     41.53305
    ]
   },
   "properties": {
    "id": "EST-MATARO",
    "name": "Mataró",
    "province": "Barcelona",
    "marker-symbol": "rail",
    "marker-size": "small",
    "marker-color": "#63B5E5"
   }
  },
  {
   "type": "Feature",
   "geometry": {
    "type": "Point",
    "coordinates": [
     2.49837,
     41.5554
    ]
   },
   "properties": {
    "id": "EST-STANDREUDELLAVANERES",
    "name": "Sant Andreu de Llavaneres",
    "province": "Barcelona",
    "marker-symbol": "rail",
    "marker-size": "small",
    "marker-color": "#63B5E5"
   }
  },
  {
   "type": "Feature",
   "geometry": {
    "type": "Point",
    "coordinates": [
     2.52602,
     41.56844
    ]
   },
   "properties": {
    "id": "EST-CALDESDESTRAC",
    "name": "Caldes d'Estrac",
    "province": "Barcelona",
    "marker-symbol": "rail",
    "marker-size": "small",
    "marker-color": "#63B5E5"
   }
  },
  {
   "type": "Feature",
   "geometry": {
    "type": "Point",
    "coordinates": [
     2.54942,
     41.57741
    ]
   },
   "properties": {
    "id": "EST-ARENYSDEMAR",
    "name": "Arenys de Mar",
    "province": "Barcelona",
    "marker-symbol": "rail",
    "marker-size": "small",
    "marker-color": "#63B5E5"
   }
  },
  {
   "type": "Feature",
   "geometry": {
    "type": "Point",
    "coordinates": [
     2.58115,
     41.58645
    ]
   },
   "properties": {
    "id": "EST-CANETDEMAR",
    "name": "Canet de Mar",
    "province": "Barcelona",
    "marker-symbol": "rail",
    "marker-size": "small",
    "marker-color": "#63B5E5"
   }
  },
  {
   "type": "Feature",
   "geometry": {
    "type": "Point",
    "coordinates": [
     2.59404,
     41.59227
    ]
   },
   "properties": {
    "id": "EST-SANTPOLDEMAR",
    "name": "Sant Pol de Mar",
    "province": "Barcelona",
    "marker-symbol": "rail",
    "marker-size": "small",
    "marker-color": "#63B5E5"
   }
  },
  {
   "type": "Feature",
   "geometry": {
    "type": "Point",
    "coordinates": [
     2.66657,
     41.61471
    ]
   },
   "properties": {
    "id": "EST-CALELLA",
    "name": "Calella",
    "province": "Barcelona",
    "marker-symbol": "rail",
    "marker-size": "small",
    "marker-color": "#63B5E5"
   }
  },
  {
   "type": "Feature",
   "geometry": {
    "type": "Point",
    "coordinates": [
     2.69361,
     41.62236
    ]
   },
   "properties": {
    "id": "EST-PINEDADEMAR",
    "name": "Pineda de Mar",
    "province": "Barcelona",
    "marker-symbol": "rail",
    "marker-size": "small",
    "marker-color": "#63B5E5"
   }
  },
  {
   "type": "Feature",
   "geometry": {
    "type": "Point",
    "coordinates": [
     2.71646,
     41.63015
    ]
   },
   "properties": {
    "id": "EST-SANTASUSANNA",
    "name": "Santa Susanna",
    "province": "Barcelona",
    "marker-symbol": "rail",
    "marker-size": "small",
    "marker-color": "#63B5E5"
   }
  },
  {
   "type": "Feature",
   "geometry": {
    "type": "Point",
    "coordinates": [
     2.7414,
     41.64153
    ]
   },
   "properties": {
    "id": "EST-MALGRATDEMAR",
    "name": "Malgrat de Mar",
    "province": "Barcelona",
    "marker-symbol": "rail",
    "marker-size": "small",
    "marker-color": "#63B5E5"
   }
  },
  {
   "type": "Feature",
   "geometry": {
    "type": "Point",
    "coordinates": [
     2.76901,
     41.67334
    ]
   },
   "properties": {
    "id": "EST-BLANES",
    "name": "Blanes",
    "province": "Girona",
    "marker-symbol": "rail",
    "marker-size": "small",
    "marker-color": "#63B5E5"
   }
  },
  {
   "type": "Feature",
   "geometry": {
    "type": "Point",
    "coordinates": [
     2.71948,
     41.70705
    ]
   },
   "properties": {
    "id": "EST-TORDERA",
    "name": "Tordera",
    "province": "Barcelona",
    "marker-symbol": "rail",
    "marker-size": "small",
    "marker-color": "#63B5E5"
   }
  },
  {
   "type": "Feature",
   "geometry": {
    "type": "Point",
    "coordinates": [
     2.67338,
     41.77217
    ]
   },
   "properties": {
    "id": "EST-MACANETMASSANES",
    "name": "Maçanet-Massanes",
    "province": "Girona",
    "marker-symbol": "rail",
    "marker-size": "small",
    "marker-color": "#63B5E5"
   }
  }
 ]
}