{
 "type": "FeatureCollection",
 "features": [
  {
   "type": "Feature",
   "geometry": {
    "type": "LineString",
    "coordinates": [
     [
      2.14952,
      41.37557
     ],
     [
      2.13937,
      41.36786
     ],
     [
      2.13017,
      41.36116
     ],
     [
      2.11707,
      41.35478
     ],
     [
      2.11036,
      41.36095
     ],
     [
      2.10248,
      41.35891
     ],
     [
      2.08451,
      41.35304
     ],
     [
      2.07056,
      41.35752
     ],
     [
      2.04295,
      41.34849
     ],
     [
      2.03528,
      41.35752
     ],
     [
      2.0239,
      41.3702
     ],
     [
      2.03161,
      41.3641
     ],
     [
      1.99557,
      41.42078
     ],
     [
      2.01238,
      41.3881
     ],
     [
      2.00494,
      41.39934
     ],
     [
      2.00157,
      41.40664
     ],
     [
      1.96256,
      41.45564
     ],
     [
      1.97309,
      41.44684
     ],
     [
      1.96779,
      41.47328
     ],
     [
      1.9267,
      41.47909
     ],
     [
      1.9186,
      41.48403
     ]
    ]
   },
   "properties": {
    "lid": "171",
    "name": "S8 Plaça d'Espanya - Martorell Enllaç",
    "type": "Suburbano",
    "operator": "FGC",
    "stroke": "#64A3D7",
    "stroke-width": 3,
    "stroke-opacity": 0.8,
    "total_sta": 22,
    "coords_sta": 21
   }
  },
  {
   "type": "Feature",
   "geometry": {
    "type": "Point",
    "coordinates": [
     2.14952,
     41.37557
    ]
   },
   "properties": {
    "id": "EST-ESPANYA",
    "name": "Espanya",
    "province": "Barcelona",
    "marker-symbol": "rail",
    "marker-size": "small",
    "marker-color": "#64A3D7"
   }
  },
  {
   "type": "Feature",
   "geometry": {
    "type": "Point",
    "coordinates": [
     2.13937,
     41.36786
    ]
   },
   "properties": {
    "id": "EST-MAGORIALACAMPANA",
    "name": "Magòria-La Campana",
    "province": "Barcelona",
    "marker-symbol": "rail",
    "marker-size": "small",
    "marker-color": "#64A3D7"
   }
  },
  {
   "type": "Feature",
   "geometry": {
    "type": "Point",
    "coordinates": [
     2.13017,
     41.36116
    ]
   },
   "properties": {
    "id": "EST-ILDEFONSCERDA",
    "name": "Ildefons Cerdà",
    "province": "Barcelona",
    "marker-symbol": "rail",
    "marker-size": "small",
    "marker-color": "#64A3D7"
   }
  },
  {
   "type": "Feature",
   "geometry": {
    "type": "Point",
    "coordinates": [
     2.11707,
     41.35478
    ]
   },
   "properties": {
    "id": "EST-GORNAL",
    "name": "Gornal",
    "province": "Barcelona",
    "marker-symbol": "rail",
    "marker-size": "small",
    "marker-color": "#64A3D7"
   }
  },
  {
   "type": "Feature",
   "geometry": {
    "type": "Point",
    "coordinates": [
     2.11036,
     41.36095
    ]
   },
   "properties": {
    "id": "EST-SANTJOSEP",
    "name": "Sant Josep",
    "province": "Barcelona",
    "marker-symbol": "rail",
    "marker-size": "small",
    "marker-color": "#64A3D7"
   }
  },
  {
   "type": "Feature",
   "geometry": {
    "type": "Point",
    "coordinates": [
     2.10248,
     41.35891
    ]
   },
   "properties": {
    "id": "EST-LHOSPITALETAVCARRILET",
    "name": "L'Hospitalet Av. Carrilet",
    "province": "Barcelona",
    "marker-symbol": "rail",
    "marker-size": "small",
    "marker-color": "#64A3D7"
   }
  },
  {
   "type": "Feature",
   "geometry": {
    "type": "Point",
    "coordinates": [
     2.08451,
     41.35304
    ]
   },
   "properties": {
    "id": "EST-ALMEDA",
    "name": "Almeda",
    "province": "Barcelona",
    "marker-symbol": "rail",
    "marker-size": "small",
    "marker-color": "#64A3D7"
   }
  },
  {
   "type": "Feature",
   "geometry": {
    "type": "Point",
    "coordinates": [
     2.07056,
     41.35752
    ]
   },
   "properties": {
    "id": "EST-CORNELLARIERA",
    "name": "Cornellà Riera",
    "province": "Barcelona",
    "marker-symbol": "rail",
    "marker-size": "small",
    "marker-color": "#64A3D7"
   }
  },
  {
   "type": "Feature",
   "geometry": {
    "type": "Point",
    "coordinates": [
     2.04295,
     41.34849
    ]
   },
   "properties": {
    "id": "EST-SANTBOI",
    "name": "Sant Boi",
    "province": "Barcelona",
    "marker-symbol": "rail",
    "marker-size": "small",
    "marker-color": "#64A3D7"
   }
  },
  {
   "type": "Feature",
   "geometry": {
    "type": "Point",
    "coordinates": [
     2.03528,
     41.35752
    ]
   },
   "properties": {
    "id": "EST-MOLINOUCIUTATCOOPERATIVA",
    "name": "Molí Nou-Ciutat Cooperativa",
    "province": "Barcelona",
    "marker-symbol": "rail",
    "marker-size": "small",
    "marker-color": "#64A3D7"
   }
  },
  {
   "type": "Feature",
   "geometry": {
    "type": "Point",
    "coordinates": [
     2.0239,
     41.3702
    ]
   },
   "properties": {
    "id": "EST-SANTACOLOMADECERVELLO",
    "name": "Santa Coloma de Cervelló",
    "province": "Barcelona",
    "marker-symbol": "rail",
    "marker-size": "small",
    "marker-color": "#64A3D7"
   }
  },
  {
   "type": "Feature",
   "geometry": {
    "type": "Point",
    "coordinates": [
     2.03161,
     41.3641
    ]
   },
   "properties": {
    "id": "EST-COLONIAGUELL",
    "name": "Colònia Güell",
    "province": "Barcelona",
    "marker-symbol": "rail",
    "marker-size": "small",
    "marker-color": "#64A3D7"
   }
  },
  {
   "type": "Feature",
   "geometry": {
    "type": "Point",
    "coordinates": [
     1.99557,
     41.42078
    ]
   },
   "properties": {
    "id": "EST-PALLEJA",
    "name": "Pallejà",
    "province": "Barcelona",
    "marker-symbol": "rail",
    "marker-size": "small",
    "marker-color": "#64A3D7"
   }
  },
  {
   "type": "Feature",
   "geometry": {
    "type": "Point",
    "coordinates": [
     2.01238,
     41.3881
    ]
   },
   "properties": {
    "id": "EST-SANTVICENCDELSHORTS",
    "name": "Sant Vicenç dels Horts",
    "province": "Barcelona",
    "marker-symbol": "rail",
    "marker-size": "small",
    "marker-color": "#64A3D7"
   }
  },
  {
   "type": "Feature",
   "geometry": {
    "type": "Point",
    "coordinates": [
     2.00494,
     41.39934
    ]
   },
   "properties": {
    "id": "EST-CANROS",
    "name": "Can Ros",
    "province": "Barcelona",
    "marker-symbol": "rail",
    "marker-size": "small",
    "marker-color": "#64A3D7"
   }
  },
  {
   "type": "Feature",
   "geometry": {
    "type": "Point",
    "coordinates": [
     2.00157,
     41.40664
    ]
   },
   "properties": {
    "id": "EST-QUATRECAMINS",
    "name": "Quatre Camins",
    "province": "Barcelona",
    "marker-symbol": "rail",
    "marker-size": "small",
    "marker-color": "#64A3D7"
   }
  },
  {
   "type": "Feature",
   "geometry": {
    "type": "Point",
    "coordinates": [
     1.96256,
     41.45564
    ]
   },
   "properties": {
    "id": "EST-ELPALAU",
    "name": "El Palau",
    "province": "Barcelona",
    "marker-symbol": "rail",
    "marker-size": "small",
    "marker-color": "#64A3D7"
   }
  },
  {
   "type": "Feature",
   "geometry": {
    "type": "Point",
    "coordinates": [
     1.97309,
     41.44684
    ]
   },
   "properties": {
    "id": "EST-SANTANDREUDELABARCA",
    "name": "Sant Andreu de la Barca",
    "province": "Barcelona",
    "marker-symbol": "rail",
    "marker-size": "small",
    "marker-color": "#64A3D7"
   }
  },
  {
   "type": "Feature",
   "geometry": {
    "type": "Point",
    "coordinates": [
     1.96779,
     41.47328
    ]
   },
   "properties": {
    "id": "EST-MARTORELLVILACASTELLBISBAL",
    "name": "Martorell Vila | Castellbisbal",
    "province": "Barcelona",
    "marker-symbol": "rail",
    "marker-size": "small",
    "marker-color": "#64A3D7"
   }
  },
  {
   "type": "Feature",
   "geometry": {
    "type": "Point",
    "coordinates": [
     1.9267,
     41.47909
    ]
   },
   "properties": {
    "id": "EST-MARTORELLCENTRAL",
    "name": "Martorell Central",
    "province": "Barcelona",
    "marker-symbol": "rail",
    "marker-size": "small",
    "marker-color": "#64A3D7"
   }
  },
  {
   "type": "Feature",
   "geometry": {
    "type": "Point",
    "coordinates": [
     1.9186,
     41.48403
    ]
   },
   "properties": {
    "id": "EST-MARTORELLENLLAC",
    "name": "Martorell Enllaç",
    "province": "Barcelona",
    "marker-symbol": "rail",
    "marker-size": "small",
    "marker-color": "#64A3D7"
   }
  }
 ]
}