{
 "type": "FeatureCollection",
 "features": [
  {
   "type": "Feature",
   "geometry": {
    "type": "LineString",
    "coordinates": [
     [
      2.14952,
      41.37557
     ],
     [
      2.13937,
      41.36786
     ],
     [
      2.13017,
      41.36116
     ],
     [
      2.11707,
      41.35478
     ],
     [
      2.11036,
      41.36095
     ],
     [
      2.10248,
      41.35891
     ],
     [
      2.08451,
      41.35304
     ],
     [
      2.07056,
      41.35752
     ],
     [
      2.04295,
      41.34849
     ],
     [
      2.03528,
      41.35752
     ]
    ]
   },
   "properties": {
    "lid": "180",
    "name": "L8 Barcelona Plaça d'Espanya - Molí Nou",
    "type": "Metro",
    "operator": "FGC",
    "stroke": "#F37021",
    "stroke-width": 3,
    "stroke-opacity": 0.8,
    "total_sta": 11,
    "coords_sta": 10
   }
  },
  {
   "type": "Feature",
   "geometry": {
    "type": "Point",
    "coordinates": [
     2.14952,
     41.37557
    ]
   },
   "properties": {
    "id": "EST-ESPANYA",
    "name": "Espanya",
    "province": "Barcelona",
    "marker-symbol": "rail",
    "marker-size": "small",
    "marker-color": "#F37021"
   }
  },
  {
   "type": "Feature",
   "geometry": {
    "type": "Point",
    "coordinates": [
     2.13937,
     41.36786
    ]
   },
   "properties": {
    "id": "EST-MAGORIALACAMPANA",
    "name": "Magòria-La Campana",
    "province": "Barcelona",
    "marker-symbol": "rail",
    "marker-size": "small",
    "marker-color": "#F37021"
   }
  },
  {
   "type": "Feature",
   "geometry": {
    "type": "Point",
    "coordinates": [
     2.13017,
     41.36116
    ]
   },
   "properties": {
    "id": "EST-ILDEFONSCERDA",
    "name": "Ildefons Cerdà",
    "province": "Barcelona",
    "marker-symbol": "rail",
    "marker-size": "small",
    "marker-color": "#F37021"
   }
  },
  {
   "type": "Feature",
   "geometry": {
    "type": "Point",
    "coordinates": [
     2.11707,
     41.35478
    ]
   },
   "properties": {
    "id": "EST-GORNAL",
    "name": "Gornal",
    "province": "Barcelona",
    "marker-symbol": "rail",
    "marker-size": "small",
    "marker-color": "#F37021"
   }
  },
  {
   "type": "Feature",
   "geometry": {
    "type": "Point",
    "coordinates": [
     2.11036,
     41.36095
    ]
   },
   "properties": {
    "id": "EST-SANTJOSEP",
    "name": "Sant Josep",
    "province": "Barcelona",
    "marker-symbol": "rail",
    "marker-size": "small",
    "marker-color": "#F37021"
   }
  },
  {
   "type": "Feature",
   "geometry": {
    "type": "Point",
    "coordinates": [
     2.10248,
     41.35891
    ]
   },
   "properties": {
    "id": "EST-LHOSPITALETAVCARRILET",
    "name": "L'Hospitalet Av. Carrilet",
    "province": "Barcelona",
    "marker-symbol": "rail",
    "marker-size": "small",
    "marker-color": "#F37021"
   }
  },
  {
   "type": "Feature",
   "geometry": {
    "type": "Point",
    "coordinates": [
     2.08451,
     41.35304
    ]
   },
   "properties": {
    "id": "EST-ALMEDA",
    "name": "Almeda",
    "province": "Barcelona",
    "marker-symbol": "rail",
    "marker-size": "small",
    "marker-color": "#F37021"
   }
  },
  {
   "type": "Feature",
   "geometry": {
    "type": "Point",
    "coordinates": [
     2.07056,
     41.35752
    ]
   },
   "properties": {
    "id": "EST-CORNELLARIERA",
    "name": "Cornellà Riera",
    "province": "Barcelona",
    "marker-symbol": "rail",
    "marker-size": "small",
    "marker-color": "#F37021"
   }
  },
  {
   "type": "Feature",
   "geometry": {
    "type": "Point",
    "coordinates": [
     2.04295,
     41.34849
    ]
   },
   "properties": {
    "id": "EST-SANTBOI",
    "name": "Sant Boi",
    "province": "Barcelona",
    "marker-symbol": "rail",
    "marker-size": "small",
    "marker-color": "#F37021"
   }
  },
  {
   "type": "Feature",
   "geometry": {
    "type": "Point",
    "coordinates": [
     2.03528,
     41.35752
    ]
   },
   "properties": {
    "id": "EST-MOLINOUCIUTATCOOPERATIVA",
    "name": "Molí Nou-Ciutat Cooperativa",
    "province": "Barcelona",
    "marker-symbol": "rail",
    "marker-size": "small",
    "marker-color": "#F37021"
   }
  }
 ]
}