{
 "type": "FeatureCollection",
 "features": [
  {
   "type": "Feature",
   "geometry": {
    "type": "LineString",
    "coordinates": [
     [
      -6.294,
      36.537
     ],
     [
      -6.28062,
      36.52139
     ],
     [
      -6.27696,
      36.5135
     ],
     [
      -6.27205,
      36.50292
     ],
     [
      -6.26811,
      36.49436
     ],
     [
      -6.19402,
      36.47588
     ],
     [
      -6.20688,
      36.46792
     ],
     [
      -6.1853,
      36.53083
     ],
     [
      -6.19845,
      36.54413
     ],
     [
      -6.21605,
      36.58471
     ],
     [
      -6.217,
      36.6042
     ],
     [
      -6.1261,
      36.67981
     ],
     [
      -6.06645,
      36.75123
     ]
    ]
   },
   "properties": {
    "lid": "236",
    "name": "C-1 Cádiz - Jerez de la Frontera",
    "type": "Cercanías",
    "operator": "Renfe",
    "stroke": "#EC1C24",
    "stroke-width": 3,
    "stroke-opacity": 0.8,
    "total_sta": 13,
    "coords_sta": 13
   }
  },
  {
   "type": "Feature",
   "geometry": {
    "type": "Point",
    "coordinates": [
     -6.294,
     36.537
    ]
   },
   "properties": {
    "id": "EST-CADIZ",
    "name": "Cádiz",
    "province": "Cádiz",
    "marker-symbol": "rail",
    "marker-size": "small",
    "marker-color": "#EC1C24"
   }
  },
  {
   "type": "Feature",
   "geometry": {
    "type": "Point",
    "coordinates": [
     -6.28062,
     36.52139
    ]
   },
   "properties": {
    "id": "EST-SANSEVERIANO",
    "name": "San Severiano",
    "province": "Cádiz",
    "marker-symbol": "rail",
    "marker-size": "small",
    "marker-color": "#EC1C24"
   }
  },
  {
   "type": "Feature",
   "geometry": {
    "type": "Point",
    "coordinates": [
     -6.27696,
     36.5135
    ]
   },
   "properties": {
    "id": "EST-SEGUNDAAGUADA",
    "name": "Segunda Aguada",
    "province": "Cádiz",
    "marker-symbol": "rail",
    "marker-size": "small",
    "marker-color": "#EC1C24"
   }
  },
  {
   "type": "Feature",
   "geometry": {
    "type": "Point",
    "coordinates": [
     -6.27205,
     36.50292
    ]
   },
   "properties": {
    "id": "EST-ESTADIO",
    "name": "Estadio",
    "province": "Cádiz",
    "marker-symbol": "rail",
    "marker-size": "small",
    "marker-color": "#EC1C24"
   }
  },
  {
   "type": "Feature",
   "geometry": {
    "type": "Point",
    "coordinates": [
     -6.26811,
     36.49436
    ]
   },
   "properties": {
    "id": "EST-CORTADURA",
    "name": "Cortadura",
    "province": "Cádiz",
    "marker-symbol": "rail",
    "marker-size": "small",
    "marker-color": "#EC1C24"
   }
  },
  {
   "type": "Feature",
   "geometry": {
    "type": "Point",
    "coordinates": [
     -6.19402,
     36.47588
    ]
   },
   "properties": {
    "id": "EST-SANFERNANDOCENTRO",
    "name": "San Fernando-Centro",
    "province": "Cádiz",
    "marker-symbol": "rail",
    "marker-size": "small",
    "marker-color": "#EC1C24"
   }
  },
  {
   "type": "Feature",
   "geometry": {
    "type": "Point",
    "coordinates": [
     -6.20688,
     36.46792
    ]
   },
   "properties": {
    "id": "EST-SANFERNANDOBAHIASUR",
    "name": "San Fernando-Bahía Sur",
    "province": "Cádiz",
    "marker-symbol": "rail",
    "marker-size": "small",
    "marker-color": "#EC1C24"
   }
  },
  {
   "type": "Feature",
   "geometry": {
    "type": "Point",
    "coordinates": [
     -6.1853,
     36.53083
    ]
   },
   "properties": {
    "id": "EST-PUERTOREAL",
    "name": "Puerto Real",
    "province": "Cádiz",
    "marker-symbol": "rail",
    "marker-size": "small",
    "marker-color": "#EC1C24"
   }
  },
  {
   "type": "Feature",
   "geometry": {
    "type": "Point",
    "coordinates": [
     -6.19845,
     36.54413
    ]
   },
   "properties": {
    "id": "EST-LASALETAS",
    "name": "Las Aletas",
    "province": "Cádiz",
    "marker-symbol": "rail",
    "marker-size": "small",
    "marker-color": "#EC1C24"
   }
  },
  {
   "type": "Feature",
   "geometry": {
    "type": "Point",
    "coordinates": [
     -6.21605,
     36.58471
    ]
   },
   "properties": {
    "id": "EST-VALDELAGRANA",
    "name": "Valdelagrana",
    "province": "Cádiz",
    "marker-symbol": "rail",
    "marker-size": "small",
    "marker-color": "#EC1C24"
   }
  },
  {
   "type": "Feature",
   "geometry": {
    "type": "Point",
    "coordinates": [
     -6.217,
     36.6042
    ]
   },
   "properties": {
    "id": "EST-ELPUERTODESANTAMARIA",
    "name": "El Puerto de Santa María",
    "province": "Cádiz",
    "marker-symbol": "rail",
    "marker-size": "small",
    "marker-color": "#EC1C24"
   }
  },
  {
   "type": "Feature",
   "geometry": {
    "type": "Point",
    "coordinates": [
     -6.1261,
     36.67981
    ]
   },
   "properties": {
    "id": "EST-JEREZDELAFRONTERA",
    "name": "Jerez de la Frontera",
    "province": "Cádiz",
    "marker-symbol": "rail",
    "marker-size": "small",
    "marker-color": "#EC1C24"
   }
  },
  {
   "type": "Feature",
   "geometry": {
    "type": "Point",
    "coordinates": [
     -6.06645,
     36.75123
    ]
   },
   "properties": {
    "id": "EST-AEROPUERTODEJEREZ",
    "name": "Aeropuerto de Jerez",
    "province": "Cádiz",
    "marker-symbol": "rail",
    "marker-size": "small",
    "marker-color": "#EC1C24"
   }
  }
 ]
}