{
 "type": "FeatureCollection",
 "features": [
  {
   "type": "Feature",
   "geometry": {
    "type": "LineString",
    "coordinates": [
     [
      -6.19845,
      36.54413
     ],
     [
      -6.20598,
      36.52948
     ]
    ]
   },
   "properties": {
    "lid": "237",
    "name": "C-1a Las Aletas - Universidad",
    "type": "Cercanías",
    "operator": "Renfe",
    "stroke": "#00A650",
    "stroke-width": 3,
    "stroke-opacity": 0.8,
    "total_sta": 2,
    "coords_sta": 2
   }
  },
  {
   "type": "Feature",
   "geometry": {
    "type": "Point",
    "coordinates": [
     -6.19845,
     36.54413
    ]
   },
   "properties": {
    "id": "EST-LASALETAS",
    "name": "Las Aletas",
    "province": "Cádiz",
    "marker-symbol": "rail",
    "marker-size": "small",
    "marker-color": "#00A650"
   }
  },
  {
   "type": "Feature",
   "geometry": {
    "type": "Point",
    "coordinates": [
     -6.20598,
     36.52948
    ]
   },
   "properties": {
    "id": "EST-UNIVERSIDADCADIZ",
    "name": "Universidad",
    "province": "Cádiz",
    "marker-symbol": "rail",
    "marker-size": "small",
    "marker-color": "#00A650"
   }
  }
 ]
}