{
 "type": "FeatureCollection",
 "features": [
  {
   "type": "Feature",
   "geometry": {
    "type": "LineString",
    "coordinates": [
     [
      -2.02026,
      43.27095
     ],
     [
      -2.00743,
      43.27876
     ],
     [
      -1.99463,
      43.29182
     ],
     [
      -2.0007,
      43.30243
     ],
     [
      -1.98153,
      43.31268
     ],
     [
      -1.97481,
      43.30226
     ],
     [
      -1.96796,
      43.31049
     ],
     [
      -1.95487,
      43.31423
     ],
     [
      -1.93671,
      43.31962
     ],
     [
      -1.91707,
      43.31898
     ],
     [
      -1.90644,
      43.31239
     ],
     [
      -1.89869,
      43.31101
     ],
     [
      -1.88885,
      43.30826
     ],
     [
      -1.87916,
      43.30862
     ],
     [
      -1.8576,
      43.32676
     ],
     [
      -1.81706,
      43.33036
     ],
     [
      -1.80058,
      43.33921
     ],
     [
      -1.80058,
      43.33921
     ],
     [
      -1.80058,
      43.33921
     ],
     [
      -1.79156,
      43.36803
     ]
    ]
   },
   "properties": {
    "lid": "261",
    "name": "E2 Lasarte - Donostia - Hendaia",
    "type": "Suburbano",
    "operator": "Euskotren",
    "stroke": "#1D70B8",
    "stroke-width": 3,
    "stroke-opacity": 0.8,
    "total_sta": 20,
    "coords_sta": 20
   }
  },
  {
   "type": "Feature",
   "geometry": {
    "type": "Point",
    "coordinates": [
     -2.02026,
     43.27095
    ]
   },
   "properties": {
    "id": "EST-LASARTEORIA",
    "name": "Lasarte-Oria",
    "province": "Gipuzkoa",
    "marker-symbol": "rail",
    "marker-size": "small",
    "marker-color": "#1D70B8"
   }
  },
  {
   "type": "Feature",
   "geometry": {
    "type": "Point",
    "coordinates": [
     -2.00743,
     43.27876
    ]
   },
   "properties": {
    "id": "EST-ERREKALDEDONOSTIA",
    "name": "Errekalde-Donostia",
    "province": "Gipuzkoa",
    "marker-symbol": "rail",
    "marker-size": "small",
    "marker-color": "#1D70B8"
   }
  },
  {
   "type": "Feature",
   "geometry": {
    "type": "Point",
    "coordinates": [
     -1.99463,
     43.29182
    ]
   },
   "properties": {
    "id": "EST-ANORGADONOSTIA",
    "name": "Añorga-Donostia",
    "province": "Gipuzkoa",
    "marker-symbol": "rail",
    "marker-size": "small",
    "marker-color": "#1D70B8"
   }
  },
  {
   "type": "Feature",
   "geometry": {
    "type": "Point",
    "coordinates": [
     -2.0007,
     43.30243
    ]
   },
   "properties": {
    "id": "EST-LUGARITZDONOSTIA",
    "name": "Lugaritz-Donostia",
    "province": "Gipuzkoa",
    "marker-symbol": "rail",
    "marker-size": "small",
    "marker-color": "#1D70B8"
   }
  },
  {
   "type": "Feature",
   "geometry": {
    "type": "Point",
    "coordinates": [
     -1.98153,
     43.31268
    ]
   },
   "properties": {
    "id": "EST-AMARADONOSTIA",
    "name": "Amara-Donostia",
    "province": "Gipuzkoa",
    "marker-symbol": "rail",
    "marker-size": "small",
    "marker-color": "#1D70B8"
   }
  },
  {
   "type": "Feature",
   "geometry": {
    "type": "Point",
    "coordinates": [
     -1.97481,
     43.30226
    ]
   },
   "properties": {
    "id": "EST-ANOETADONOSTIA-Gipuzkoa-DonostiaSanSebastin",
    "name": "Anoeta-Donostia",
    "province": "Gipuzkoa",
    "marker-symbol": "rail",
    "marker-size": "small",
    "marker-color": "#1D70B8"
   }
  },
  {
   "type": "Feature",
   "geometry": {
    "type": "Point",
    "coordinates": [
     -1.96796,
     43.31049
    ]
   },
   "properties": {
    "id": "EST-LOIOLADONOSTIA",
    "name": "Loiola-Donostia",
    "province": "Gipuzkoa",
    "marker-symbol": "rail",
    "marker-size": "small",
    "marker-color": "#1D70B8"
   }
  },
  {
   "type": "Feature",
   "geometry": {
    "type": "Point",
    "coordinates": [
     -1.95487,
     43.31423
    ]
   },
   "properties": {
    "id": "EST-INTXAURRONDODONOSTIA",
    "name": "Intxaurrondo-Donostia",
    "province": "Gipuzkoa",
    "marker-symbol": "rail",
    "marker-size": "small",
    "marker-color": "#1D70B8"
   }
  },
  {
   "type": "Feature",
   "geometry": {
    "type": "Point",
    "coordinates": [
     -1.93671,
     43.31962
    ]
   },
   "properties": {
    "id": "EST-HERRERADONOSTIA",
    "name": "Herrera-Donostia",
    "province": "Gipuzkoa",
    "marker-symbol": "rail",
    "marker-size": "small",
    "marker-color": "#1D70B8"
   }
  },
  {
   "type": "Feature",
   "geometry": {
    "type": "Point",
    "coordinates": [
     -1.91707,
     43.31898
    ]
   },
   "properties": {
    "id": "EST-PASAIA",
    "name": "Pasaia",
    "province": "Gipuzkoa",
    "marker-symbol": "rail",
    "marker-size": "small",
    "marker-color": "#1D70B8"
   }
  },
  {
   "type": "Feature",
   "geometry": {
    "type": "Point",
    "coordinates": [
     -1.90644,
     43.31239
    ]
   },
   "properties": {
    "id": "EST-GALTZARABORDAERRENTERIA",
    "name": "Galtzaraborda-Errenteria",
    "province": "Gipuzkoa",
    "marker-symbol": "rail",
    "marker-size": "small",
    "marker-color": "#1D70B8"
   }
  },
  {
   "type": "Feature",
   "geometry": {
    "type": "Point",
    "coordinates": [
     -1.89869,
     43.31101
    ]
   },
   "properties": {
    "id": "EST-ERRENTERIA",
    "name": "Errenteria",
    "province": "Gipuzkoa",
    "marker-symbol": "rail",
    "marker-size": "small",
    "marker-color": "#1D70B8"
   }
  },
  {
   "type": "Feature",
   "geometry": {
    "type": "Point",
    "coordinates": [
     -1.88885,
     43.30826
    ]
   },
   "properties": {
    "id": "EST-FANDERIAERRENTERIA",
    "name": "Fanderia-Errenteria",
    "province": "Gipuzkoa",
    "marker-symbol": "rail",
    "marker-size": "small",
    "marker-color": "#1D70B8"
   }
  },
  {
   "type": "Feature",
   "geometry": {
    "type": "Point",
    "coordinates": [
     -1.87916,
     43.30862
    ]
   },
   "properties": {
    "id": "EST-OIARTZUN",
    "name": "Oiartzun",
    "province": "Gipuzkoa",
    "marker-symbol": "rail",
    "marker-size": "small",
    "marker-color": "#1D70B8"
   }
  },
  {
   "type": "Feature",
   "geometry": {
    "type": "Point",
    "coordinates": [
     -1.8576,
     43.32676
    ]
   },
   "properties": {
    "id": "EST-GAINTXURIZKETALEZO",
    "name": "Gaintxurizketa-Lezo",
    "province": "Gipuzkoa",
    "marker-symbol": "rail",
    "marker-size": "small",
    "marker-color": "#1D70B8"
   }
  },
  {
   "type": "Feature",
   "geometry": {
    "type": "Point",
    "coordinates": [
     -1.81706,
     43.33036
    ]
   },
   "properties": {
    "id": "EST-BENTAKIRUN",
    "name": "Bentak-Irun",
    "province": "Gipuzkoa",
    "marker-symbol": "rail",
    "marker-size": "small",
    "marker-color": "#1D70B8"
   }
  },
  {
   "type": "Feature",
   "geometry": {
    "type": "Point",
    "coordinates": [
     -1.80058,
     43.33921
    ]
   },
   "properties": {
    "id": "EST-BELASKOENEAIRUN",
    "name": "Belaskoenea-Irun",
    "province": "Gipuzkoa",
    "marker-symbol": "rail",
    "marker-size": "small",
    "marker-color": "#1D70B8"
   }
  },
  {
   "type": "Feature",
   "geometry": {
    "type": "Point",
    "coordinates": [
     -1.80058,
     43.33921
    ]
   },
   "properties": {
    "id": "EST-IRUN",
    "name": "Irún",
    "province": "Gipuzkoa",
    "marker-symbol": "rail",
    "marker-size": "small",
    "marker-color": "#1D70B8"
   }
  },
  {
   "type": "Feature",
   "geometry": {
    "type": "Point",
    "coordinates": [
     -1.80058,
     43.33921
    ]
   },
   "properties": {
    "id": "EST-FICOBAIRUN",
    "name": "Ficoba-Irun",
    "province": "Gipuzkoa",
    "marker-symbol": "rail",
    "marker-size": "small",
    "marker-color": "#1D70B8"
   }
  },
  {
   "type": "Feature",
   "geometry": {
    "type": "Point",
    "coordinates": [
     -1.79156,
     43.36803
    ]
   },
   "properties": {
    "id": "EST-HENDAIA",
    "name": "Hendaia",
    "province": "Francia",
    "marker-symbol": "rail",
    "marker-size": "small",
    "marker-color": "#1D70B8"
   }
  }
 ]
}