{
 "type": "FeatureCollection",
 "features": [
  {
   "type": "Feature",
   "geometry": {
    "type": "LineString",
    "coordinates": [
     [
      -2.89774,
      43.24387
     ],
     [
      -2.89869,
      43.25869
     ],
     [
      -2.90643,
      43.25916
     ],
     [
      -2.91372,
      43.26373
     ],
     [
      -2.92182,
      43.26017
     ],
     [
      -2.91995,
      43.26684
     ],
     [
      -2.92546,
      43.26903
     ],
     [
      -2.92823,
      43.29831
     ],
     [
      -2.92823,
      43.29831
     ],
     [
      -2.91581,
      43.29434
     ],
     [
      -2.90599,
      43.29444
     ],
     [
      -2.88744,
      43.29089
     ],
     [
      -2.87469,
      43.28673
     ],
     [
      -2.8652,
      43.28426
     ],
     [
      -2.84635,
      43.27659
     ],
     [
      -2.83578,
      43.27345
     ]
    ]
   },
   "properties": {
    "lid": "262",
    "name": "E3 Kukullaga - Lezama",
    "type": "Suburbano",
    "operator": "Euskotren",
    "stroke": "#8CB924",
    "stroke-width": 3,
    "stroke-opacity": 0.8,
    "total_sta": 16,
    "coords_sta": 16
   }
  },
  {
   "type": "Feature",
   "geometry": {
    "type": "Point",
    "coordinates": [
     -2.89774,
     43.24387
    ]
   },
   "properties": {
    "id": "EST-KUKULLAGAETXEBARRI",
    "name": "Kukullaga-Etxebarri",
    "province": "Bizkaia",
    "marker-symbol": "rail",
    "marker-size": "small",
    "marker-color": "#8CB924"
   }
  },
  {
   "type": "Feature",
   "geometry": {
    "type": "Point",
    "coordinates": [
     -2.89869,
     43.25869
    ]
   },
   "properties": {
    "id": "EST-OTXARKOAGABILBAO",
    "name": "Otxarkoaga-Bilbao",
    "province": "Bizkaia",
    "marker-symbol": "rail",
    "marker-size": "small",
    "marker-color": "#8CB924"
   }
  },
  {
   "type": "Feature",
   "geometry": {
    "type": "Point",
    "coordinates": [
     -2.90643,
     43.25916
    ]
   },
   "properties": {
    "id": "EST-TXURDINAGABILBAO",
    "name": "Txurdinaga-Bilbao",
    "province": "Bizkaia",
    "marker-symbol": "rail",
    "marker-size": "small",
    "marker-color": "#8CB924"
   }
  },
  {
   "type": "Feature",
   "geometry": {
    "type": "Point",
    "coordinates": [
     -2.91372,
     43.26373
    ]
   },
   "properties": {
    "id": "EST-ZURBARANBARRIBILBAO",
    "name": "Zurbaranbarri-Bilbao",
    "province": "Bizkaia",
    "marker-symbol": "rail",
    "marker-size": "small",
    "marker-color": "#8CB924"
   }
  },
  {
   "type": "Feature",
   "geometry": {
    "type": "Point",
    "coordinates": [
     -2.92182,
     43.26017
    ]
   },
   "properties": {
    "id": "EST-ZAZPIKALEAKCASCOVIEJO",
    "name": "Zazpikaleak-Casco Viejo",
    "province": "Bizkaia",
    "marker-symbol": "rail",
    "marker-size": "small",
    "marker-color": "#8CB924"
   }
  },
  {
   "type": "Feature",
   "geometry": {
    "type": "Point",
    "coordinates": [
     -2.91995,
     43.26684
    ]
   },
   "properties": {
    "id": "EST-URIBARRIBILBAO",
    "name": "Uribarri-Bilbao",
    "province": "Bizkaia",
    "marker-symbol": "rail",
    "marker-size": "small",
    "marker-color": "#8CB924"
   }
  },
  {
   "type": "Feature",
   "geometry": {
    "type": "Point",
    "coordinates": [
     -2.92546,
     43.26903
    ]
   },
   "properties": {
    "id": "EST-MATIKOBILBAO",
    "name": "Matiko-Bilbao",
    "province": "Bizkaia",
    "marker-symbol": "rail",
    "marker-size": "small",
    "marker-color": "#8CB924"
   }
  },
  {
   "type": "Feature",
   "geometry": {
    "type": "Point",
    "coordinates": [
     -2.92823,
     43.29831
    ]
   },
   "properties": {
    "id": "EST-OLASONDIKA",
    "name": "Ola-Sondika",
    "province": "Bizkaia",
    "marker-symbol": "rail",
    "marker-size": "small",
    "marker-color": "#8CB924"
   }
  },
  {
   "type": "Feature",
   "geometry": {
    "type": "Point",
    "coordinates": [
     -2.92823,
     43.29831
    ]
   },
   "properties": {
    "id": "EST-SONDIKA",
    "name": "Sondika",
    "province": "Bizkaia",
    "marker-symbol": "rail",
    "marker-size": "small",
    "marker-color": "#8CB924"
   }
  },
  {
   "type": "Feature",
   "geometry": {
    "type": "Point",
    "coordinates": [
     -2.91581,
     43.29434
    ]
   },
   "properties": {
    "id": "EST-LARRONDOLOIU",
    "name": "Larrondo-Loiu",
    "province": "Bizkaia",
    "marker-symbol": "rail",
    "marker-size": "small",
    "marker-color": "#8CB924"
   }
  },
  {
   "type": "Feature",
   "geometry": {
    "type": "Point",
    "coordinates": [
     -2.90599,
     43.29444
    ]
   },
   "properties": {
    "id": "EST-ELOTXELERRILOIU",
    "name": "Elotxelerri-Loiu",
    "province": "Bizkaia",
    "marker-symbol": "rail",
    "marker-size": "small",
    "marker-color": "#8CB924"
   }
  },
  {
   "type": "Feature",
   "geometry": {
    "type": "Point",
    "coordinates": [
     -2.88744,
     43.29089
    ]
   },
   "properties": {
    "id": "EST-DERIO",
    "name": "Derio",
    "province": "Bizkaia",
    "marker-symbol": "rail",
    "marker-size": "small",
    "marker-color": "#8CB924"
   }
  },
  {
   "type": "Feature",
   "geometry": {
    "type": "Point",
    "coordinates": [
     -2.87469,
     43.28673
    ]
   },
   "properties": {
    "id": "EST-LEKUNBIZZAMUDIO",
    "name": "Lekunbiz-Zamudio",
    "province": "Bizkaia",
    "marker-symbol": "rail",
    "marker-size": "small",
    "marker-color": "#8CB924"
   }
  },
  {
   "type": "Feature",
   "geometry": {
    "type": "Point",
    "coordinates": [
     -2.8652,
     43.28426
    ]
   },
   "properties": {
    "id": "EST-ZAMUDIO",
    "name": "Zamudio",
    "province": "Bizkaia",
    "marker-symbol": "rail",
    "marker-size": "small",
    "marker-color": "#8CB924"
   }
  },
  {
   "type": "Feature",
   "geometry": {
    "type": "Point",
    "coordinates": [
     -2.84635,
     43.27659
    ]
   },
   "properties": {
    "id": "EST-KURTZEALEZAMA",
    "name": "Kurtzea-Lezama",
    "province": "Bizkaia",
    "marker-symbol": "rail",
    "marker-size": "small",
    "marker-color": "#8CB924"
   }
  },
  {
   "type": "Feature",
   "geometry": {
    "type": "Point",
    "coordinates": [
     -2.83578,
     43.27345
    ]
   },
   "properties": {
    "id": "EST-LEZAMA",
    "name": "Lezama",
    "province": "Bizkaia",
    "marker-symbol": "rail",
    "marker-size": "small",
    "marker-color": "#8CB924"
   }
  }
 ]
}