{
 "type": "FeatureCollection",
 "features": [
  {
   "type": "Feature",
   "geometry": {
    "type": "LineString",
    "coordinates": [
     [
      -2.87587,
      43.22762
     ],
     [
      -2.88203,
      43.23801
     ],
     [
      -2.89774,
      43.24387
     ],
     [
      -2.90564,
      43.24695
     ],
     [
      -2.91074,
      43.25115
     ],
     [
      -2.91329,
      43.2543
     ],
     [
      -2.92182,
      43.26017
     ],
     [
      -2.92862,
      43.25984
     ],
     [
      -2.93304,
      43.26258
     ],
     [
      -2.94186,
      43.26129
     ],
     [
      -2.9496,
      43.27155
     ],
     [
      -2.95849,
      43.27478
     ],
     [
      -2.96247,
      43.28078
     ],
     [
      -2.98248,
      43.28304
     ],
     [
      -2.98689,
      43.2897
     ],
     [
      -2.98944,
      43.29571
     ],
     [
      -2.99263,
      43.29881
     ],
     [
      -2.99261,
      43.30573
     ],
     [
      -3.00569,
      43.30917
     ],
     [
      -3.01359,
      43.31432
     ],
     [
      -3.02074,
      43.31767
     ],
     [
      -3.02537,
      43.32197
     ],
     [
      -3.03039,
      43.32851
     ],
     [
      -3.03782,
      43.32236
     ]
    ]
   },
   "properties": {
    "lid": "271",
    "name": "L2 Basauri - Kabiezes",
    "type": "Metro",
    "operator": "Metro Bilbao",
    "stroke": "#E30613",
    "stroke-width": 3,
    "stroke-opacity": 0.8,
    "total_sta": 25,
    "coords_sta": 24
   }
  },
  {
   "type": "Feature",
   "geometry": {
    "type": "Point",
    "coordinates": [
     -2.87587,
     43.22762
    ]
   },
   "properties": {
    "id": "EST-BASAURI",
    "name": "Basauri",
    "province": "Bizkaia",
    "marker-symbol": "rail",
    "marker-size": "small",
    "marker-color": "#E30613"
   }
  },
  {
   "type": "Feature",
   "geometry": {
    "type": "Point",
    "coordinates": [
     -2.88203,
     43.23801
    ]
   },
   "properties": {
    "id": "EST-ARIZ",
    "name": "Ariz",
    "province": "Bizkaia",
    "marker-symbol": "rail",
    "marker-size": "small",
    "marker-color": "#E30613"
   }
  },
  {
   "type": "Feature",
   "geometry": {
    "type": "Point",
    "coordinates": [
     -2.89774,
     43.24387
    ]
   },
   "properties": {
    "id": "EST-ETXEBARRI",
    "name": "Etxebarri",
    "province": "Bizkaia",
    "marker-symbol": "rail",
    "marker-size": "small",
    "marker-color": "#E30613"
   }
  },
  {
   "type": "Feature",
   "geometry": {
    "type": "Point",
    "coordinates": [
     -2.90564,
     43.24695
    ]
   },
   "properties": {
    "id": "EST-BOLUETA",
    "name": "Bolueta",
    "province": "Bizkaia",
    "marker-symbol": "rail",
    "marker-size": "small",
    "marker-color": "#E30613"
   }
  },
  {
   "type": "Feature",
   "geometry": {
    "type": "Point",
    "coordinates": [
     -2.91074,
     43.25115
    ]
   },
   "properties": {
    "id": "EST-BASARRATE",
    "name": "Basarrate",
    "province": "Bizkaia",
    "marker-symbol": "rail",
    "marker-size": "small",
    "marker-color": "#E30613"
   }
  },
  {
   "type": "Feature",
   "geometry": {
    "type": "Point",
    "coordinates": [
     -2.91329,
     43.2543
    ]
   },
   "properties": {
    "id": "EST-SANTUTXU",
    "name": "Santutxu",
    "province": "Bizkaia",
    "marker-symbol": "rail",
    "marker-size": "small",
    "marker-color": "#E30613"
   }
  },
  {
   "type": "Feature",
   "geometry": {
    "type": "Point",
    "coordinates": [
     -2.92182,
     43.26017
    ]
   },
   "properties": {
    "id": "EST-ZAZPIKALEAKCASCOVIEJO",
    "name": "Zazpikaleak-Casco Viejo",
    "province": "Bizkaia",
    "marker-symbol": "rail",
    "marker-size": "small",
    "marker-color": "#E30613"
   }
  },
  {
   "type": "Feature",
   "geometry": {
    "type": "Point",
    "coordinates": [
     -2.92862,
     43.25984
    ]
   },
   "properties": {
    "id": "EST-ABANDO",
    "name": "Abando",
    "province": "Bizkaia",
    "marker-symbol": "rail",
    "marker-size": "small",
    "marker-color": "#E30613"
   }
  },
  {
   "type": "Feature",
   "geometry": {
    "type": "Point",
    "coordinates": [
     -2.93304,
     43.26258
    ]
   },
   "properties": {
    "id": "EST-MOYUA",
    "name": "Moyua",
    "province": "Bizkaia",
    "marker-symbol": "rail",
    "marker-size": "small",
    "marker-color": "#E30613"
   }
  },
  {
   "type": "Feature",
   "geometry": {
    "type": "Point",
    "coordinates": [
     -2.94186,
     43.26129
    ]
   },
   "properties": {
    "id": "EST-INDAUTXU",
    "name": "Indautxu",
    "province": "Bizkaia",
    "marker-symbol": "rail",
    "marker-size": "small",
    "marker-color": "#E30613"
   }
  },
  {
   "type": "Feature",
   "geometry": {
    "type": "Point",
    "coordinates": [
     -2.9496,
     43.27155
    ]
   },
   "properties": {
    "id": "EST-DEUSTU",
    "name": "Deustu",
    "province": "Bizkaia",
    "marker-symbol": "rail",
    "marker-size": "small",
    "marker-color": "#E30613"
   }
  },
  {
   "type": "Feature",
   "geometry": {
    "type": "Point",
    "coordinates": [
     -2.95849,
     43.27478
    ]
   },
   "properties": {
    "id": "EST-SARRIKO",
    "name": "Sarriko",
    "province": "Bizkaia",
    "marker-symbol": "rail",
    "marker-size": "small",
    "marker-color": "#E30613"
   }
  },
  {
   "type": "Feature",
   "geometry": {
    "type": "Point",
    "coordinates": [
     -2.96247,
     43.28078
    ]
   },
   "properties": {
    "id": "EST-SANIGNAZIO",
    "name": "San Ignazio",
    "province": "Bizkaia",
    "marker-symbol": "rail",
    "marker-size": "small",
    "marker-color": "#E30613"
   }
  },
  {
   "type": "Feature",
   "geometry": {
    "type": "Point",
    "coordinates": [
     -2.98248,
     43.28304
    ]
   },
   "properties": {
    "id": "EST-GURUTZETACRUCES",
    "name": "Gurutzeta-Cruces",
    "province": "Bizkaia",
    "marker-symbol": "rail",
    "marker-size": "small",
    "marker-color": "#E30613"
   }
  },
  {
   "type": "Feature",
   "geometry": {
    "type": "Point",
    "coordinates": [
     -2.98689,
     43.2897
    ]
   },
   "properties": {
    "id": "EST-ANSIO",
    "name": "Ansio",
    "province": "Bizkaia",
    "marker-symbol": "rail",
    "marker-size": "small",
    "marker-color": "#E30613"
   }
  },
  {
   "type": "Feature",
   "geometry": {
    "type": "Point",
    "coordinates": [
     -2.98944,
     43.29571
    ]
   },
   "properties": {
    "id": "EST-BARAKALDO",
    "name": "Barakaldo",
    "province": "Bizkaia",
    "marker-symbol": "rail",
    "marker-size": "small",
    "marker-color": "#E30613"
   }
  },
  {
   "type": "Feature",
   "geometry": {
    "type": "Point",
    "coordinates": [
     -2.99263,
     43.29881
    ]
   },
   "properties": {
    "id": "EST-BAGATZA",
    "name": "Bagatza",
    "province": "Bizkaia",
    "marker-symbol": "rail",
    "marker-size": "small",
    "marker-color": "#E30613"
   }
  },
  {
   "type": "Feature",
   "geometry": {
    "type": "Point",
    "coordinates": [
     -2.99261,
     43.30573
    ]
   },
   "properties": {
    "id": "EST-URBINAGA",
    "name": "Urbinaga",
    "province": "Bizkaia",
    "marker-symbol": "rail",
    "marker-size": "small",
    "marker-color": "#E30613"
   }
  },
  {
   "type": "Feature",
   "geometry": {
    "type": "Point",
    "coordinates": [
     -3.00569,
     43.30917
    ]
   },
   "properties": {
    "id": "EST-SESTAO",
    "name": "Sestao",
    "province": "Bizkaia",
    "marker-symbol": "rail",
    "marker-size": "small",
    "marker-color": "#E30613"
   }
  },
  {
   "type": "Feature",
   "geometry": {
    "type": "Point",
    "coordinates": [
     -3.01359,
     43.31432
    ]
   },
   "properties": {
    "id": "EST-ABATXOLO",
    "name": "Abatxolo",
    "province": "Bizkaia",
    "marker-symbol": "rail",
    "marker-size": "small",
    "marker-color": "#E30613"
   }
  },
  {
   "type": "Feature",
   "geometry": {
    "type": "Point",
    "coordinates": [
     -3.02074,
     43.31767
    ]
   },
   "properties": {
    "id": "EST-PORTUGALETE",
    "name": "Portugalete",
    "province": "Bizkaia",
    "marker-symbol": "rail",
    "marker-size": "small",
    "marker-color": "#E30613"
   }
  },
  {
   "type": "Feature",
   "geometry": {
    "type": "Point",
    "coordinates": [
     -3.02537,
     43.32197
    ]
   },
   "properties": {
    "id": "EST-PENOTA",
    "name": "Peñota",
    "province": "Bizkaia",
    "marker-symbol": "rail",
    "marker-size": "small",
    "marker-color": "#E30613"
   }
  },
  {
   "type": "Feature",
   "geometry": {
    "type": "Point",
    "coordinates": [
     -3.03039,
     43.32851
    ]
   },
   "properties": {
    "id": "EST-SANTURTZI",
    "name": "Santurtzi",
    "province": "Bizkaia",
    "marker-symbol": "rail",
    "marker-size": "small",
    "marker-color": "#E30613"
   }
  },
  {
   "type": "Feature",
   "geometry": {
    "type": "Point",
    "coordinates": [
     -3.03782,
     43.32236
    ]
   },
   "properties": {
    "id": "EST-KABIEZES",
    "name": "Kabiezes",
    "province": "Bizkaia",
    "marker-symbol": "rail",
    "marker-size": "small",
    "marker-color": "#E30613"
   }
  }
 ]
}