{
 "type": "FeatureCollection",
 "features": [
  {
   "type": "Feature",
   "geometry": {
    "type": "LineString",
    "coordinates": [
     [
      2.65387,
      39.5768
     ],
     [
      2.66095,
      39.6203
     ],
     [
      2.69415,
      39.69745
     ],
     [
      2.71512,
      39.76468
     ]
    ]
   },
   "properties": {
    "lid": "280",
    "name": "Ferrocarril de Sóller",
    "type": "Regional Histórico",
    "operator": "Tren de Sóller S.A.",
    "stroke": "#8B5A2B",
    "stroke-width": 3,
    "stroke-opacity": 0.8,
    "total_sta": 4,
    "coords_sta": 4
   }
  },
  {
   "type": "Feature",
   "geometry": {
    "type": "Point",
    "coordinates": [
     2.65387,
     39.5768
    ]
   },
   "properties": {
    "id": "EST-PALMA",
    "name": "Palma",
    "province": "Baleares",
    "marker-symbol": "rail",
    "marker-size": "small",
    "marker-color": "#8B5A2B"
   }
  },
  {
   "type": "Feature",
   "geometry": {
    "type": "Point",
    "coordinates": [
     2.66095,
     39.6203
    ]
   },
   "properties": {
    "id": "EST-SONSARDINA",
    "name": "Son Sardina",
    "province": "Baleares",
    "marker-symbol": "rail",
    "marker-size": "small",
    "marker-color": "#8B5A2B"
   }
  },
  {
   "type": "Feature",
   "geometry": {
    "type": "Point",
    "coordinates": [
     2.69415,
     39.69745
    ]
   },
   "properties": {
    "id": "EST-BUNYOLA",
    "name": "Bunyola",
    "province": "Baleares",
    "marker-symbol": "rail",
    "marker-size": "small",
    "marker-color": "#8B5A2B"
   }
  },
  {
   "type": "Feature",
   "geometry": {
    "type": "Point",
    "coordinates": [
     2.71512,
     39.76468
    ]
   },
   "properties": {
    "id": "EST-SOLLER",
    "name": "Sóller",
    "province": "Baleares",
    "marker-symbol": "rail",
    "marker-size": "small",
    "marker-color": "#8B5A2B"
   }
  }
 ]
}