{
 "type": "FeatureCollection",
 "features": [
  {
   "type": "Feature",
   "geometry": {
    "type": "LineString",
    "coordinates": [
     [
      -3.6886,
      40.40697
     ],
     [
      -2.14369,
      40.03396
     ],
     [
      -1.13473,
      39.52175
     ],
     [
      -0.38121,
      39.46005
     ]
    ]
   },
   "properties": {
    "lid": "285",
    "name": "Avlo Madrid - Valencia",
    "type": "Avlo",
    "operator": "Renfe",
    "stroke": "#8B008B",
    "stroke-width": 3,
    "stroke-opacity": 0.8,
    "total_sta": 4,
    "coords_sta": 4
   }
  },
  {
   "type": "Feature",
   "geometry": {
    "type": "Point",
    "coordinates": [
     -3.6886,
     40.40697
    ]
   },
   "properties": {
    "id": "EST-MADRIDPUERTADEATOCHA",
    "name": "Madrid-Puerta de Atocha",
    "province": "Madrid",
    "marker-symbol": "rail",
    "marker-size": "small",
    "marker-color": "#8B008B"
   }
  },
  {
   "type": "Feature",
   "geometry": {
    "type": "Point",
    "coordinates": [
     -2.14369,
     40.03396
    ]
   },
   "properties": {
    "id": "EST-CUENCAFERNANDOZOBEL",
    "name": "Cuenca-Fernando Zóbel",
    "province": "Cuenca",
    "marker-symbol": "rail",
    "marker-size": "small",
    "marker-color": "#8B008B"
   }
  },
  {
   "type": "Feature",
   "geometry": {
    "type": "Point",
    "coordinates": [
     -1.13473,
     39.52175
    ]
   },
   "properties": {
    "id": "EST-REQUENAUTIEL",
    "name": "Requena-Utiel",
    "province": "Valencia",
    "marker-symbol": "rail",
    "marker-size": "small",
    "marker-color": "#8B008B"
   }
  },
  {
   "type": "Feature",
   "geometry": {
    "type": "Point",
    "coordinates": [
     -0.38121,
     39.46005
    ]
   },
   "properties": {
    "id": "EST-VALENCIAJOAQUINSOROLLA",
    "name": "Valencia-Joaquín Sorolla",
    "province": "Valencia",
    "marker-symbol": "rail",
    "marker-size": "small",
    "marker-color": "#8B008B"
   }
  }
 ]
}