{
 "type": "FeatureCollection",
 "features": [
  {
   "type": "Feature",
   "geometry": {
    "type": "LineString",
    "coordinates": [
     [
      -3.68226,
      40.47206
     ],
     [
      -4.92299,
      41.29133
     ],
     [
      -5.73978,
      41.516
     ],
     [
      -7.87255,
      42.35069
     ],
     [
      -7.50314,
      42.52952
     ],
     [
      -7.41365,
      42.78262
     ]
    ]
   },
   "properties": {
    "lid": "302",
    "name": "Alvia Madrid - Lugo",
    "type": "Larga Distancia",
    "operator": "Renfe",
    "stroke": "#5F259F",
    "stroke-width": 3,
    "stroke-opacity": 0.8,
    "total_sta": 7,
    "coords_sta": 6
   }
  },
  {
   "type": "Feature",
   "geometry": {
    "type": "Point",
    "coordinates": [
     -3.68226,
     40.47206
    ]
   },
   "properties": {
    "id": "EST-MADRIDCHAMARTINCLARACAMPOAMOR",
    "name": "Madrid-Chamartín-Clara Campoamor",
    "province": "Madrid",
    "marker-symbol": "rail",
    "marker-size": "small",
    "marker-color": "#5F259F"
   }
  },
  {
   "type": "Feature",
   "geometry": {
    "type": "Point",
    "coordinates": [
     -4.92299,
     41.29133
    ]
   },
   "properties": {
    "id": "EST-MEDINADELCAMPOAV",
    "name": "Medina del Campo AV",
    "province": "Valladolid",
    "marker-symbol": "rail",
    "marker-size": "small",
    "marker-color": "#5F259F"
   }
  },
  {
   "type": "Feature",
   "geometry": {
    "type": "Point",
    "coordinates": [
     -5.73978,
     41.516
    ]
   },
   "properties": {
    "id": "EST-ZAMORA",
    "name": "Zamora",
    "province": "Zamora",
    "marker-symbol": "rail",
    "marker-size": "small",
    "marker-color": "#5F259F"
   }
  },
  {
   "type": "Feature",
   "geometry": {
    "type": "Point",
    "coordinates": [
     -7.87255,
     42.35069
    ]
   },
   "properties": {
    "id": "EST-OURENSE",
    "name": "Ourense",
    "province": "Ourense",
    "marker-symbol": "rail",
    "marker-size": "small",
    "marker-color": "#5F259F"
   }
  },
  {
   "type": "Feature",
   "geometry": {
    "type": "Point",
    "coordinates": [
     -7.50314,
     42.52952
    ]
   },
   "properties": {
    "id": "EST-MONFORTEDELEMOS",
    "name": "Monforte de Lemos",
    "province": "Lugo",
    "marker-symbol": "rail",
    "marker-size": "small",
    "marker-color": "#5F259F"
   }
  },
  {
   "type": "Feature",
   "geometry": {
    "type": "Point",
    "coordinates": [
     -7.41365,
     42.78262
    ]
   },
   "properties": {
    "id": "EST-SARRIA-Lugo-Sarria",
    "name": "Sarria",
    "province": "Lugo",
    "marker-symbol": "rail",
    "marker-size": "small",
    "marker-color": "#5F259F"
   }
  }
 ]
}