{
 "type": "FeatureCollection",
 "features": [
  {
   "type": "Feature",
   "geometry": {
    "type": "LineString",
    "coordinates": [
     [
      -1.13346,
      37.97658
     ],
     [
      -0.9498,
      38.08126
     ],
     [
      -0.76676,
      38.24539
     ],
     [
      -3.68226,
      40.47206
     ],
     [
      -4.09476,
      40.91014
     ],
     [
      -4.7272,
      41.64334
     ],
     [
      -3.66632,
      42.37117
     ]
    ]
   },
   "properties": {
    "lid": "308",
    "name": "AVE Murcia del Carmen - Burgos-Rosa Manzano",
    "type": "AVE",
    "operator": "Renfe",
    "stroke": "#EC1C24",
    "stroke-width": 3,
    "stroke-opacity": 0.8,
    "total_sta": 7,
    "coords_sta": 7
   }
  },
  {
   "type": "Feature",
   "geometry": {
    "type": "Point",
    "coordinates": [
     -1.13346,
     37.97658
    ]
   },
   "properties": {
    "id": "EST-MURCIADELCARMEN",
    "name": "Murcia del Carmen",
    "province": "Murcia",
    "marker-symbol": "rail",
    "marker-size": "small",
    "marker-color": "#EC1C24"
   }
  },
  {
   "type": "Feature",
   "geometry": {
    "type": "Point",
    "coordinates": [
     -0.9498,
     38.08126
    ]
   },
   "properties": {
    "id": "EST-ORIHUELAMIGUELHERNANDEZ",
    "name": "Orihuela-Miguel Hernández",
    "province": "Alicante",
    "marker-symbol": "rail",
    "marker-size": "small",
    "marker-color": "#EC1C24"
   }
  },
  {
   "type": "Feature",
   "geometry": {
    "type": "Point",
    "coordinates": [
     -0.76676,
     38.24539
    ]
   },
   "properties": {
    "id": "EST-ELCHEAV",
    "name": "Elche AV",
    "province": "Alicante",
    "marker-symbol": "rail",
    "marker-size": "small",
    "marker-color": "#EC1C24"
   }
  },
  {
   "type": "Feature",
   "geometry": {
    "type": "Point",
    "coordinates": [
     -3.68226,
     40.47206
    ]
   },
   "properties": {
    "id": "EST-MADRIDCHAMARTINCLARACAMPOAMOR",
    "name": "Madrid-Chamartín-Clara Campoamor",
    "province": "Madrid",
    "marker-symbol": "rail",
    "marker-size": "small",
    "marker-color": "#EC1C24"
   }
  },
  {
   "type": "Feature",
   "geometry": {
    "type": "Point",
    "coordinates": [
     -4.09476,
     40.91014
    ]
   },
   "properties": {
    "id": "EST-SEGOVIAGUIOMAR",
    "name": "Segovia-Guiomar",
    "province": "Segovia",
    "marker-symbol": "rail",
    "marker-size": "small",
    "marker-color": "#EC1C24"
   }
  },
  {
   "type": "Feature",
   "geometry": {
    "type": "Point",
    "coordinates": [
     -4.7272,
     41.64334
    ]
   },
   "properties": {
    "id": "EST-VALLADOLIDCAMPOGRANDE",
    "name": "Valladolid-Campo Grande",
    "province": "Valladolid",
    "marker-symbol": "rail",
    "marker-size": "small",
    "marker-color": "#EC1C24"
   }
  },
  {
   "type": "Feature",
   "geometry": {
    "type": "Point",
    "coordinates": [
     -3.66632,
     42.37117
    ]
   },
   "properties": {
    "id": "EST-BURGOSROSADELIMA",
    "name": "Burgos-Rosa de Lima",
    "province": "Burgos",
    "marker-symbol": "rail",
    "marker-size": "small",
    "marker-color": "#EC1C24"
   }
  }
 ]
}