{
 "type": "FeatureCollection",
 "features": [
  {
   "type": "Feature",
   "geometry": {
    "type": "LineString",
    "coordinates": [
     [
      -1.13346,
      37.97658
     ],
     [
      -0.9498,
      38.08126
     ],
     [
      -0.76676,
      38.24539
     ],
     [
      -0.49606,
      38.34498
     ],
     [
      -0.86795,
      38.63227
     ],
     [
      -1.85687,
      38.99485
     ],
     [
      -2.14369,
      40.03396
     ],
     [
      -3.68226,
      40.47206
     ],
     [
      -4.7272,
      41.64334
     ]
    ]
   },
   "properties": {
    "lid": "331",
    "name": "Avlo Murcia - Valladolid",
    "type": "Avlo",
    "operator": "Renfe",
    "stroke": "#8B008B",
    "stroke-width": 3,
    "stroke-opacity": 0.8,
    "total_sta": 9,
    "coords_sta": 9
   }
  },
  {
   "type": "Feature",
   "geometry": {
    "type": "Point",
    "coordinates": [
     -1.13346,
     37.97658
    ]
   },
   "properties": {
    "id": "EST-MURCIADELCARMEN",
    "name": "Murcia del Carmen",
    "province": "Murcia",
    "marker-symbol": "rail",
    "marker-size": "small",
    "marker-color": "#8B008B"
   }
  },
  {
   "type": "Feature",
   "geometry": {
    "type": "Point",
    "coordinates": [
     -0.9498,
     38.08126
    ]
   },
   "properties": {
    "id": "EST-ORIHUELAMIGUELHERNANDEZ",
    "name": "Orihuela-Miguel Hernández",
    "province": "Alicante",
    "marker-symbol": "rail",
    "marker-size": "small",
    "marker-color": "#8B008B"
   }
  },
  {
   "type": "Feature",
   "geometry": {
    "type": "Point",
    "coordinates": [
     -0.76676,
     38.24539
    ]
   },
   "properties": {
    "id": "EST-ELCHEAV",
    "name": "Elche AV",
    "province": "Alicante",
    "marker-symbol": "rail",
    "marker-size": "small",
    "marker-color": "#8B008B"
   }
  },
  {
   "type": "Feature",
   "geometry": {
    "type": "Point",
    "coordinates": [
     -0.49606,
     38.34498
    ]
   },
   "properties": {
    "id": "EST-ALICANTERMINAL",
    "name": "Alicante-Terminal",
    "province": "Alicante",
    "marker-symbol": "rail",
    "marker-size": "small",
    "marker-color": "#8B008B"
   }
  },
  {
   "type": "Feature",
   "geometry": {
    "type": "Point",
    "coordinates": [
     -0.86795,
     38.63227
    ]
   },
   "properties": {
    "id": "EST-VILLENAAV",
    "name": "Villena AV",
    "province": "Alicante",
    "marker-symbol": "rail",
    "marker-size": "small",
    "marker-color": "#8B008B"
   }
  },
  {
   "type": "Feature",
   "geometry": {
    "type": "Point",
    "coordinates": [
     -1.85687,
     38.99485
    ]
   },
   "properties": {
    "id": "EST-ALBACETELOSLLANOS",
    "name": "Albacete-Los Llanos",
    "province": "Albacete",
    "marker-symbol": "rail",
    "marker-size": "small",
    "marker-color": "#8B008B"
   }
  },
  {
   "type": "Feature",
   "geometry": {
    "type": "Point",
    "coordinates": [
     -2.14369,
     40.03396
    ]
   },
   "properties": {
    "id": "EST-CUENCAFERNANDOZOBEL",
    "name": "Cuenca-Fernando Zóbel",
    "province": "Cuenca",
    "marker-symbol": "rail",
    "marker-size": "small",
    "marker-color": "#8B008B"
   }
  },
  {
   "type": "Feature",
   "geometry": {
    "type": "Point",
    "coordinates": [
     -3.68226,
     40.47206
    ]
   },
   "properties": {
    "id": "EST-MADRIDCHAMARTINCLARACAMPOAMOR",
    "name": "Madrid-Chamartín-Clara Campoamor",
    "province": "Madrid",
    "marker-symbol": "rail",
    "marker-size": "small",
    "marker-color": "#8B008B"
   }
  },
  {
   "type": "Feature",
   "geometry": {
    "type": "Point",
    "coordinates": [
     -4.7272,
     41.64334
    ]
   },
   "properties": {
    "id": "EST-VALLADOLIDCAMPOGRANDE",
    "name": "Valladolid-Campo Grande",
    "province": "Valladolid",
    "marker-symbol": "rail",
    "marker-size": "small",
    "marker-color": "#8B008B"
   }
  }
 ]
}