{
 "type": "FeatureCollection",
 "features": [
  {
   "type": "Feature",
   "geometry": {
    "type": "LineString",
    "coordinates": [
     [
      -3.68226,
      40.47206
     ],
     [
      -3.6886,
      40.40697
     ],
     [
      -3.77236,
      40.32809
     ],
     [
      -4.28316,
      39.97881
     ],
     [
      -4.82654,
      39.97063
     ],
     [
      -5.18621,
      39.92185
     ],
     [
      -5.54565,
      39.89496
     ],
     [
      -6.09963,
      40.02226
     ],
     [
      -6.09963,
      40.02226
     ],
     [
      -6.38572,
      39.46118
     ],
     [
      -6.34305,
      38.92159
     ],
     [
      -6.59867,
      38.91358
     ],
     [
      -6.98162,
      38.89073
     ]
    ]
   },
   "properties": {
    "lid": "335",
    "name": "Alvia Madrid - Badajoz",
    "type": "Larga Distancia",
    "operator": "Renfe",
    "stroke": "#5F259F",
    "stroke-width": 3,
    "stroke-opacity": 0.8,
    "total_sta": 13,
    "coords_sta": 13
   }
  },
  {
   "type": "Feature",
   "geometry": {
    "type": "Point",
    "coordinates": [
     -3.68226,
     40.47206
    ]
   },
   "properties": {
    "id": "EST-MADRIDCHAMARTINCLARACAMPOAMOR",
    "name": "Madrid-Chamartín-Clara Campoamor",
    "province": "Madrid",
    "marker-symbol": "rail",
    "marker-size": "small",
    "marker-color": "#5F259F"
   }
  },
  {
   "type": "Feature",
   "geometry": {
    "type": "Point",
    "coordinates": [
     -3.6886,
     40.40697
    ]
   },
   "properties": {
    "id": "EST-MADRIDATOCHACERCANIAS",
    "name": "Madrid-Atocha Cercanías",
    "province": "Madrid",
    "marker-symbol": "rail",
    "marker-size": "small",
    "marker-color": "#5F259F"
   }
  },
  {
   "type": "Feature",
   "geometry": {
    "type": "Point",
    "coordinates": [
     -3.77236,
     40.32809
    ]
   },
   "properties": {
    "id": "EST-LEGANES",
    "name": "Leganés",
    "province": "Madrid",
    "marker-symbol": "rail",
    "marker-size": "small",
    "marker-color": "#5F259F"
   }
  },
  {
   "type": "Feature",
   "geometry": {
    "type": "Point",
    "coordinates": [
     -4.28316,
     39.97881
    ]
   },
   "properties": {
    "id": "EST-TORRIJOS",
    "name": "Torrijos",
    "province": "Toledo",
    "marker-symbol": "rail",
    "marker-size": "small",
    "marker-color": "#5F259F"
   }
  },
  {
   "type": "Feature",
   "geometry": {
    "type": "Point",
    "coordinates": [
     -4.82654,
     39.97063
    ]
   },
   "properties": {
    "id": "EST-TALAVERADELAREINA",
    "name": "Talavera de la Reina",
    "province": "Toledo",
    "marker-symbol": "rail",
    "marker-size": "small",
    "marker-color": "#5F259F"
   }
  },
  {
   "type": "Feature",
   "geometry": {
    "type": "Point",
    "coordinates": [
     -5.18621,
     39.92185
    ]
   },
   "properties": {
    "id": "EST-OROPESADETOLEDO",
    "name": "Oropesa de Toledo",
    "province": "Toledo",
    "marker-symbol": "rail",
    "marker-size": "small",
    "marker-color": "#5F259F"
   }
  },
  {
   "type": "Feature",
   "geometry": {
    "type": "Point",
    "coordinates": [
     -5.54565,
     39.89496
    ]
   },
   "properties": {
    "id": "EST-NAVALMORALDELAMATA",
    "name": "Navalmoral de la Mata",
    "province": "Cáceres",
    "marker-symbol": "rail",
    "marker-size": "small",
    "marker-color": "#5F259F"
   }
  },
  {
   "type": "Feature",
   "geometry": {
    "type": "Point",
    "coordinates": [
     -6.09963,
     40.02226
    ]
   },
   "properties": {
    "id": "EST-MONFRAGUEPLASENCIA",
    "name": "Monfragüe-Plasencia",
    "province": "Cáceres",
    "marker-symbol": "rail",
    "marker-size": "small",
    "marker-color": "#5F259F"
   }
  },
  {
   "type": "Feature",
   "geometry": {
    "type": "Point",
    "coordinates": [
     -6.09963,
     40.02226
    ]
   },
   "properties": {
    "id": "EST-PLASENCIA",
    "name": "Plasencia",
    "province": "Cáceres",
    "marker-symbol": "rail",
    "marker-size": "small",
    "marker-color": "#5F259F"
   }
  },
  {
   "type": "Feature",
   "geometry": {
    "type": "Point",
    "coordinates": [
     -6.38572,
     39.46118
    ]
   },
   "properties": {
    "id": "EST-CACERES",
    "name": "Cáceres",
    "province": "Cáceres",
    "marker-symbol": "rail",
    "marker-size": "small",
    "marker-color": "#5F259F"
   }
  },
  {
   "type": "Feature",
   "geometry": {
    "type": "Point",
    "coordinates": [
     -6.34305,
     38.92159
    ]
   },
   "properties": {
    "id": "EST-MERIDA",
    "name": "Mérida",
    "province": "Badajoz",
    "marker-symbol": "rail",
    "marker-size": "small",
    "marker-color": "#5F259F"
   }
  },
  {
   "type": "Feature",
   "geometry": {
    "type": "Point",
    "coordinates": [
     -6.59867,
     38.91358
    ]
   },
   "properties": {
    "id": "EST-MONTIJO",
    "name": "Montijo",
    "province": "Badajoz",
    "marker-symbol": "rail",
    "marker-size": "small",
    "marker-color": "#5F259F"
   }
  },
  {
   "type": "Feature",
   "geometry": {
    "type": "Point",
    "coordinates": [
     -6.98162,
     38.89073
    ]
   },
   "properties": {
    "id": "EST-BADAJOZ",
    "name": "Badajoz",
    "province": "Badajoz",
    "marker-symbol": "rail",
    "marker-size": "small",
    "marker-color": "#5F259F"
   }
  }
 ]
}