{
 "type": "FeatureCollection",
 "features": [
  {
   "type": "Feature",
   "geometry": {
    "type": "LineString",
    "coordinates": [
     [
      -0.91139,
      41.65857
     ],
     [
      -1.63842,
      41.34636
     ]
    ]
   },
   "properties": {
    "lid": "342",
    "name": "Avant Zaragoza - Calatayud",
    "type": "Avant",
    "operator": "Renfe",
    "stroke": "#00A650",
    "stroke-width": 3,
    "stroke-opacity": 0.8,
    "total_sta": 2,
    "coords_sta": 2
   }
  },
  {
   "type": "Feature",
   "geometry": {
    "type": "Point",
    "coordinates": [
     -0.91139,
     41.65857
    ]
   },
   "properties": {
    "id": "EST-ZARAGOZADELICIAS",
    "name": "Zaragoza-Delicias",
    "province": "Zaragoza",
    "marker-symbol": "rail",
    "marker-size": "small",
    "marker-color": "#00A650"
   }
  },
  {
   "type": "Feature",
   "geometry": {
    "type": "Point",
    "coordinates": [
     -1.63842,
     41.34636
    ]
   },
   "properties": {
    "id": "EST-CALATAYUD",
    "name": "Calatayud",
    "province": "Zaragoza",
    "marker-symbol": "rail",
    "marker-size": "small",
    "marker-color": "#00A650"
   }
  }
 ]
}