{
 "type": "FeatureCollection",
 "features": [
  {
   "type": "Feature",
   "geometry": {
    "type": "LineString",
    "coordinates": [
     [
      -4.53386,
      42.01573
     ],
     [
      -4.49627,
      41.9174
     ],
     [
      -4.54073,
      41.87124
     ],
     [
      -4.57957,
      41.80898
     ],
     [
      -4.62337,
      41.76635
     ],
     [
      -4.65127,
      41.73725
     ],
     [
      -4.70422,
      41.66016
     ],
     [
      -4.7272,
      41.64334
     ],
     [
      -4.75456,
      41.52407
     ],
     [
      -4.77295,
      41.48874
     ],
     [
      -4.80147,
      41.4219
     ],
     [
      -4.83566,
      41.36766
     ],
     [
      -4.90968,
      41.31726
     ]
    ]
   },
   "properties": {
    "lid": "347",
    "name": "Proximidad Palencia - Medina del Campo",
    "type": "Proximidad",
    "operator": "Renfe",
    "stroke": "#00A650",
    "stroke-width": 3,
    "stroke-opacity": 0.8,
    "total_sta": 13,
    "coords_sta": 13
   }
  },
  {
   "type": "Feature",
   "geometry": {
    "type": "Point",
    "coordinates": [
     -4.53386,
     42.01573
    ]
   },
   "properties": {
    "id": "EST-PALENCIA",
    "name": "Palencia",
    "province": "Palencia",
    "marker-symbol": "rail",
    "marker-size": "small",
    "marker-color": "#00A650"
   }
  },
  {
   "type": "Feature",
   "geometry": {
    "type": "Point",
    "coordinates": [
     -4.49627,
     41.9174
    ]
   },
   "properties": {
    "id": "EST-VENTADEBANOS",
    "name": "Venta de Baños",
    "province": "Palencia",
    "marker-symbol": "rail",
    "marker-size": "small",
    "marker-color": "#00A650"
   }
  },
  {
   "type": "Feature",
   "geometry": {
    "type": "Point",
    "coordinates": [
     -4.54073,
     41.87124
    ]
   },
   "properties": {
    "id": "EST-DUENAS",
    "name": "Dueñas",
    "province": "Palencia",
    "marker-symbol": "rail",
    "marker-size": "small",
    "marker-color": "#00A650"
   }
  },
  {
   "type": "Feature",
   "geometry": {
    "type": "Point",
    "coordinates": [
     -4.57957,
     41.80898
    ]
   },
   "properties": {
    "id": "EST-CUBILLASDESANTAMARTA",
    "name": "Cubillas de Santa Marta",
    "province": "Valladolid",
    "marker-symbol": "rail",
    "marker-size": "small",
    "marker-color": "#00A650"
   }
  },
  {
   "type": "Feature",
   "geometry": {
    "type": "Point",
    "coordinates": [
     -4.62337,
     41.76635
    ]
   },
   "properties": {
    "id": "EST-CORCOSAGUILAREJO",
    "name": "Corcos-Aguilarejo",
    "province": "Valladolid",
    "marker-symbol": "rail",
    "marker-size": "small",
    "marker-color": "#00A650"
   }
  },
  {
   "type": "Feature",
   "geometry": {
    "type": "Point",
    "coordinates": [
     -4.65127,
     41.73725
    ]
   },
   "properties": {
    "id": "EST-CABEZONDEPISUERGA",
    "name": "Cabezón de Pisuerga",
    "province": "Valladolid",
    "marker-symbol": "rail",
    "marker-size": "small",
    "marker-color": "#00A650"
   }
  },
  {
   "type": "Feature",
   "geometry": {
    "type": "Point",
    "coordinates": [
     -4.70422,
     41.66016
    ]
   },
   "properties": {
    "id": "EST-VALLADOLIDUNIVERSIDAD",
    "name": "Valladolid-Universidad",
    "province": "Valladolid",
    "marker-symbol": "rail",
    "marker-size": "small",
    "marker-color": "#00A650"
   }
  },
  {
   "type": "Feature",
   "geometry": {
    "type": "Point",
    "coordinates": [
     -4.7272,
     41.64334
    ]
   },
   "properties": {
    "id": "EST-VALLADOLIDCAMPOGRANDE",
    "name": "Valladolid-Campo Grande",
    "province": "Valladolid",
    "marker-symbol": "rail",
    "marker-size": "small",
    "marker-color": "#00A650"
   }
  },
  {
   "type": "Feature",
   "geometry": {
    "type": "Point",
    "coordinates": [
     -4.75456,
     41.52407
    ]
   },
   "properties": {
    "id": "EST-VIANADECEGA",
    "name": "Viana de Cega",
    "province": "Valladolid",
    "marker-symbol": "rail",
    "marker-size": "small",
    "marker-color": "#00A650"
   }
  },
  {
   "type": "Feature",
   "geometry": {
    "type": "Point",
    "coordinates": [
     -4.77295,
     41.48874
    ]
   },
   "properties": {
    "id": "EST-VALDESTILLAS",
    "name": "Valdestillas",
    "province": "Valladolid",
    "marker-symbol": "rail",
    "marker-size": "small",
    "marker-color": "#00A650"
   }
  },
  {
   "type": "Feature",
   "geometry": {
    "type": "Point",
    "coordinates": [
     -4.80147,
     41.4219
    ]
   },
   "properties": {
    "id": "EST-MATAPOZUELOS",
    "name": "Matapozuelos",
    "province": "Valladolid",
    "marker-symbol": "rail",
    "marker-size": "small",
    "marker-color": "#00A650"
   }
  },
  {
   "type": "Feature",
   "geometry": {
    "type": "Point",
    "coordinates": [
     -4.83566,
     41.36766
    ]
   },
   "properties": {
    "id": "EST-POZALDEZ",
    "name": "Pozaldez",
    "province": "Valladolid",
    "marker-symbol": "rail",
    "marker-size": "small",
    "marker-color": "#00A650"
   }
  },
  {
   "type": "Feature",
   "geometry": {
    "type": "Point",
    "coordinates": [
     -4.90968,
     41.31726
    ]
   },
   "properties": {
    "id": "EST-MEDINADELCAMPO",
    "name": "Medina del Campo",
    "province": "Valladolid",
    "marker-symbol": "rail",
    "marker-size": "small",
    "marker-color": "#00A650"
   }
  }
 ]
}