{
 "type": "FeatureCollection",
 "features": [
  {
   "type": "Feature",
   "geometry": {
    "type": "LineString",
    "coordinates": [
     [
      -8.5452,
      42.87044
     ],
     [
      -8.371,
      42.9398
     ],
     [
      -8.44688,
      43.20764
     ],
     [
      -8.44418,
      43.29751
     ],
     [
      -8.41215,
      43.35037
     ]
    ]
   },
   "properties": {
    "lid": "350",
    "name": "MD AV Santiago - A Coruña",
    "type": "Media Distancia AV",
    "operator": "Renfe",
    "stroke": "#FF8200",
    "stroke-width": 3,
    "stroke-opacity": 0.8,
    "total_sta": 5,
    "coords_sta": 5
   }
  },
  {
   "type": "Feature",
   "geometry": {
    "type": "Point",
    "coordinates": [
     -8.5452,
     42.87044
    ]
   },
   "properties": {
    "id": "EST-SANTIAGODECOMPOSTELA",
    "name": "Santiago de Compostela",
    "province": "A Coruña",
    "marker-symbol": "rail",
    "marker-size": "small",
    "marker-color": "#FF8200"
   }
  },
  {
   "type": "Feature",
   "geometry": {
    "type": "Point",
    "coordinates": [
     -8.371,
     42.9398
    ]
   },
   "properties": {
    "id": "EST-ORDENES",
    "name": "Órdenes",
    "province": "A Coruña",
    "marker-symbol": "rail",
    "marker-size": "small",
    "marker-color": "#FF8200"
   }
  },
  {
   "type": "Feature",
   "geometry": {
    "type": "Point",
    "coordinates": [
     -8.44688,
     43.20764
    ]
   },
   "properties": {
    "id": "EST-CERCEDAMEIRAMA",
    "name": "Cerceda-Meirama",
    "province": "A Coruña",
    "marker-symbol": "rail",
    "marker-size": "small",
    "marker-color": "#FF8200"
   }
  },
  {
   "type": "Feature",
   "geometry": {
    "type": "Point",
    "coordinates": [
     -8.44418,
     43.29751
    ]
   },
   "properties": {
    "id": "EST-UGES",
    "name": "Uxes",
    "province": "A Coruña",
    "marker-symbol": "rail",
    "marker-size": "small",
    "marker-color": "#FF8200"
   }
  },
  {
   "type": "Feature",
   "geometry": {
    "type": "Point",
    "coordinates": [
     -8.41215,
     43.35037
    ]
   },
   "properties": {
    "id": "EST-ACORUNA",
    "name": "A Coruña",
    "province": "A Coruña",
    "marker-symbol": "rail",
    "marker-size": "small",
    "marker-color": "#FF8200"
   }
  }
 ]
}