{
 "type": "FeatureCollection",
 "features": [
  {
   "type": "Feature",
   "geometry": {
    "type": "LineString",
    "coordinates": [
     [
      -4.7272,
      41.64334
     ],
     [
      -4.90968,
      41.31726
     ],
     [
      -4.70193,
      41.04707
     ],
     [
      -4.68332,
      40.65721
     ],
     [
      -4.49501,
      40.59935
     ],
     [
      -4.40863,
      40.59093
     ],
     [
      -4.36162,
      40.58916
     ],
     [
      -4.26932,
      40.56882
     ],
     [
      -4.24714,
      40.52122
     ],
     [
      -4.15797,
      40.53863
     ],
     [
      -4.13232,
      40.58526
     ],
     [
      -4.00815,
      40.62638
     ],
     [
      -3.71903,
      40.4216
     ]
    ]
   },
   "properties": {
    "lid": "357",
    "name": "MD 16 Valladolid - Ávila - Madrid",
    "type": "Media Distancia",
    "operator": "Renfe",
    "stroke": "#FF8C00",
    "stroke-width": 3,
    "stroke-opacity": 0.8,
    "total_sta": 13,
    "coords_sta": 13
   }
  },
  {
   "type": "Feature",
   "geometry": {
    "type": "Point",
    "coordinates": [
     -4.7272,
     41.64334
    ]
   },
   "properties": {
    "id": "EST-VALLADOLIDCAMPOGRANDE",
    "name": "Valladolid-Campo Grande",
    "province": "Valladolid",
    "marker-symbol": "rail",
    "marker-size": "small",
    "marker-color": "#FF8C00"
   }
  },
  {
   "type": "Feature",
   "geometry": {
    "type": "Point",
    "coordinates": [
     -4.90968,
     41.31726
    ]
   },
   "properties": {
    "id": "EST-MEDINADELCAMPO",
    "name": "Medina del Campo",
    "province": "Valladolid",
    "marker-symbol": "rail",
    "marker-size": "small",
    "marker-color": "#FF8C00"
   }
  },
  {
   "type": "Feature",
   "geometry": {
    "type": "Point",
    "coordinates": [
     -4.70193,
     41.04707
    ]
   },
   "properties": {
    "id": "EST-AREVALO",
    "name": "Arévalo",
    "province": "Ávila",
    "marker-symbol": "rail",
    "marker-size": "small",
    "marker-color": "#FF8C00"
   }
  },
  {
   "type": "Feature",
   "geometry": {
    "type": "Point",
    "coordinates": [
     -4.68332,
     40.65721
    ]
   },
   "properties": {
    "id": "EST-AVILA",
    "name": "Ávila",
    "province": "Ávila",
    "marker-symbol": "rail",
    "marker-size": "small",
    "marker-color": "#FF8C00"
   }
  },
  {
   "type": "Feature",
   "geometry": {
    "type": "Point",
    "coordinates": [
     -4.49501,
     40.59935
    ]
   },
   "properties": {
    "id": "EST-HERRADONLACANADA",
    "name": "Herradón-La Cañada",
    "province": "Ávila",
    "marker-symbol": "rail",
    "marker-size": "small",
    "marker-color": "#FF8C00"
   }
  },
  {
   "type": "Feature",
   "geometry": {
    "type": "Point",
    "coordinates": [
     -4.40863,
     40.59093
    ]
   },
   "properties": {
    "id": "EST-NAVALPERAL",
    "name": "Navalperal",
    "province": "Ávila",
    "marker-symbol": "rail",
    "marker-size": "small",
    "marker-color": "#FF8C00"
   }
  },
  {
   "type": "Feature",
   "geometry": {
    "type": "Point",
    "coordinates": [
     -4.36162,
     40.58916
    ]
   },
   "properties": {
    "id": "EST-LASNAVASDELMARQUES",
    "name": "Las Navas del Marqués",
    "province": "Ávila",
    "marker-symbol": "rail",
    "marker-size": "small",
    "marker-color": "#FF8C00"
   }
  },
  {
   "type": "Feature",
   "geometry": {
    "type": "Point",
    "coordinates": [
     -4.26932,
     40.56882
    ]
   },
   "properties": {
    "id": "EST-SANTAMARIADELAALAMEDA",
    "name": "Santa María de la Alameda",
    "province": "Madrid",
    "marker-symbol": "rail",
    "marker-size": "small",
    "marker-color": "#FF8C00"
   }
  },
  {
   "type": "Feature",
   "geometry": {
    "type": "Point",
    "coordinates": [
     -4.24714,
     40.52122
    ]
   },
   "properties": {
    "id": "EST-ROBLEDODECHAVELA",
    "name": "Robledo de Chavela",
    "province": "Madrid",
    "marker-symbol": "rail",
    "marker-size": "small",
    "marker-color": "#FF8C00"
   }
  },
  {
   "type": "Feature",
   "geometry": {
    "type": "Point",
    "coordinates": [
     -4.15797,
     40.53863
    ]
   },
   "properties": {
    "id": "EST-ZARZALEJO",
    "name": "Zarzalejo",
    "province": "Madrid",
    "marker-symbol": "rail",
    "marker-size": "small",
    "marker-color": "#FF8C00"
   }
  },
  {
   "type": "Feature",
   "geometry": {
    "type": "Point",
    "coordinates": [
     -4.13232,
     40.58526
    ]
   },
   "properties": {
    "id": "EST-ELESCORIAL",
    "name": "El Escorial",
    "province": "Madrid",
    "marker-symbol": "rail",
    "marker-size": "small",
    "marker-color": "#FF8C00"
   }
  },
  {
   "type": "Feature",
   "geometry": {
    "type": "Point",
    "coordinates": [
     -4.00815,
     40.62638
    ]
   },
   "properties": {
    "id": "EST-VILLALBADEGUADARRAMA",
    "name": "Villalba de Guadarrama",
    "province": "Madrid",
    "marker-symbol": "rail",
    "marker-size": "small",
    "marker-color": "#FF8C00"
   }
  },
  {
   "type": "Feature",
   "geometry": {
    "type": "Point",
    "coordinates": [
     -3.71903,
     40.4216
    ]
   },
   "properties": {
    "id": "EST-MADRIDPRINCIPEPIO",
    "name": "Madrid-Príncipe Pío",
    "province": "Madrid",
    "marker-symbol": "rail",
    "marker-size": "small",
    "marker-color": "#FF8C00"
   }
  }
 ]
}