{
 "type": "FeatureCollection",
 "features": [
  {
   "type": "Feature",
   "geometry": {
    "type": "LineString",
    "coordinates": [
     [
      -4.7272,
      41.64334
     ],
     [
      -4.70422,
      41.66016
     ],
     [
      -4.65127,
      41.73725
     ],
     [
      -4.62337,
      41.76635
     ],
     [
      -4.57957,
      41.80898
     ],
     [
      -4.54073,
      41.87124
     ],
     [
      -4.49627,
      41.9174
     ],
     [
      -4.53386,
      42.01573
     ],
     [
      -4.40239,
      42.26487
     ],
     [
      -4.35728,
      42.41418
     ],
     [
      -4.31647,
      42.59868
     ],
     [
      -4.31123,
      42.65682
     ],
     [
      -4.23375,
      42.78527
     ],
     [
      -4.16506,
      42.87121
     ],
     [
      -4.14103,
      42.99434
     ],
     [
      -3.43831,
      43.28441
     ],
     [
      -4.06397,
      43.25507
     ],
     [
      -4.04246,
      43.32744
     ],
     [
      -3.94951,
      43.35305
     ],
     [
      -3.84096,
      43.41612
     ],
     [
      -3.82781,
      43.45404
     ],
     [
      -3.81102,
      43.4583
     ]
    ]
   },
   "properties": {
    "lid": "360",
    "name": "Regional 20 Valladolid - Santander",
    "type": "Regional",
    "operator": "Renfe",
    "stroke": "#008000",
    "stroke-width": 3,
    "stroke-opacity": 0.8,
    "total_sta": 22,
    "coords_sta": 22
   }
  },
  {
   "type": "Feature",
   "geometry": {
    "type": "Point",
    "coordinates": [
     -4.7272,
     41.64334
    ]
   },
   "properties": {
    "id": "EST-VALLADOLIDCAMPOGRANDE",
    "name": "Valladolid-Campo Grande",
    "province": "Valladolid",
    "marker-symbol": "rail",
    "marker-size": "small",
    "marker-color": "#008000"
   }
  },
  {
   "type": "Feature",
   "geometry": {
    "type": "Point",
    "coordinates": [
     -4.70422,
     41.66016
    ]
   },
   "properties": {
    "id": "EST-VALLADOLIDUNIVERSIDAD",
    "name": "Valladolid-Universidad",
    "province": "Valladolid",
    "marker-symbol": "rail",
    "marker-size": "small",
    "marker-color": "#008000"
   }
  },
  {
   "type": "Feature",
   "geometry": {
    "type": "Point",
    "coordinates": [
     -4.65127,
     41.73725
    ]
   },
   "properties": {
    "id": "EST-CABEZONDEPISUERGA",
    "name": "Cabezón de Pisuerga",
    "province": "Valladolid",
    "marker-symbol": "rail",
    "marker-size": "small",
    "marker-color": "#008000"
   }
  },
  {
   "type": "Feature",
   "geometry": {
    "type": "Point",
    "coordinates": [
     -4.62337,
     41.76635
    ]
   },
   "properties": {
    "id": "EST-CORCOSAGUILAREJO",
    "name": "Corcos-Aguilarejo",
    "province": "Valladolid",
    "marker-symbol": "rail",
    "marker-size": "small",
    "marker-color": "#008000"
   }
  },
  {
   "type": "Feature",
   "geometry": {
    "type": "Point",
    "coordinates": [
     -4.57957,
     41.80898
    ]
   },
   "properties": {
    "id": "EST-CUBILLASDESANTAMARTA",
    "name": "Cubillas de Santa Marta",
    "province": "Valladolid",
    "marker-symbol": "rail",
    "marker-size": "small",
    "marker-color": "#008000"
   }
  },
  {
   "type": "Feature",
   "geometry": {
    "type": "Point",
    "coordinates": [
     -4.54073,
     41.87124
    ]
   },
   "properties": {
    "id": "EST-DUENAS",
    "name": "Dueñas",
    "province": "Palencia",
    "marker-symbol": "rail",
    "marker-size": "small",
    "marker-color": "#008000"
   }
  },
  {
   "type": "Feature",
   "geometry": {
    "type": "Point",
    "coordinates": [
     -4.49627,
     41.9174
    ]
   },
   "properties": {
    "id": "EST-VENTADEBANOS",
    "name": "Venta de Baños",
    "province": "Palencia",
    "marker-symbol": "rail",
    "marker-size": "small",
    "marker-color": "#008000"
   }
  },
  {
   "type": "Feature",
   "geometry": {
    "type": "Point",
    "coordinates": [
     -4.53386,
     42.01573
    ]
   },
   "properties": {
    "id": "EST-PALENCIA",
    "name": "Palencia",
    "province": "Palencia",
    "marker-symbol": "rail",
    "marker-size": "small",
    "marker-color": "#008000"
   }
  },
  {
   "type": "Feature",
   "geometry": {
    "type": "Point",
    "coordinates": [
     -4.40239,
     42.26487
    ]
   },
   "properties": {
    "id": "EST-FROMISTA",
    "name": "Frómista",
    "province": "Palencia",
    "marker-symbol": "rail",
    "marker-size": "small",
    "marker-color": "#008000"
   }
  },
  {
   "type": "Feature",
   "geometry": {
    "type": "Point",
    "coordinates": [
     -4.35728,
     42.41418
    ]
   },
   "properties": {
    "id": "EST-OSORNO",
    "name": "Osorno",
    "province": "Palencia",
    "marker-symbol": "rail",
    "marker-size": "small",
    "marker-color": "#008000"
   }
  },
  {
   "type": "Feature",
   "geometry": {
    "type": "Point",
    "coordinates": [
     -4.31647,
     42.59868
    ]
   },
   "properties": {
    "id": "EST-HERRERADEPISUERGA",
    "name": "Herrera de Pisuerga",
    "province": "Palencia",
    "marker-symbol": "rail",
    "marker-size": "small",
    "marker-color": "#008000"
   }
  },
  {
   "type": "Feature",
   "geometry": {
    "type": "Point",
    "coordinates": [
     -4.31123,
     42.65682
    ]
   },
   "properties": {
    "id": "EST-ALARDELREY",
    "name": "Alar del Rey",
    "province": "Palencia",
    "marker-symbol": "rail",
    "marker-size": "small",
    "marker-color": "#008000"
   }
  },
  {
   "type": "Feature",
   "geometry": {
    "type": "Point",
    "coordinates": [
     -4.23375,
     42.78527
    ]
   },
   "properties": {
    "id": "EST-AGUILARDECAMPOO",
    "name": "Aguilar de Campoo",
    "province": "Palencia",
    "marker-symbol": "rail",
    "marker-size": "small",
    "marker-color": "#008000"
   }
  },
  {
   "type": "Feature",
   "geometry": {
    "type": "Point",
    "coordinates": [
     -4.16506,
     42.87121
    ]
   },
   "properties": {
    "id": "EST-MATAPORQUERA",
    "name": "Mataporquera",
    "province": "Cantabria",
    "marker-symbol": "rail",
    "marker-size": "small",
    "marker-color": "#008000"
   }
  },
  {
   "type": "Feature",
   "geometry": {
    "type": "Point",
    "coordinates": [
     -4.14103,
     42.99434
    ]
   },
   "properties": {
    "id": "EST-REINOSA",
    "name": "Reinosa",
    "province": "Cantabria",
    "marker-symbol": "rail",
    "marker-size": "small",
    "marker-color": "#008000"
   }
  },
  {
   "type": "Feature",
   "geometry": {
    "type": "Point",
    "coordinates": [
     -3.43831,
     43.28441
    ]
   },
   "properties": {
    "id": "EST-BARCENA",
    "name": "Bárcena",
    "province": "Cantabria",
    "marker-symbol": "rail",
    "marker-size": "small",
    "marker-color": "#008000"
   }
  },
  {
   "type": "Feature",
   "geometry": {
    "type": "Point",
    "coordinates": [
     -4.06397,
     43.25507
    ]
   },
   "properties": {
    "id": "EST-LOSCORRALESDEBUELNA",
    "name": "Los Corrales de Buelna",
    "province": "Cantabria",
    "marker-symbol": "rail",
    "marker-size": "small",
    "marker-color": "#008000"
   }
  },
  {
   "type": "Feature",
   "geometry": {
    "type": "Point",
    "coordinates": [
     -4.04246,
     43.32744
    ]
   },
   "properties": {
    "id": "EST-TORRELAVEGA",
    "name": "Torrelavega",
    "province": "Cantabria",
    "marker-symbol": "rail",
    "marker-size": "small",
    "marker-color": "#008000"
   }
  },
  {
   "type": "Feature",
   "geometry": {
    "type": "Point",
    "coordinates": [
     -3.94951,
     43.35305
    ]
   },
   "properties": {
    "id": "EST-RENEDO",
    "name": "Renedo",
    "province": "Cantabria",
    "marker-symbol": "rail",
    "marker-size": "small",
    "marker-color": "#008000"
   }
  },
  {
   "type": "Feature",
   "geometry": {
    "type": "Point",
    "coordinates": [
     -3.84096,
     43.41612
    ]
   },
   "properties": {
    "id": "EST-MALIANO",
    "name": "Maliaño",
    "province": "Cantabria",
    "marker-symbol": "rail",
    "marker-size": "small",
    "marker-color": "#008000"
   }
  },
  {
   "type": "Feature",
   "geometry": {
    "type": "Point",
    "coordinates": [
     -3.82781,
     43.45404
    ]
   },
   "properties": {
    "id": "EST-VALDECILLA",
    "name": "Valdecilla",
    "province": "Cantabria",
    "marker-symbol": "rail",
    "marker-size": "small",
    "marker-color": "#008000"
   }
  },
  {
   "type": "Feature",
   "geometry": {
    "type": "Point",
    "coordinates": [
     -3.81102,
     43.4583
    ]
   },
   "properties": {
    "id": "EST-SANTANDER",
    "name": "Santander",
    "province": "Cantabria",
    "marker-symbol": "rail",
    "marker-size": "small",
    "marker-color": "#008000"
   }
  }
 ]
}