{
 "type": "FeatureCollection",
 "features": [
  {
   "type": "Feature",
   "geometry": {
    "type": "LineString",
    "coordinates": [
     [
      -1.80058,
      43.33921
     ],
     [
      -1.89869,
      43.31101
     ],
     [
      -1.91707,
      43.31898
     ],
     [
      -1.93671,
      43.31962
     ],
     [
      -1.95487,
      43.31423
     ],
     [
      -1.95892,
      43.32033
     ],
     [
      -1.9733,
      43.32194
     ],
     [
      -1.96379,
      43.2724
     ],
     [
      -2.01562,
      43.22214
     ],
     [
      -2.07,
      43.2
     ],
     [
      -2.07914,
      43.13564
     ],
     [
      -2.17922,
      43.05261
     ],
     [
      -2.20234,
      43.0461
     ],
     [
      -2.31988,
      43.08701
     ],
     [
      -2.33048,
      43.05101
     ],
     [
      -2.18131,
      42.89541
     ],
     [
      -2.38889,
      42.84631
     ],
     [
      -2.51463,
      42.84904
     ],
     [
      -2.6727,
      42.8413
     ],
     [
      -2.94114,
      42.6908
     ]
    ]
   },
   "properties": {
    "lid": "365",
    "name": "MD Regional Exprés 25 Irún - Vitoria - Miranda de Ebro",
    "type": "Media Distancia",
    "operator": "Renfe",
    "stroke": "#FF8C00",
    "stroke-width": 3,
    "stroke-opacity": 0.8,
    "total_sta": 21,
    "coords_sta": 20
   }
  },
  {
   "type": "Feature",
   "geometry": {
    "type": "Point",
    "coordinates": [
     -1.80058,
     43.33921
    ]
   },
   "properties": {
    "id": "EST-IRUN",
    "name": "Irún",
    "province": "Gipuzkoa",
    "marker-symbol": "rail",
    "marker-size": "small",
    "marker-color": "#FF8C00"
   }
  },
  {
   "type": "Feature",
   "geometry": {
    "type": "Point",
    "coordinates": [
     -1.89869,
     43.31101
    ]
   },
   "properties": {
    "id": "EST-LEZOERRENTERIA",
    "name": "Lezo-Errenteria",
    "province": "Gipuzkoa",
    "marker-symbol": "rail",
    "marker-size": "small",
    "marker-color": "#FF8C00"
   }
  },
  {
   "type": "Feature",
   "geometry": {
    "type": "Point",
    "coordinates": [
     -1.91707,
     43.31898
    ]
   },
   "properties": {
    "id": "EST-PASAIA",
    "name": "Pasaia",
    "province": "Gipuzkoa",
    "marker-symbol": "rail",
    "marker-size": "small",
    "marker-color": "#FF8C00"
   }
  },
  {
   "type": "Feature",
   "geometry": {
    "type": "Point",
    "coordinates": [
     -1.93671,
     43.31962
    ]
   },
   "properties": {
    "id": "EST-HERRERA",
    "name": "Herrera",
    "province": "Gipuzkoa",
    "marker-symbol": "rail",
    "marker-size": "small",
    "marker-color": "#FF8C00"
   }
  },
  {
   "type": "Feature",
   "geometry": {
    "type": "Point",
    "coordinates": [
     -1.95487,
     43.31423
    ]
   },
   "properties": {
    "id": "EST-INTXAURRONDO",
    "name": "Intxaurrondo",
    "province": "Gipuzkoa",
    "marker-symbol": "rail",
    "marker-size": "small",
    "marker-color": "#FF8C00"
   }
  },
  {
   "type": "Feature",
   "geometry": {
    "type": "Point",
    "coordinates": [
     -1.95892,
     43.32033
    ]
   },
   "properties": {
    "id": "EST-ATEGORRIETA",
    "name": "Ategorrieta",
    "province": "Gipuzkoa",
    "marker-symbol": "rail",
    "marker-size": "small",
    "marker-color": "#FF8C00"
   }
  },
  {
   "type": "Feature",
   "geometry": {
    "type": "Point",
    "coordinates": [
     -1.9733,
     43.32194
    ]
   },
   "properties": {
    "id": "EST-GROS",
    "name": "Gros",
    "province": "Gipuzkoa",
    "marker-symbol": "rail",
    "marker-size": "small",
    "marker-color": "#FF8C00"
   }
  },
  {
   "type": "Feature",
   "geometry": {
    "type": "Point",
    "coordinates": [
     -1.96379,
     43.2724
    ]
   },
   "properties": {
    "id": "EST-HERNANI",
    "name": "Hernani",
    "province": "Gipuzkoa",
    "marker-symbol": "rail",
    "marker-size": "small",
    "marker-color": "#FF8C00"
   }
  },
  {
   "type": "Feature",
   "geometry": {
    "type": "Point",
    "coordinates": [
     -2.01562,
     43.22214
    ]
   },
   "properties": {
    "id": "EST-ANDOAIN",
    "name": "Andoain",
    "province": "Gipuzkoa",
    "marker-symbol": "rail",
    "marker-size": "small",
    "marker-color": "#FF8C00"
   }
  },
  {
   "type": "Feature",
   "geometry": {
    "type": "Point",
    "coordinates": [
     -2.07,
     43.2
    ]
   },
   "properties": {
    "id": "EST-BILLABONAZIZURKIL",
    "name": "Billabona-Zizurkil",
    "province": "Gipuzkoa",
    "marker-symbol": "rail",
    "marker-size": "small",
    "marker-color": "#FF8C00"
   }
  },
  {
   "type": "Feature",
   "geometry": {
    "type": "Point",
    "coordinates": [
     -2.07914,
     43.13564
    ]
   },
   "properties": {
    "id": "EST-TOLOSA",
    "name": "Tolosa",
    "province": "Gipuzkoa",
    "marker-symbol": "rail",
    "marker-size": "small",
    "marker-color": "#FF8C00"
   }
  },
  {
   "type": "Feature",
   "geometry": {
    "type": "Point",
    "coordinates": [
     -2.17922,
     43.05261
    ]
   },
   "properties": {
    "id": "EST-ORDIZIA",
    "name": "Ordizia",
    "province": "Gipuzkoa",
    "marker-symbol": "rail",
    "marker-size": "small",
    "marker-color": "#FF8C00"
   }
  },
  {
   "type": "Feature",
   "geometry": {
    "type": "Point",
    "coordinates": [
     -2.20234,
     43.0461
    ]
   },
   "properties": {
    "id": "EST-BEASAIN",
    "name": "Beasain",
    "province": "Gipuzkoa",
    "marker-symbol": "rail",
    "marker-size": "small",
    "marker-color": "#FF8C00"
   }
  },
  {
   "type": "Feature",
   "geometry": {
    "type": "Point",
    "coordinates": [
     -2.31988,
     43.08701
    ]
   },
   "properties": {
    "id": "EST-ZUMARRAGA",
    "name": "Zumárraga",
    "province": "Gipuzkoa",
    "marker-symbol": "rail",
    "marker-size": "small",
    "marker-color": "#FF8C00"
   }
  },
  {
   "type": "Feature",
   "geometry": {
    "type": "Point",
    "coordinates": [
     -2.33048,
     43.05101
    ]
   },
   "properties": {
    "id": "EST-LEGAZPI-Gipuzkoa-Legazpi",
    "name": "Legazpi",
    "province": "Gipuzkoa",
    "marker-symbol": "rail",
    "marker-size": "small",
    "marker-color": "#FF8C00"
   }
  },
  {
   "type": "Feature",
   "geometry": {
    "type": "Point",
    "coordinates": [
     -2.18131,
     42.89541
    ]
   },
   "properties": {
    "id": "EST-ALSASUA",
    "name": "Alsasua",
    "province": "Navarra",
    "marker-symbol": "rail",
    "marker-size": "small",
    "marker-color": "#FF8C00"
   }
  },
  {
   "type": "Feature",
   "geometry": {
    "type": "Point",
    "coordinates": [
     -2.38889,
     42.84631
    ]
   },
   "properties": {
    "id": "EST-AGURAINSALVATIERRA",
    "name": "Agurain-Salvatierra",
    "province": "Álava",
    "marker-symbol": "rail",
    "marker-size": "small",
    "marker-color": "#FF8C00"
   }
  },
  {
   "type": "Feature",
   "geometry": {
    "type": "Point",
    "coordinates": [
     -2.51463,
     42.84904
    ]
   },
   "properties": {
    "id": "EST-ALEGRIADULANTZI",
    "name": "Alegría-Dulantzi",
    "province": "Álava",
    "marker-symbol": "rail",
    "marker-size": "small",
    "marker-color": "#FF8C00"
   }
  },
  {
   "type": "Feature",
   "geometry": {
    "type": "Point",
    "coordinates": [
     -2.6727,
     42.8413
    ]
   },
   "properties": {
    "id": "EST-VITORIAGASTEIZ",
    "name": "Vitoria-Gasteiz",
    "province": "Álava",
    "marker-symbol": "rail",
    "marker-size": "small",
    "marker-color": "#FF8C00"
   }
  },
  {
   "type": "Feature",
   "geometry": {
    "type": "Point",
    "coordinates": [
     -2.94114,
     42.6908
    ]
   },
   "properties": {
    "id": "EST-MIRANDADEEBRO",
    "name": "Miranda de Ebro",
    "province": "Burgos",
    "marker-symbol": "rail",
    "marker-size": "small",
    "marker-color": "#FF8C00"
   }
  }
 ]
}