{
 "type": "FeatureCollection",
 "features": [
  {
   "type": "Feature",
   "geometry": {
    "type": "LineString",
    "coordinates": [
     [
      -3.68271,
      40.47395
     ],
     [
      -3.36619,
      40.48906
     ],
     [
      -3.18225,
      40.64408
     ],
     [
      -2.93585,
      40.93
     ],
     [
      -2.64622,
      41.07145
     ],
     [
      -2.49305,
      41.13631
     ],
     [
      -2.52534,
      41.48919
     ],
     [
      -2.47561,
      41.75535
     ]
    ]
   },
   "properties": {
    "lid": "383",
    "name": "Regional Exprés 54 Madrid - Soria",
    "type": "Regional Exprés",
    "operator": "Renfe",
    "stroke": "#32CD32",
    "stroke-width": 3,
    "stroke-opacity": 0.8,
    "total_sta": 9,
    "coords_sta": 8
   }
  },
  {
   "type": "Feature",
   "geometry": {
    "type": "Point",
    "coordinates": [
     -3.68271,
     40.47395
    ]
   },
   "properties": {
    "id": "EST-MADRIDCHAMARTIN",
    "name": "Madrid-Chamartín",
    "province": "Madrid",
    "marker-symbol": "rail",
    "marker-size": "small",
    "marker-color": "#32CD32"
   }
  },
  {
   "type": "Feature",
   "geometry": {
    "type": "Point",
    "coordinates": [
     -3.36619,
     40.48906
    ]
   },
   "properties": {
    "id": "EST-ALCALADEHENARES",
    "name": "Alcalá de Henares",
    "province": "Madrid",
    "marker-symbol": "rail",
    "marker-size": "small",
    "marker-color": "#32CD32"
   }
  },
  {
   "type": "Feature",
   "geometry": {
    "type": "Point",
    "coordinates": [
     -3.18225,
     40.64408
    ]
   },
   "properties": {
    "id": "EST-GUADALAJARA",
    "name": "Guadalajara",
    "province": "Guadalajara",
    "marker-symbol": "rail",
    "marker-size": "small",
    "marker-color": "#32CD32"
   }
  },
  {
   "type": "Feature",
   "geometry": {
    "type": "Point",
    "coordinates": [
     -2.93585,
     40.93
    ]
   },
   "properties": {
    "id": "EST-JADRAQUE",
    "name": "Jadraque",
    "province": "Guadalajara",
    "marker-symbol": "rail",
    "marker-size": "small",
    "marker-color": "#32CD32"
   }
  },
  {
   "type": "Feature",
   "geometry": {
    "type": "Point",
    "coordinates": [
     -2.64622,
     41.07145
    ]
   },
   "properties": {
    "id": "EST-SIGUENZA",
    "name": "Sigüenza",
    "province": "Guadalajara",
    "marker-symbol": "rail",
    "marker-size": "small",
    "marker-color": "#32CD32"
   }
  },
  {
   "type": "Feature",
   "geometry": {
    "type": "Point",
    "coordinates": [
     -2.49305,
     41.13631
    ]
   },
   "properties": {
    "id": "EST-TORRALBA",
    "name": "Torralba",
    "province": "Soria",
    "marker-symbol": "rail",
    "marker-size": "small",
    "marker-color": "#32CD32"
   }
  },
  {
   "type": "Feature",
   "geometry": {
    "type": "Point",
    "coordinates": [
     -2.52534,
     41.48919
    ]
   },
   "properties": {
    "id": "EST-ALMAZANVILLA",
    "name": "Almazán-Villa",
    "province": "Soria",
    "marker-symbol": "rail",
    "marker-size": "small",
    "marker-color": "#32CD32"
   }
  },
  {
   "type": "Feature",
   "geometry": {
    "type": "Point",
    "coordinates": [
     -2.47561,
     41.75535
    ]
   },
   "properties": {
    "id": "EST-SORIA",
    "name": "Soria",
    "province": "Soria",
    "marker-symbol": "rail",
    "marker-size": "small",
    "marker-color": "#32CD32"
   }
  }
 ]
}