{
 "type": "FeatureCollection",
 "features": [
  {
   "type": "Feature",
   "geometry": {
    "type": "LineString",
    "coordinates": [
     [
      -8.41215,
      43.35037
     ],
     [
      -8.5452,
      42.87044
     ],
     [
      -8.65241,
      42.73898
     ],
     [
      -8.76228,
      42.60199
     ],
     [
      -8.6354,
      42.42168
     ],
     [
      -8.60372,
      42.28549
     ],
     [
      -8.7119,
      42.23496
     ]
    ]
   },
   "properties": {
    "lid": "45",
    "name": "Avant Eje Atlántico",
    "type": "Media Distancia AV",
    "operator": "Renfe",
    "stroke": "#00A650",
    "stroke-width": 3,
    "stroke-opacity": 0.8,
    "total_sta": 7,
    "coords_sta": 7
   }
  },
  {
   "type": "Feature",
   "geometry": {
    "type": "Point",
    "coordinates": [
     -8.41215,
     43.35037
    ]
   },
   "properties": {
    "id": "EST-ACORUNA",
    "name": "A Coruña",
    "province": "A Coruña",
    "marker-symbol": "rail",
    "marker-size": "small",
    "marker-color": "#00A650"
   }
  },
  {
   "type": "Feature",
   "geometry": {
    "type": "Point",
    "coordinates": [
     -8.5452,
     42.87044
    ]
   },
   "properties": {
    "id": "EST-SANTIAGODECOMPOSTELA",
    "name": "Santiago de Compostela",
    "province": "A Coruña",
    "marker-symbol": "rail",
    "marker-size": "small",
    "marker-color": "#00A650"
   }
  },
  {
   "type": "Feature",
   "geometry": {
    "type": "Point",
    "coordinates": [
     -8.65241,
     42.73898
    ]
   },
   "properties": {
    "id": "EST-PADRONBARBANZA",
    "name": "Padrón-Barbanza",
    "province": "A Coruña",
    "marker-symbol": "rail",
    "marker-size": "small",
    "marker-color": "#00A650"
   }
  },
  {
   "type": "Feature",
   "geometry": {
    "type": "Point",
    "coordinates": [
     -8.76228,
     42.60199
    ]
   },
   "properties": {
    "id": "EST-VILAGARCIADEAROUSA",
    "name": "Vilagarcía de Arousa",
    "province": "Pontevedra",
    "marker-symbol": "rail",
    "marker-size": "small",
    "marker-color": "#00A650"
   }
  },
  {
   "type": "Feature",
   "geometry": {
    "type": "Point",
    "coordinates": [
     -8.6354,
     42.42168
    ]
   },
   "properties": {
    "id": "EST-PONTEVEDRA",
    "name": "Pontevedra",
    "province": "Pontevedra",
    "marker-symbol": "rail",
    "marker-size": "small",
    "marker-color": "#00A650"
   }
  },
  {
   "type": "Feature",
   "geometry": {
    "type": "Point",
    "coordinates": [
     -8.60372,
     42.28549
    ]
   },
   "properties": {
    "id": "EST-REDONDELAAV",
    "name": "Redondela AV",
    "province": "Pontevedra",
    "marker-symbol": "rail",
    "marker-size": "small",
    "marker-color": "#00A650"
   }
  },
  {
   "type": "Feature",
   "geometry": {
    "type": "Point",
    "coordinates": [
     -8.7119,
     42.23496
    ]
   },
   "properties": {
    "id": "EST-VIGOURZAIZ",
    "name": "Vigo-Urzaiz",
    "province": "Pontevedra",
    "marker-symbol": "rail",
    "marker-size": "small",
    "marker-color": "#00A650"
   }
  }
 ]
}