{
 "type": "FeatureCollection",
 "features": [
  {
   "type": "Feature",
   "geometry": {
    "type": "LineString",
    "coordinates": [
     [
      -6.294,
      36.537
     ],
     [
      -6.27696,
      36.5135
     ],
     [
      -6.27205,
      36.50292
     ],
     [
      -6.20688,
      36.46792
     ],
     [
      -6.1853,
      36.53083
     ],
     [
      -6.217,
      36.6042
     ],
     [
      -6.1261,
      36.67981
     ],
     [
      -6.0952,
      36.91154
     ],
     [
      -5.94541,
      37.01851
     ],
     [
      -5.79024,
      37.18334
     ],
     [
      -5.92332,
      37.28722
     ],
     [
      -5.97582,
      37.36281
     ],
     [
      -5.97911,
      37.37821
     ],
     [
      -5.727,
      37.59012
     ],
     [
      -5.53108,
      37.66129
     ],
     [
      -5.3476,
      37.7164
     ],
     [
      -5.29295,
      37.71814
     ],
     [
      -5.10678,
      37.80374
     ],
     [
      -4.57142,
      38.25524
     ],
     [
      -4.28369,
      37.98129
     ],
     [
      -4.06603,
      38.02797
     ],
     [
      -3.83216,
      38.01026
     ],
     [
      -3.79079,
      37.77998
     ]
    ]
   },
   "properties": {
    "lid": "58",
    "name": "MD 76 Cádiz - Jaén",
    "type": "Media Distancia",
    "operator": "Renfe",
    "stroke": "#FF8200",
    "stroke-width": 3,
    "stroke-opacity": 0.8,
    "total_sta": 24,
    "coords_sta": 23
   }
  },
  {
   "type": "Feature",
   "geometry": {
    "type": "Point",
    "coordinates": [
     -6.294,
     36.537
    ]
   },
   "properties": {
    "id": "EST-CADIZ",
    "name": "Cádiz",
    "province": "Cádiz",
    "marker-symbol": "rail",
    "marker-size": "small",
    "marker-color": "#FF8200"
   }
  },
  {
   "type": "Feature",
   "geometry": {
    "type": "Point",
    "coordinates": [
     -6.27696,
     36.5135
    ]
   },
   "properties": {
    "id": "EST-SEGUNDAAGUADA",
    "name": "Segunda Aguada",
    "province": "Cádiz",
    "marker-symbol": "rail",
    "marker-size": "small",
    "marker-color": "#FF8200"
   }
  },
  {
   "type": "Feature",
   "geometry": {
    "type": "Point",
    "coordinates": [
     -6.27205,
     36.50292
    ]
   },
   "properties": {
    "id": "EST-ESTADIO",
    "name": "Estadio",
    "province": "Cádiz",
    "marker-symbol": "rail",
    "marker-size": "small",
    "marker-color": "#FF8200"
   }
  },
  {
   "type": "Feature",
   "geometry": {
    "type": "Point",
    "coordinates": [
     -6.20688,
     36.46792
    ]
   },
   "properties": {
    "id": "EST-SANFERNANDOBAHIASUR",
    "name": "San Fernando-Bahía Sur",
    "province": "Cádiz",
    "marker-symbol": "rail",
    "marker-size": "small",
    "marker-color": "#FF8200"
   }
  },
  {
   "type": "Feature",
   "geometry": {
    "type": "Point",
    "coordinates": [
     -6.1853,
     36.53083
    ]
   },
   "properties": {
    "id": "EST-PUERTOREAL",
    "name": "Puerto Real",
    "province": "Cádiz",
    "marker-symbol": "rail",
    "marker-size": "small",
    "marker-color": "#FF8200"
   }
  },
  {
   "type": "Feature",
   "geometry": {
    "type": "Point",
    "coordinates": [
     -6.217,
     36.6042
    ]
   },
   "properties": {
    "id": "EST-ELPUERTODESANTAMARIA",
    "name": "El Puerto de Santa María",
    "province": "Cádiz",
    "marker-symbol": "rail",
    "marker-size": "small",
    "marker-color": "#FF8200"
   }
  },
  {
   "type": "Feature",
   "geometry": {
    "type": "Point",
    "coordinates": [
     -6.1261,
     36.67981
    ]
   },
   "properties": {
    "id": "EST-JEREZDELAFRONTERA",
    "name": "Jerez de la Frontera",
    "province": "Cádiz",
    "marker-symbol": "rail",
    "marker-size": "small",
    "marker-color": "#FF8200"
   }
  },
  {
   "type": "Feature",
   "geometry": {
    "type": "Point",
    "coordinates": [
     -6.0952,
     36.91154
    ]
   },
   "properties": {
    "id": "EST-LEBRIJA",
    "name": "Lebrija",
    "province": "Sevilla",
    "marker-symbol": "rail",
    "marker-size": "small",
    "marker-color": "#FF8200"
   }
  },
  {
   "type": "Feature",
   "geometry": {
    "type": "Point",
    "coordinates": [
     -5.94541,
     37.01851
    ]
   },
   "properties": {
    "id": "EST-LASCABEZASDESANJUAN",
    "name": "Las Cabezas de San Juan",
    "province": "Sevilla",
    "marker-symbol": "rail",
    "marker-size": "small",
    "marker-color": "#FF8200"
   }
  },
  {
   "type": "Feature",
   "geometry": {
    "type": "Point",
    "coordinates": [
     -5.79024,
     37.18334
    ]
   },
   "properties": {
    "id": "EST-UTRERA",
    "name": "Utrera",
    "province": "Sevilla",
    "marker-symbol": "rail",
    "marker-size": "small",
    "marker-color": "#FF8200"
   }
  },
  {
   "type": "Feature",
   "geometry": {
    "type": "Point",
    "coordinates": [
     -5.92332,
     37.28722
    ]
   },
   "properties": {
    "id": "EST-DOSHERMANAS",
    "name": "Dos Hermanas",
    "province": "Sevilla",
    "marker-symbol": "rail",
    "marker-size": "small",
    "marker-color": "#FF8200"
   }
  },
  {
   "type": "Feature",
   "geometry": {
    "type": "Point",
    "coordinates": [
     -5.97582,
     37.36281
    ]
   },
   "properties": {
    "id": "EST-VIRGENDELROCIO",
    "name": "Virgen del Rocío",
    "province": "Sevilla",
    "marker-symbol": "rail",
    "marker-size": "small",
    "marker-color": "#FF8200"
   }
  },
  {
   "type": "Feature",
   "geometry": {
    "type": "Point",
    "coordinates": [
     -5.97911,
     37.37821
    ]
   },
   "properties": {
    "id": "EST-SEVILLASANBERNARDO",
    "name": "Sevilla-San Bernardo",
    "province": "Sevilla",
    "marker-symbol": "rail",
    "marker-size": "small",
    "marker-color": "#FF8200"
   }
  },
  {
   "type": "Feature",
   "geometry": {
    "type": "Point",
    "coordinates": [
     -5.727,
     37.59012
    ]
   },
   "properties": {
    "id": "EST-LOSROSALES",
    "name": "Los Rosales",
    "province": "Sevilla",
    "marker-symbol": "rail",
    "marker-size": "small",
    "marker-color": "#FF8200"
   }
  },
  {
   "type": "Feature",
   "geometry": {
    "type": "Point",
    "coordinates": [
     -5.53108,
     37.66129
    ]
   },
   "properties": {
    "id": "EST-LORADELRIO",
    "name": "Lora del Río",
    "province": "Sevilla",
    "marker-symbol": "rail",
    "marker-size": "small",
    "marker-color": "#FF8200"
   }
  },
  {
   "type": "Feature",
   "geometry": {
    "type": "Point",
    "coordinates": [
     -5.3476,
     37.7164
    ]
   },
   "properties": {
    "id": "EST-PENAFLOR",
    "name": "Peñaflor",
    "province": "Sevilla",
    "marker-symbol": "rail",
    "marker-size": "small",
    "marker-color": "#FF8200"
   }
  },
  {
   "type": "Feature",
   "geometry": {
    "type": "Point",
    "coordinates": [
     -5.29295,
     37.71814
    ]
   },
   "properties": {
    "id": "EST-PALMADELRIO",
    "name": "Palma del Río",
    "province": "Córdoba",
    "marker-symbol": "rail",
    "marker-size": "small",
    "marker-color": "#FF8200"
   }
  },
  {
   "type": "Feature",
   "geometry": {
    "type": "Point",
    "coordinates": [
     -5.10678,
     37.80374
    ]
   },
   "properties": {
    "id": "EST-POSADAS",
    "name": "Posadas",
    "province": "Córdoba",
    "marker-symbol": "rail",
    "marker-size": "small",
    "marker-color": "#FF8200"
   }
  },
  {
   "type": "Feature",
   "geometry": {
    "type": "Point",
    "coordinates": [
     -4.57142,
     38.25524
    ]
   },
   "properties": {
    "id": "EST-CORDOBA",
    "name": "Córdoba",
    "province": "Córdoba",
    "marker-symbol": "rail",
    "marker-size": "small",
    "marker-color": "#FF8200"
   }
  },
  {
   "type": "Feature",
   "geometry": {
    "type": "Point",
    "coordinates": [
     -4.28369,
     37.98129
    ]
   },
   "properties": {
    "id": "EST-VILLADELRIO",
    "name": "Villa del Río",
    "province": "Córdoba",
    "marker-symbol": "rail",
    "marker-size": "small",
    "marker-color": "#FF8200"
   }
  },
  {
   "type": "Feature",
   "geometry": {
    "type": "Point",
    "coordinates": [
     -4.06603,
     38.02797
    ]
   },
   "properties": {
    "id": "EST-ANDUJAR",
    "name": "Andújar",
    "province": "Jaén",
    "marker-symbol": "rail",
    "marker-size": "small",
    "marker-color": "#FF8200"
   }
  },
  {
   "type": "Feature",
   "geometry": {
    "type": "Point",
    "coordinates": [
     -3.83216,
     38.01026
    ]
   },
   "properties": {
    "id": "EST-ESPELUY",
    "name": "Espeluy",
    "province": "Jaén",
    "marker-symbol": "rail",
    "marker-size": "small",
    "marker-color": "#FF8200"
   }
  },
  {
   "type": "Feature",
   "geometry": {
    "type": "Point",
    "coordinates": [
     -3.79079,
     37.77998
    ]
   },
   "properties": {
    "id": "EST-JAEN",
    "name": "Jaén",
    "province": "Jaén",
    "marker-symbol": "rail",
    "marker-size": "small",
    "marker-color": "#FF8200"
   }
  }
 ]
}