{
 "type": "FeatureCollection",
 "features": [
  {
   "type": "Feature",
   "geometry": {
    "type": "LineString",
    "coordinates": [
     [
      -3.6886,
      40.40697
     ],
     [
      -3.77236,
      40.32809
     ],
     [
      -3.84226,
      40.12085
     ],
     [
      -4.28316,
      39.97881
     ],
     [
      -4.48756,
      39.94935
     ],
     [
      -4.64656,
      39.96077
     ],
     [
      -4.82654,
      39.97063
     ],
     [
      -5.18621,
      39.92185
     ],
     [
      -5.54565,
      39.89496
     ],
     [
      -5.67764,
      39.89199
     ],
     [
      -6.10125,
      39.93762
     ],
     [
      -6.09963,
      40.02226
     ],
     [
      -6.22895,
      39.86621
     ],
     [
      -6.32569,
      39.81206
     ],
     [
      -6.37452,
      39.78881
     ],
     [
      -6.38572,
      39.46118
     ],
     [
      -6.34171,
      39.15394
     ],
     [
      -6.34305,
      38.92159
     ],
     [
      -6.40788,
      38.93625
     ],
     [
      -6.47721,
      38.91537
     ],
     [
      -6.59867,
      38.91358
     ],
     [
      -6.59867,
      38.91358
     ],
     [
      -6.69002,
      38.92177
     ],
     [
      -6.98162,
      38.89073
     ]
    ]
   },
   "properties": {
    "lid": "84",
    "name": "MD 52 Madrid - Badajoz",
    "type": "Media Distancia",
    "operator": "Renfe",
    "stroke": "#FF8200",
    "stroke-width": 3,
    "stroke-opacity": 0.8,
    "total_sta": 24,
    "coords_sta": 24
   }
  },
  {
   "type": "Feature",
   "geometry": {
    "type": "Point",
    "coordinates": [
     -3.6886,
     40.40697
    ]
   },
   "properties": {
    "id": "EST-MADRIDATOCHACERCANIAS",
    "name": "Madrid-Atocha Cercanías",
    "province": "Madrid",
    "marker-symbol": "rail",
    "marker-size": "small",
    "marker-color": "#FF8200"
   }
  },
  {
   "type": "Feature",
   "geometry": {
    "type": "Point",
    "coordinates": [
     -3.77236,
     40.32809
    ]
   },
   "properties": {
    "id": "EST-LEGANES",
    "name": "Leganés",
    "province": "Madrid",
    "marker-symbol": "rail",
    "marker-size": "small",
    "marker-color": "#FF8200"
   }
  },
  {
   "type": "Feature",
   "geometry": {
    "type": "Point",
    "coordinates": [
     -3.84226,
     40.12085
    ]
   },
   "properties": {
    "id": "EST-ILLESCAS",
    "name": "Illescas",
    "province": "Toledo",
    "marker-symbol": "rail",
    "marker-size": "small",
    "marker-color": "#FF8200"
   }
  },
  {
   "type": "Feature",
   "geometry": {
    "type": "Point",
    "coordinates": [
     -4.28316,
     39.97881
    ]
   },
   "properties": {
    "id": "EST-TORRIJOS",
    "name": "Torrijos",
    "province": "Toledo",
    "marker-symbol": "rail",
    "marker-size": "small",
    "marker-color": "#FF8200"
   }
  },
  {
   "type": "Feature",
   "geometry": {
    "type": "Point",
    "coordinates": [
     -4.48756,
     39.94935
    ]
   },
   "properties": {
    "id": "EST-ERUSTES",
    "name": "Erustes",
    "province": "Toledo",
    "marker-symbol": "rail",
    "marker-size": "small",
    "marker-color": "#FF8200"
   }
  },
  {
   "type": "Feature",
   "geometry": {
    "type": "Point",
    "coordinates": [
     -4.64656,
     39.96077
    ]
   },
   "properties": {
    "id": "EST-MONTEARAGON",
    "name": "Montearagón",
    "province": "Toledo",
    "marker-symbol": "rail",
    "marker-size": "small",
    "marker-color": "#FF8200"
   }
  },
  {
   "type": "Feature",
   "geometry": {
    "type": "Point",
    "coordinates": [
     -4.82654,
     39.97063
    ]
   },
   "properties": {
    "id": "EST-TALAVERADELAREINA",
    "name": "Talavera de la Reina",
    "province": "Toledo",
    "marker-symbol": "rail",
    "marker-size": "small",
    "marker-color": "#FF8200"
   }
  },
  {
   "type": "Feature",
   "geometry": {
    "type": "Point",
    "coordinates": [
     -5.18621,
     39.92185
    ]
   },
   "properties": {
    "id": "EST-OROPESADETOLEDO",
    "name": "Oropesa de Toledo",
    "province": "Toledo",
    "marker-symbol": "rail",
    "marker-size": "small",
    "marker-color": "#FF8200"
   }
  },
  {
   "type": "Feature",
   "geometry": {
    "type": "Point",
    "coordinates": [
     -5.54565,
     39.89496
    ]
   },
   "properties": {
    "id": "EST-NAVALMORALDELAMATA",
    "name": "Navalmoral de la Mata",
    "province": "Cáceres",
    "marker-symbol": "rail",
    "marker-size": "small",
    "marker-color": "#FF8200"
   }
  },
  {
   "type": "Feature",
   "geometry": {
    "type": "Point",
    "coordinates": [
     -5.67764,
     39.89199
    ]
   },
   "properties": {
    "id": "EST-CASATEJADA",
    "name": "Casatejada",
    "province": "Cáceres",
    "marker-symbol": "rail",
    "marker-size": "small",
    "marker-color": "#FF8200"
   }
  },
  {
   "type": "Feature",
   "geometry": {
    "type": "Point",
    "coordinates": [
     -6.10125,
     39.93762
    ]
   },
   "properties": {
    "id": "EST-MONFRAGUE",
    "name": "Monfragüe",
    "province": "Cáceres",
    "marker-symbol": "rail",
    "marker-size": "small",
    "marker-color": "#FF8200"
   }
  },
  {
   "type": "Feature",
   "geometry": {
    "type": "Point",
    "coordinates": [
     -6.09963,
     40.02226
    ]
   },
   "properties": {
    "id": "EST-PLASENCIA",
    "name": "Plasencia",
    "province": "Cáceres",
    "marker-symbol": "rail",
    "marker-size": "small",
    "marker-color": "#FF8200"
   }
  },
  {
   "type": "Feature",
   "geometry": {
    "type": "Point",
    "coordinates": [
     -6.22895,
     39.86621
    ]
   },
   "properties": {
    "id": "EST-MIRABEL",
    "name": "Mirabel",
    "province": "Cáceres",
    "marker-symbol": "rail",
    "marker-size": "small",
    "marker-color": "#FF8200"
   }
  },
  {
   "type": "Feature",
   "geometry": {
    "type": "Point",
    "coordinates": [
     -6.32569,
     39.81206
    ]
   },
   "properties": {
    "id": "EST-CASASDEMILLAN",
    "name": "Casas de Millán",
    "province": "Cáceres",
    "marker-symbol": "rail",
    "marker-size": "small",
    "marker-color": "#FF8200"
   }
  },
  {
   "type": "Feature",
   "geometry": {
    "type": "Point",
    "coordinates": [
     -6.37452,
     39.78881
    ]
   },
   "properties": {
    "id": "EST-CANAVERAL",
    "name": "Cañaveral",
    "province": "Cáceres",
    "marker-symbol": "rail",
    "marker-size": "small",
    "marker-color": "#FF8200"
   }
  },
  {
   "type": "Feature",
   "geometry": {
    "type": "Point",
    "coordinates": [
     -6.38572,
     39.46118
    ]
   },
   "properties": {
    "id": "EST-CACERES",
    "name": "Cáceres",
    "province": "Cáceres",
    "marker-symbol": "rail",
    "marker-size": "small",
    "marker-color": "#FF8200"
   }
  },
  {
   "type": "Feature",
   "geometry": {
    "type": "Point",
    "coordinates": [
     -6.34171,
     39.15394
    ]
   },
   "properties": {
    "id": "EST-CARMONITA",
    "name": "Carmonita",
    "province": "Badajoz",
    "marker-symbol": "rail",
    "marker-size": "small",
    "marker-color": "#FF8200"
   }
  },
  {
   "type": "Feature",
   "geometry": {
    "type": "Point",
    "coordinates": [
     -6.34305,
     38.92159
    ]
   },
   "properties": {
    "id": "EST-MERIDA",
    "name": "Mérida",
    "province": "Badajoz",
    "marker-symbol": "rail",
    "marker-size": "small",
    "marker-color": "#FF8200"
   }
  },
  {
   "type": "Feature",
   "geometry": {
    "type": "Point",
    "coordinates": [
     -6.40788,
     38.93625
    ]
   },
   "properties": {
    "id": "EST-ALJUCEN",
    "name": "Aljucén",
    "province": "Badajoz",
    "marker-symbol": "rail",
    "marker-size": "small",
    "marker-color": "#FF8200"
   }
  },
  {
   "type": "Feature",
   "geometry": {
    "type": "Point",
    "coordinates": [
     -6.47721,
     38.91537
    ]
   },
   "properties": {
    "id": "EST-GARROVILLALASVEGAS",
    "name": "Garrovilla-Las Vegas",
    "province": "Badajoz",
    "marker-symbol": "rail",
    "marker-size": "small",
    "marker-color": "#FF8200"
   }
  },
  {
   "type": "Feature",
   "geometry": {
    "type": "Point",
    "coordinates": [
     -6.59867,
     38.91358
    ]
   },
   "properties": {
    "id": "EST-MONTIJO",
    "name": "Montijo",
    "province": "Badajoz",
    "marker-symbol": "rail",
    "marker-size": "small",
    "marker-color": "#FF8200"
   }
  },
  {
   "type": "Feature",
   "geometry": {
    "type": "Point",
    "coordinates": [
     -6.59867,
     38.91358
    ]
   },
   "properties": {
    "id": "EST-MONTIJOELMOLINO",
    "name": "Montijo-El Molino",
    "province": "Badajoz",
    "marker-symbol": "rail",
    "marker-size": "small",
    "marker-color": "#FF8200"
   }
  },
  {
   "type": "Feature",
   "geometry": {
    "type": "Point",
    "coordinates": [
     -6.69002,
     38.92177
    ]
   },
   "properties": {
    "id": "EST-GUADIANA",
    "name": "Guadiana",
    "province": "Badajoz",
    "marker-symbol": "rail",
    "marker-size": "small",
    "marker-color": "#FF8200"
   }
  },
  {
   "type": "Feature",
   "geometry": {
    "type": "Point",
    "coordinates": [
     -6.98162,
     38.89073
    ]
   },
   "properties": {
    "id": "EST-BADAJOZ",
    "name": "Badajoz",
    "province": "Badajoz",
    "marker-symbol": "rail",
    "marker-size": "small",
    "marker-color": "#FF8200"
   }
  }
 ]
}