{
 "type": "FeatureCollection",
 "features": [
  {
   "type": "Feature",
   "geometry": {
    "type": "LineString",
    "coordinates": [
     [
      -3.68271,
      40.47395
     ],
     [
      -3.6886,
      40.40697
     ],
     [
      -3.91314,
      38.98487
     ],
     [
      -3.3706,
      39.0059
     ],
     [
      -3.39614,
      38.76328
     ],
     [
      -3.45135,
      38.64459
     ],
     [
      -3.5177,
      38.21573
     ],
     [
      -3.58914,
      38.06908
     ],
     [
      -3.35018,
      37.91348
     ],
     [
      -3.31075,
      37.43113
     ],
     [
      -3.52776,
      37.39582
     ],
     [
      -3.79079,
      37.77998
     ]
    ]
   },
   "properties": {
    "lid": "86",
    "name": "MD 58 Madrid - Jaén",
    "type": "Media Distancia",
    "operator": "Renfe",
    "stroke": "#FF8200",
    "stroke-width": 3,
    "stroke-opacity": 0.8,
    "total_sta": 12,
    "coords_sta": 12
   }
  },
  {
   "type": "Feature",
   "geometry": {
    "type": "Point",
    "coordinates": [
     -3.68271,
     40.47395
    ]
   },
   "properties": {
    "id": "EST-MADRIDCHAMARTIN",
    "name": "Madrid-Chamartín",
    "province": "Madrid",
    "marker-symbol": "rail",
    "marker-size": "small",
    "marker-color": "#FF8200"
   }
  },
  {
   "type": "Feature",
   "geometry": {
    "type": "Point",
    "coordinates": [
     -3.6886,
     40.40697
    ]
   },
   "properties": {
    "id": "EST-MADRIDATOCHACERCANIAS",
    "name": "Madrid-Atocha Cercanías",
    "province": "Madrid",
    "marker-symbol": "rail",
    "marker-size": "small",
    "marker-color": "#FF8200"
   }
  },
  {
   "type": "Feature",
   "geometry": {
    "type": "Point",
    "coordinates": [
     -3.91314,
     38.98487
    ]
   },
   "properties": {
    "id": "EST-CIUDADREAL",
    "name": "Ciudad Real",
    "province": "Ciudad Real",
    "marker-symbol": "rail",
    "marker-size": "small",
    "marker-color": "#FF8200"
   }
  },
  {
   "type": "Feature",
   "geometry": {
    "type": "Point",
    "coordinates": [
     -3.3706,
     39.0059
    ]
   },
   "properties": {
    "id": "EST-MANZANARES",
    "name": "Manzanares",
    "province": "Ciudad Real",
    "marker-symbol": "rail",
    "marker-size": "small",
    "marker-color": "#FF8200"
   }
  },
  {
   "type": "Feature",
   "geometry": {
    "type": "Point",
    "coordinates": [
     -3.39614,
     38.76328
    ]
   },
   "properties": {
    "id": "EST-VALDEPENAS",
    "name": "Valdepeñas",
    "province": "Ciudad Real",
    "marker-symbol": "rail",
    "marker-size": "small",
    "marker-color": "#FF8200"
   }
  },
  {
   "type": "Feature",
   "geometry": {
    "type": "Point",
    "coordinates": [
     -3.45135,
     38.64459
    ]
   },
   "properties": {
    "id": "EST-SANTACRUZDEMUDELA",
    "name": "Santa Cruz de Mudela",
    "province": "Ciudad Real",
    "marker-symbol": "rail",
    "marker-size": "small",
    "marker-color": "#FF8200"
   }
  },
  {
   "type": "Feature",
   "geometry": {
    "type": "Point",
    "coordinates": [
     -3.5177,
     38.21573
    ]
   },
   "properties": {
    "id": "EST-VILCHES",
    "name": "Vilches",
    "province": "Jaén",
    "marker-symbol": "rail",
    "marker-size": "small",
    "marker-color": "#FF8200"
   }
  },
  {
   "type": "Feature",
   "geometry": {
    "type": "Point",
    "coordinates": [
     -3.58914,
     38.06908
    ]
   },
   "properties": {
    "id": "EST-LINARESBAEZA",
    "name": "Linares-Baeza",
    "province": "Jaén",
    "marker-symbol": "rail",
    "marker-size": "small",
    "marker-color": "#FF8200"
   }
  },
  {
   "type": "Feature",
   "geometry": {
    "type": "Point",
    "coordinates": [
     -3.35018,
     37.91348
    ]
   },
   "properties": {
    "id": "EST-JODARUBEDA",
    "name": "Jódar-Úbeda",
    "province": "Jaén",
    "marker-symbol": "rail",
    "marker-size": "small",
    "marker-color": "#FF8200"
   }
  },
  {
   "type": "Feature",
   "geometry": {
    "type": "Point",
    "coordinates": [
     -3.31075,
     37.43113
    ]
   },
   "properties": {
    "id": "EST-MOREDA",
    "name": "Moreda",
    "province": "Granada",
    "marker-symbol": "rail",
    "marker-size": "small",
    "marker-color": "#FF8200"
   }
  },
  {
   "type": "Feature",
   "geometry": {
    "type": "Point",
    "coordinates": [
     -3.52776,
     37.39582
    ]
   },
   "properties": {
    "id": "EST-IZNALLOZ",
    "name": "Iznalloz",
    "province": "Granada",
    "marker-symbol": "rail",
    "marker-size": "small",
    "marker-color": "#FF8200"
   }
  },
  {
   "type": "Feature",
   "geometry": {
    "type": "Point",
    "coordinates": [
     -3.79079,
     37.77998
    ]
   },
   "properties": {
    "id": "EST-JAEN",
    "name": "Jaén",
    "province": "Jaén",
    "marker-symbol": "rail",
    "marker-size": "small",
    "marker-color": "#FF8200"
   }
  }
 ]
}