{
 "type": "FeatureCollection",
 "features": [
  {
   "type": "Feature",
   "geometry": {
    "type": "LineString",
    "coordinates": [
     [
      -8.41215,
      43.35037
     ],
     [
      -8.41298,
      43.33528
     ],
     [
      -8.44821,
      43.03786
     ],
     [
      -8.5452,
      42.87044
     ],
     [
      -8.65241,
      42.73898
     ],
     [
      -8.72537,
      42.67224
     ],
     [
      -8.76228,
      42.60199
     ],
     [
      -8.6354,
      42.42168
     ],
     [
      -8.61067,
      42.34041
     ],
     [
      -8.60372,
      42.28549
     ],
     [
      -8.71188,
      42.23952
     ]
    ]
   },
   "properties": {
    "lid": "89",
    "name": "MD 1 A Coruña - Vigo",
    "type": "Media Distancia",
    "operator": "Renfe",
    "stroke": "#00A650",
    "stroke-width": 3,
    "stroke-opacity": 0.8,
    "total_sta": 11,
    "coords_sta": 11
   }
  },
  {
   "type": "Feature",
   "geometry": {
    "type": "Point",
    "coordinates": [
     -8.41215,
     43.35037
    ]
   },
   "properties": {
    "id": "EST-ACORUNA",
    "name": "A Coruña",
    "province": "A Coruña",
    "marker-symbol": "rail",
    "marker-size": "small",
    "marker-color": "#00A650"
   }
  },
  {
   "type": "Feature",
   "geometry": {
    "type": "Point",
    "coordinates": [
     -8.41298,
     43.33528
    ]
   },
   "properties": {
    "id": "EST-ELVINAUNIVERSIDADE",
    "name": "Elviña-Universidade",
    "province": "A Coruña",
    "marker-symbol": "rail",
    "marker-size": "small",
    "marker-color": "#00A650"
   }
  },
  {
   "type": "Feature",
   "geometry": {
    "type": "Point",
    "coordinates": [
     -8.44821,
     43.03786
    ]
   },
   "properties": {
    "id": "EST-ORDES",
    "name": "Ordes",
    "province": "A Coruña",
    "marker-symbol": "rail",
    "marker-size": "small",
    "marker-color": "#00A650"
   }
  },
  {
   "type": "Feature",
   "geometry": {
    "type": "Point",
    "coordinates": [
     -8.5452,
     42.87044
    ]
   },
   "properties": {
    "id": "EST-SANTIAGODECOMPOSTELA",
    "name": "Santiago de Compostela",
    "province": "A Coruña",
    "marker-symbol": "rail",
    "marker-size": "small",
    "marker-color": "#00A650"
   }
  },
  {
   "type": "Feature",
   "geometry": {
    "type": "Point",
    "coordinates": [
     -8.65241,
     42.73898
    ]
   },
   "properties": {
    "id": "EST-PADRONBARBANZA",
    "name": "Padrón-Barbanza",
    "province": "A Coruña",
    "marker-symbol": "rail",
    "marker-size": "small",
    "marker-color": "#00A650"
   }
  },
  {
   "type": "Feature",
   "geometry": {
    "type": "Point",
    "coordinates": [
     -8.72537,
     42.67224
    ]
   },
   "properties": {
    "id": "EST-CATOIRA",
    "name": "Catoira",
    "province": "Pontevedra",
    "marker-symbol": "rail",
    "marker-size": "small",
    "marker-color": "#00A650"
   }
  },
  {
   "type": "Feature",
   "geometry": {
    "type": "Point",
    "coordinates": [
     -8.76228,
     42.60199
    ]
   },
   "properties": {
    "id": "EST-VILAGARCIADEAROUSA",
    "name": "Vilagarcía de Arousa",
    "province": "Pontevedra",
    "marker-symbol": "rail",
    "marker-size": "small",
    "marker-color": "#00A650"
   }
  },
  {
   "type": "Feature",
   "geometry": {
    "type": "Point",
    "coordinates": [
     -8.6354,
     42.42168
    ]
   },
   "properties": {
    "id": "EST-PONTEVEDRA",
    "name": "Pontevedra",
    "province": "Pontevedra",
    "marker-symbol": "rail",
    "marker-size": "small",
    "marker-color": "#00A650"
   }
  },
  {
   "type": "Feature",
   "geometry": {
    "type": "Point",
    "coordinates": [
     -8.61067,
     42.34041
    ]
   },
   "properties": {
    "id": "EST-ARCADE",
    "name": "Arcade",
    "province": "Pontevedra",
    "marker-symbol": "rail",
    "marker-size": "small",
    "marker-color": "#00A650"
   }
  },
  {
   "type": "Feature",
   "geometry": {
    "type": "Point",
    "coordinates": [
     -8.60372,
     42.28549
    ]
   },
   "properties": {
    "id": "EST-REDONDELA",
    "name": "Redondela",
    "province": "Pontevedra",
    "marker-symbol": "rail",
    "marker-size": "small",
    "marker-color": "#00A650"
   }
  },
  {
   "type": "Feature",
   "geometry": {
    "type": "Point",
    "coordinates": [
     -8.71188,
     42.23952
    ]
   },
   "properties": {
    "id": "EST-VIGOGUIXAR",
    "name": "Vigo-Guixar",
    "province": "Pontevedra",
    "marker-symbol": "rail",
    "marker-size": "small",
    "marker-color": "#00A650"
   }
  }
 ]
}