{
 "type": "FeatureCollection",
 "features": [
  {
   "type": "Feature",
   "geometry": {
    "type": "LineString",
    "coordinates": [
     [
      -0.37719,
      39.46691
     ],
     [
      -0.52468,
      38.99225
     ],
     [
      -0.75309,
      38.87813
     ],
     [
      -0.95385,
      38.76545
     ],
     [
      -0.86795,
      38.63227
     ],
     [
      -0.8011,
      38.4849
     ],
     [
      -0.49606,
      38.34498
     ],
     [
      -0.6951,
      38.27179
     ],
     [
      -0.9498,
      38.08126
     ],
     [
      -0.99549,
      38.04715
     ],
     [
      -1.13346,
      37.97658
     ]
    ]
   },
   "properties": {
    "lid": "98",
    "name": "Regional Valencia - Murcia",
    "type": "Regional",
    "operator": "Renfe",
    "stroke": "#898989",
    "stroke-width": 3,
    "stroke-opacity": 0.8,
    "total_sta": 11,
    "coords_sta": 11
   }
  },
  {
   "type": "Feature",
   "geometry": {
    "type": "Point",
    "coordinates": [
     -0.37719,
     39.46691
    ]
   },
   "properties": {
    "id": "EST-VALENCIANORD",
    "name": "València-Nord",
    "province": "Valencia",
    "marker-symbol": "rail",
    "marker-size": "small",
    "marker-color": "#898989"
   }
  },
  {
   "type": "Feature",
   "geometry": {
    "type": "Point",
    "coordinates": [
     -0.52468,
     38.99225
    ]
   },
   "properties": {
    "id": "EST-XATIVA",
    "name": "Xàtiva",
    "province": "Valencia",
    "marker-symbol": "rail",
    "marker-size": "small",
    "marker-color": "#898989"
   }
  },
  {
   "type": "Feature",
   "geometry": {
    "type": "Point",
    "coordinates": [
     -0.75309,
     38.87813
    ]
   },
   "properties": {
    "id": "EST-MOIXENT",
    "name": "Moixent",
    "province": "Valencia",
    "marker-symbol": "rail",
    "marker-size": "small",
    "marker-color": "#898989"
   }
  },
  {
   "type": "Feature",
   "geometry": {
    "type": "Point",
    "coordinates": [
     -0.95385,
     38.76545
    ]
   },
   "properties": {
    "id": "EST-LAENCINA",
    "name": "La Encina",
    "province": "Alicante",
    "marker-symbol": "rail",
    "marker-size": "small",
    "marker-color": "#898989"
   }
  },
  {
   "type": "Feature",
   "geometry": {
    "type": "Point",
    "coordinates": [
     -0.86795,
     38.63227
    ]
   },
   "properties": {
    "id": "EST-VILLENA",
    "name": "Villena",
    "province": "Alicante",
    "marker-symbol": "rail",
    "marker-size": "small",
    "marker-color": "#898989"
   }
  },
  {
   "type": "Feature",
   "geometry": {
    "type": "Point",
    "coordinates": [
     -0.8011,
     38.4849
    ]
   },
   "properties": {
    "id": "EST-ELDAPETRER",
    "name": "Elda-Petrer",
    "province": "Alicante",
    "marker-symbol": "rail",
    "marker-size": "small",
    "marker-color": "#898989"
   }
  },
  {
   "type": "Feature",
   "geometry": {
    "type": "Point",
    "coordinates": [
     -0.49606,
     38.34498
    ]
   },
   "properties": {
    "id": "EST-ALICANTERMINAL",
    "name": "Alicante-Terminal",
    "province": "Alicante",
    "marker-symbol": "rail",
    "marker-size": "small",
    "marker-color": "#898989"
   }
  },
  {
   "type": "Feature",
   "geometry": {
    "type": "Point",
    "coordinates": [
     -0.6951,
     38.27179
    ]
   },
   "properties": {
    "id": "EST-ELCHEPARQUE",
    "name": "Elche-Parque",
    "province": "Alicante",
    "marker-symbol": "rail",
    "marker-size": "small",
    "marker-color": "#898989"
   }
  },
  {
   "type": "Feature",
   "geometry": {
    "type": "Point",
    "coordinates": [
     -0.9498,
     38.08126
    ]
   },
   "properties": {
    "id": "EST-ORIHUELAMIGUELHERNANDEZ",
    "name": "Orihuela-Miguel Hernández",
    "province": "Alicante",
    "marker-symbol": "rail",
    "marker-size": "small",
    "marker-color": "#898989"
   }
  },
  {
   "type": "Feature",
   "geometry": {
    "type": "Point",
    "coordinates": [
     -0.99549,
     38.04715
    ]
   },
   "properties": {
    "id": "EST-BENIEL",
    "name": "Beniel",
    "province": "Murcia",
    "marker-symbol": "rail",
    "marker-size": "small",
    "marker-color": "#898989"
   }
  },
  {
   "type": "Feature",
   "geometry": {
    "type": "Point",
    "coordinates": [
     -1.13346,
     37.97658
    ]
   },
   "properties": {
    "id": "EST-MURCIADELCARMEN",
    "name": "Murcia del Carmen",
    "province": "Murcia",
    "marker-symbol": "rail",
    "marker-size": "small",
    "marker-color": "#898989"
   }
  }
 ]
}