{
  "type": "FeatureCollection",
  "features": [
    {
      "type": "Feature",
      "properties": {
        "id": "104",
        "name": "Regional Logroño - Valladolid",
        "line_type": "Regional",
        "operator": "Renfe"
      },
      "geometry": {
        "type": "LineString",
        "coordinates": [
          [
            -2.44082,
            42.45757
          ],
          [
            -2.85025,
            42.58175
          ],
          [
            -2.94114,
            42.6908
          ],
          [
            -3.11282,
            42.63021
          ],
          [
            -3.31908,
            42.54273
          ],
          [
            -3.66632,
            42.37117
          ],
          [
            -4.49627,
            41.9174
          ],
          [
            -4.53386,
            42.01573
          ],
          [
            -4.7272,
            41.64334
          ]
        ]
      }
    },
    {
      "type": "Feature",
      "properties": {
        "id": "EST-LOGRONO",
        "name": "Logroño",
        "line": "Regional Logroño - Valladolid"
      },
      "geometry": {
        "type": "Point",
        "coordinates": [
          -2.44082,
          42.45757
        ]
      }
    },
    {
      "type": "Feature",
      "properties": {
        "id": "EST-HARO",
        "name": "Haro",
        "line": "Regional Logroño - Valladolid"
      },
      "geometry": {
        "type": "Point",
        "coordinates": [
          -2.85025,
          42.58175
        ]
      }
    },
    {
      "type": "Feature",
      "properties": {
        "id": "EST-MIRANDADEEBRO",
        "name": "Miranda de Ebro",
        "line": "Regional Logroño - Valladolid"
      },
      "geometry": {
        "type": "Point",
        "coordinates": [
          -2.94114,
          42.6908
        ]
      }
    },
    {
      "type": "Feature",
      "properties": {
        "id": "EST-PANCORBO",
        "name": "Pancorbo",
        "line": "Regional Logroño - Valladolid"
      },
      "geometry": {
        "type": "Point",
        "coordinates": [
          -3.11282,
          42.63021
        ]
      }
    },
    {
      "type": "Feature",
      "properties": {
        "id": "EST-BRIVIESCA",
        "name": "Briviesca",
        "line": "Regional Logroño - Valladolid"
      },
      "geometry": {
        "type": "Point",
        "coordinates": [
          -3.31908,
          42.54273
        ]
      }
    },
    {
      "type": "Feature",
      "properties": {
        "id": "EST-BURGOSROSADELIMA",
        "name": "Burgos-Rosa de Lima",
        "line": "Regional Logroño - Valladolid"
      },
      "geometry": {
        "type": "Point",
        "coordinates": [
          -3.66632,
          42.37117
        ]
      }
    },
    {
      "type": "Feature",
      "properties": {
        "id": "EST-VENTADEBANOS",
        "name": "Venta de Baños",
        "line": "Regional Logroño - Valladolid"
      },
      "geometry": {
        "type": "Point",
        "coordinates": [
          -4.49627,
          41.9174
        ]
      }
    },
    {
      "type": "Feature",
      "properties": {
        "id": "EST-PALENCIA",
        "name": "Palencia",
        "line": "Regional Logroño - Valladolid"
      },
      "geometry": {
        "type": "Point",
        "coordinates": [
          -4.53386,
          42.01573
        ]
      }
    },
    {
      "type": "Feature",
      "properties": {
        "id": "EST-VALLADOLIDCAMPOGRANDE",
        "name": "Valladolid-Campo Grande",
        "line": "Regional Logroño - Valladolid"
      },
      "geometry": {
        "type": "Point",
        "coordinates": [
          -4.7272,
          41.64334
        ]
      }
    }
  ]
}