{
  "type": "FeatureCollection",
  "features": [
    {
      "type": "Feature",
      "properties": {
        "id": "11",
        "name": "AVE Madrid - Granada",
        "line_type": "AVE",
        "operator": "Renfe"
      },
      "geometry": {
        "type": "LineString",
        "coordinates": [
          [
            -3.6886,
            40.40697
          ],
          [
            -4.57142,
            38.25524
          ],
          [
            -4.71971,
            37.07017
          ],
          [
            -4.13567,
            37.17511
          ],
          [
            -3.60863,
            37.18369
          ]
        ]
      }
    },
    {
      "type": "Feature",
      "properties": {
        "id": "EST-MADRIDPUERTADEATOCHA",
        "name": "Madrid-Puerta de Atocha",
        "line": "AVE Madrid - Granada"
      },
      "geometry": {
        "type": "Point",
        "coordinates": [
          -3.6886,
          40.40697
        ]
      }
    },
    {
      "type": "Feature",
      "properties": {
        "id": "EST-CORDOBA",
        "name": "Córdoba",
        "line": "AVE Madrid - Granada"
      },
      "geometry": {
        "type": "Point",
        "coordinates": [
          -4.57142,
          38.25524
        ]
      }
    },
    {
      "type": "Feature",
      "properties": {
        "id": "EST-ANTEQUERASANTAANA",
        "name": "Antequera-Santa Ana",
        "line": "AVE Madrid - Granada"
      },
      "geometry": {
        "type": "Point",
        "coordinates": [
          -4.71971,
          37.07017
        ]
      }
    },
    {
      "type": "Feature",
      "properties": {
        "id": "EST-LOJA",
        "name": "Loja",
        "line": "AVE Madrid - Granada"
      },
      "geometry": {
        "type": "Point",
        "coordinates": [
          -4.13567,
          37.17511
        ]
      }
    },
    {
      "type": "Feature",
      "properties": {
        "id": "EST-GRANADA",
        "name": "Granada",
        "line": "AVE Madrid - Granada"
      },
      "geometry": {
        "type": "Point",
        "coordinates": [
          -3.60863,
          37.18369
        ]
      }
    }
  ]
}