{
  "type": "FeatureCollection",
  "features": [
    {
      "type": "Feature",
      "properties": {
        "id": "117",
        "name": "MD Línea 45/46 Madrid - Valencia",
        "line_type": "Media Distancia",
        "operator": "Renfe"
      },
      "geometry": {
        "type": "LineString",
        "coordinates": [
          [
            -3.68226,
            40.47206
          ],
          [
            -3.6886,
            40.40697
          ],
          [
            -3.61825,
            40.03483
          ],
          [
            -3.73859,
            39.94957
          ],
          [
            -3.33025,
            39.62197
          ],
          [
            -3.26637,
            39.50422
          ],
          [
            -3.20537,
            39.39566
          ],
          [
            -2.77539,
            39.27854
          ],
          [
            -2.59851,
            39.26072
          ],
          [
            -2.16292,
            39.19932
          ],
          [
            -3.98261,
            42.98795
          ],
          [
            -1.10557,
            38.86765
          ],
          [
            -0.86795,
            38.63227
          ],
          [
            -0.75309,
            38.87813
          ],
          [
            -0.52468,
            38.99225
          ],
          [
            -0.37719,
            39.46691
          ]
        ]
      }
    },
    {
      "type": "Feature",
      "properties": {
        "id": "EST-MADRIDCHAMARTINCLARACAMPOAMOR",
        "name": "Madrid-Chamartín-Clara Campoamor",
        "line": "MD Línea 45/46 Madrid - Valencia"
      },
      "geometry": {
        "type": "Point",
        "coordinates": [
          -3.68226,
          40.47206
        ]
      }
    },
    {
      "type": "Feature",
      "properties": {
        "id": "EST-MADRIDATOCHACERCANIAS",
        "name": "Madrid-Atocha Cercanías",
        "line": "MD Línea 45/46 Madrid - Valencia"
      },
      "geometry": {
        "type": "Point",
        "coordinates": [
          -3.6886,
          40.40697
        ]
      }
    },
    {
      "type": "Feature",
      "properties": {
        "id": "EST-ARANJUEZ",
        "name": "Aranjuez",
        "line": "MD Línea 45/46 Madrid - Valencia"
      },
      "geometry": {
        "type": "Point",
        "coordinates": [
          -3.61825,
          40.03483
        ]
      }
    },
    {
      "type": "Feature",
      "properties": {
        "id": "EST-CASTILLEJOANOVER",
        "name": "Castillejo-Añover",
        "line": "MD Línea 45/46 Madrid - Valencia"
      },
      "geometry": {
        "type": "Point",
        "coordinates": [
          -3.73859,
          39.94957
        ]
      }
    },
    {
      "type": "Feature",
      "properties": {
        "id": "EST-VILLACANAS",
        "name": "Villacañas",
        "line": "MD Línea 45/46 Madrid - Valencia"
      },
      "geometry": {
        "type": "Point",
        "coordinates": [
          -3.33025,
          39.62197
        ]
      }
    },
    {
      "type": "Feature",
      "properties": {
        "id": "EST-QUERO",
        "name": "Quero",
        "line": "MD Línea 45/46 Madrid - Valencia"
      },
      "geometry": {
        "type": "Point",
        "coordinates": [
          -3.26637,
          39.50422
        ]
      }
    },
    {
      "type": "Feature",
      "properties": {
        "id": "EST-ALCAZARDESANJUAN",
        "name": "Alcázar de San Juan",
        "line": "MD Línea 45/46 Madrid - Valencia"
      },
      "geometry": {
        "type": "Point",
        "coordinates": [
          -3.20537,
          39.39566
        ]
      }
    },
    {
      "type": "Feature",
      "properties": {
        "id": "EST-SOCUELLAMOS",
        "name": "Socuéllamos",
        "line": "MD Línea 45/46 Madrid - Valencia"
      },
      "geometry": {
        "type": "Point",
        "coordinates": [
          -2.77539,
          39.27854
        ]
      }
    },
    {
      "type": "Feature",
      "properties": {
        "id": "EST-VILLARROBLEDO",
        "name": "Villarrobledo",
        "line": "MD Línea 45/46 Madrid - Valencia"
      },
      "geometry": {
        "type": "Point",
        "coordinates": [
          -2.59851,
          39.26072
        ]
      }
    },
    {
      "type": "Feature",
      "properties": {
        "id": "EST-LARODA",
        "name": "La Roda",
        "line": "MD Línea 45/46 Madrid - Valencia"
      },
      "geometry": {
        "type": "Point",
        "coordinates": [
          -2.16292,
          39.19932
        ]
      }
    },
    {
      "type": "Feature",
      "properties": {
        "id": "EST-ALBACETELOSLLANOS",
        "name": "Albacete-Los Llanos",
        "line": "MD Línea 45/46 Madrid - Valencia"
      },
      "geometry": {
        "type": "Point",
        "coordinates": [
          -3.98261,
          42.98795
        ]
      }
    },
    {
      "type": "Feature",
      "properties": {
        "id": "EST-ALMANSA",
        "name": "Almansa",
        "line": "MD Línea 45/46 Madrid - Valencia"
      },
      "geometry": {
        "type": "Point",
        "coordinates": [
          -1.10557,
          38.86765
        ]
      }
    },
    {
      "type": "Feature",
      "properties": {
        "id": "EST-VILLENA",
        "name": "Villena",
        "line": "MD Línea 45/46 Madrid - Valencia"
      },
      "geometry": {
        "type": "Point",
        "coordinates": [
          -0.86795,
          38.63227
        ]
      }
    },
    {
      "type": "Feature",
      "properties": {
        "id": "EST-MOIXENT",
        "name": "Moixent",
        "line": "MD Línea 45/46 Madrid - Valencia"
      },
      "geometry": {
        "type": "Point",
        "coordinates": [
          -0.75309,
          38.87813
        ]
      }
    },
    {
      "type": "Feature",
      "properties": {
        "id": "EST-XATIVA",
        "name": "Xàtiva",
        "line": "MD Línea 45/46 Madrid - Valencia"
      },
      "geometry": {
        "type": "Point",
        "coordinates": [
          -0.52468,
          38.99225
        ]
      }
    },
    {
      "type": "Feature",
      "properties": {
        "id": "EST-VALENCIANORD",
        "name": "València-Nord",
        "line": "MD Línea 45/46 Madrid - Valencia"
      },
      "geometry": {
        "type": "Point",
        "coordinates": [
          -0.37719,
          39.46691
        ]
      }
    }
  ]
}