{
  "type": "FeatureCollection",
  "features": [
    {
      "type": "Feature",
      "properties": {
        "id": "118",
        "name": "MD Línea 45/46 Madrid - Ciudad Real",
        "line_type": "Media Distancia",
        "operator": "Renfe"
      },
      "geometry": {
        "type": "LineString",
        "coordinates": [
          [
            -3.68226,
            40.47206
          ],
          [
            -3.6886,
            40.40697
          ],
          [
            -3.61825,
            40.03483
          ],
          [
            -3.73859,
            39.94957
          ],
          [
            -3.33025,
            39.62197
          ],
          [
            -3.26637,
            39.50422
          ],
          [
            -3.20537,
            39.39566
          ],
          [
            -3.3706,
            39.0059
          ],
          [
            -3.60408,
            39.06141
          ],
          [
            -3.70965,
            38.89551
          ],
          [
            -3.91314,
            38.98487
          ]
        ]
      }
    },
    {
      "type": "Feature",
      "properties": {
        "id": "EST-MADRIDCHAMARTINCLARACAMPOAMOR",
        "name": "Madrid-Chamartín-Clara Campoamor",
        "line": "MD Línea 45/46 Madrid - Ciudad Real"
      },
      "geometry": {
        "type": "Point",
        "coordinates": [
          -3.68226,
          40.47206
        ]
      }
    },
    {
      "type": "Feature",
      "properties": {
        "id": "EST-MADRIDATOCHACERCANIAS",
        "name": "Madrid-Atocha Cercanías",
        "line": "MD Línea 45/46 Madrid - Ciudad Real"
      },
      "geometry": {
        "type": "Point",
        "coordinates": [
          -3.6886,
          40.40697
        ]
      }
    },
    {
      "type": "Feature",
      "properties": {
        "id": "EST-ARANJUEZ",
        "name": "Aranjuez",
        "line": "MD Línea 45/46 Madrid - Ciudad Real"
      },
      "geometry": {
        "type": "Point",
        "coordinates": [
          -3.61825,
          40.03483
        ]
      }
    },
    {
      "type": "Feature",
      "properties": {
        "id": "EST-CASTILLEJOANOVER",
        "name": "Castillejo-Añover",
        "line": "MD Línea 45/46 Madrid - Ciudad Real"
      },
      "geometry": {
        "type": "Point",
        "coordinates": [
          -3.73859,
          39.94957
        ]
      }
    },
    {
      "type": "Feature",
      "properties": {
        "id": "EST-VILLACANAS",
        "name": "Villacañas",
        "line": "MD Línea 45/46 Madrid - Ciudad Real"
      },
      "geometry": {
        "type": "Point",
        "coordinates": [
          -3.33025,
          39.62197
        ]
      }
    },
    {
      "type": "Feature",
      "properties": {
        "id": "EST-QUERO",
        "name": "Quero",
        "line": "MD Línea 45/46 Madrid - Ciudad Real"
      },
      "geometry": {
        "type": "Point",
        "coordinates": [
          -3.26637,
          39.50422
        ]
      }
    },
    {
      "type": "Feature",
      "properties": {
        "id": "EST-ALCAZARDESANJUAN",
        "name": "Alcázar de San Juan",
        "line": "MD Línea 45/46 Madrid - Ciudad Real"
      },
      "geometry": {
        "type": "Point",
        "coordinates": [
          -3.20537,
          39.39566
        ]
      }
    },
    {
      "type": "Feature",
      "properties": {
        "id": "EST-MANZANARES",
        "name": "Manzanares",
        "line": "MD Línea 45/46 Madrid - Ciudad Real"
      },
      "geometry": {
        "type": "Point",
        "coordinates": [
          -3.3706,
          39.0059
        ]
      }
    },
    {
      "type": "Feature",
      "properties": {
        "id": "EST-DAIMIEL",
        "name": "Daimiel",
        "line": "MD Línea 45/46 Madrid - Ciudad Real"
      },
      "geometry": {
        "type": "Point",
        "coordinates": [
          -3.60408,
          39.06141
        ]
      }
    },
    {
      "type": "Feature",
      "properties": {
        "id": "EST-ALMAGRO",
        "name": "Almagro",
        "line": "MD Línea 45/46 Madrid - Ciudad Real"
      },
      "geometry": {
        "type": "Point",
        "coordinates": [
          -3.70965,
          38.89551
        ]
      }
    },
    {
      "type": "Feature",
      "properties": {
        "id": "EST-CIUDADREAL",
        "name": "Ciudad Real",
        "line": "MD Línea 45/46 Madrid - Ciudad Real"
      },
      "geometry": {
        "type": "Point",
        "coordinates": [
          -3.91314,
          38.98487
        ]
      }
    }
  ]
}