{
  "type": "FeatureCollection",
  "features": [
    {
      "type": "Feature",
      "properties": {
        "id": "160",
        "name": "RG1 L'Hospitalet de Llobregat - Figueres / Portbou",
        "line_type": "Rodalies",
        "operator": "Renfe"
      },
      "geometry": {
        "type": "LineString",
        "coordinates": [
          [
            2.10094,
            41.36424
          ],
          [
            2.17008,
            41.38655
          ],
          [
            2.18091,
            41.39211
          ],
          [
            2.18692,
            41.41014
          ],
          [
            2.23055,
            41.42433
          ],
          [
            2.2491,
            41.44571
          ],
          [
            2.27221,
            41.46291
          ],
          [
            2.28686,
            41.46874
          ],
          [
            2.31042,
            41.47691
          ],
          [
            2.31981,
            41.47902
          ],
          [
            2.35492,
            41.48761
          ],
          [
            2.38983,
            41.50049
          ],
          [
            1.90683,
            41.52259
          ],
          [
            2.44552,
            41.53305
          ],
          [
            2.49837,
            41.5554
          ],
          [
            2.52602,
            41.56844
          ],
          [
            2.54942,
            41.57741
          ],
          [
            2.58115,
            41.58645
          ],
          [
            2.59404,
            41.59227
          ],
          [
            2.66657,
            41.61471
          ],
          [
            2.69361,
            41.62236
          ],
          [
            2.71646,
            41.63015
          ],
          [
            2.7414,
            41.64153
          ],
          [
            2.76901,
            41.67334
          ],
          [
            2.71948,
            41.70705
          ],
          [
            2.67338,
            41.77217
          ],
          [
            2.74502,
            41.80748
          ],
          [
            2.80057,
            41.84116
          ],
          [
            2.81174,
            41.89616
          ],
          [
            2.17096,
            41.39502
          ],
          [
            2.87485,
            42.02732
          ],
          [
            2.9153,
            42.03698
          ],
          [
            2.95717,
            42.04749
          ],
          [
            2.96476,
            42.06828
          ],
          [
            2.96561,
            42.12222
          ],
          [
            2.98933,
            42.17229
          ],
          [
            2.97803,
            42.21637
          ],
          [
            2.96897,
            42.265
          ],
          [
            3.0863,
            42.32515
          ],
          [
            3.14916,
            42.3668
          ],
          [
            3.15418,
            42.407
          ],
          [
            3.15801,
            42.4248
          ]
        ]
      }
    },
    {
      "type": "Feature",
      "properties": {
        "id": "EST-LHOSPITALETDELLOBREGAT",
        "name": "L'Hospitalet de Llobregat",
        "line": "RG1 L'Hospitalet de Llobregat - Figueres / Portbou"
      },
      "geometry": {
        "type": "Point",
        "coordinates": [
          2.10094,
          41.36424
        ]
      }
    },
    {
      "type": "Feature",
      "properties": {
        "id": "EST-PLACACATALUNYA",
        "name": "Plaça Catalunya",
        "line": "RG1 L'Hospitalet de Llobregat - Figueres / Portbou"
      },
      "geometry": {
        "type": "Point",
        "coordinates": [
          2.17008,
          41.38655
        ]
      }
    },
    {
      "type": "Feature",
      "properties": {
        "id": "EST-ARCDETRIOMF",
        "name": "Arc de Triomf",
        "line": "RG1 L'Hospitalet de Llobregat - Figueres / Portbou"
      },
      "geometry": {
        "type": "Point",
        "coordinates": [
          2.18091,
          41.39211
        ]
      }
    },
    {
      "type": "Feature",
      "properties": {
        "id": "EST-ELCLOTARAGO",
        "name": "El Clot-Aragó",
        "line": "RG1 L'Hospitalet de Llobregat - Figueres / Portbou"
      },
      "geometry": {
        "type": "Point",
        "coordinates": [
          2.18692,
          41.41014
        ]
      }
    },
    {
      "type": "Feature",
      "properties": {
        "id": "EST-SANTADRIADEBESOS",
        "name": "Sant Adrià de Besòs",
        "line": "RG1 L'Hospitalet de Llobregat - Figueres / Portbou"
      },
      "geometry": {
        "type": "Point",
        "coordinates": [
          2.23055,
          41.42433
        ]
      }
    },
    {
      "type": "Feature",
      "properties": {
        "id": "EST-BADALONA",
        "name": "Badalona",
        "line": "RG1 L'Hospitalet de Llobregat - Figueres / Portbou"
      },
      "geometry": {
        "type": "Point",
        "coordinates": [
          2.2491,
          41.44571
        ]
      }
    },
    {
      "type": "Feature",
      "properties": {
        "id": "EST-MONTGAT",
        "name": "Montgat",
        "line": "RG1 L'Hospitalet de Llobregat - Figueres / Portbou"
      },
      "geometry": {
        "type": "Point",
        "coordinates": [
          2.27221,
          41.46291
        ]
      }
    },
    {
      "type": "Feature",
      "properties": {
        "id": "EST-MONTGATNORD",
        "name": "Montgat Nord",
        "line": "RG1 L'Hospitalet de Llobregat - Figueres / Portbou"
      },
      "geometry": {
        "type": "Point",
        "coordinates": [
          2.28686,
          41.46874
        ]
      }
    },
    {
      "type": "Feature",
      "properties": {
        "id": "EST-ELMASNOU",
        "name": "El Masnou",
        "line": "RG1 L'Hospitalet de Llobregat - Figueres / Portbou"
      },
      "geometry": {
        "type": "Point",
        "coordinates": [
          2.31042,
          41.47691
        ]
      }
    },
    {
      "type": "Feature",
      "properties": {
        "id": "EST-OCATA",
        "name": "Ocata",
        "line": "RG1 L'Hospitalet de Llobregat - Figueres / Portbou"
      },
      "geometry": {
        "type": "Point",
        "coordinates": [
          2.31981,
          41.47902
        ]
      }
    },
    {
      "type": "Feature",
      "properties": {
        "id": "EST-PREMIADEMAR",
        "name": "Premià de Mar",
        "line": "RG1 L'Hospitalet de Llobregat - Figueres / Portbou"
      },
      "geometry": {
        "type": "Point",
        "coordinates": [
          2.35492,
          41.48761
        ]
      }
    },
    {
      "type": "Feature",
      "properties": {
        "id": "EST-VILASSARDEMAR",
        "name": "Vilassar de Mar",
        "line": "RG1 L'Hospitalet de Llobregat - Figueres / Portbou"
      },
      "geometry": {
        "type": "Point",
        "coordinates": [
          2.38983,
          41.50049
        ]
      }
    },
    {
      "type": "Feature",
      "properties": {
        "id": "EST-CABRERADEMAR",
        "name": "Cabrera de Mar",
        "line": "RG1 L'Hospitalet de Llobregat - Figueres / Portbou"
      },
      "geometry": {
        "type": "Point",
        "coordinates": [
          1.90683,
          41.52259
        ]
      }
    },
    {
      "type": "Feature",
      "properties": {
        "id": "EST-MATARO",
        "name": "Mataró",
        "line": "RG1 L'Hospitalet de Llobregat - Figueres / Portbou"
      },
      "geometry": {
        "type": "Point",
        "coordinates": [
          2.44552,
          41.53305
        ]
      }
    },
    {
      "type": "Feature",
      "properties": {
        "id": "EST-STANDREUDELLAVANERES",
        "name": "St. Andreu de Llavaneres",
        "line": "RG1 L'Hospitalet de Llobregat - Figueres / Portbou"
      },
      "geometry": {
        "type": "Point",
        "coordinates": [
          2.49837,
          41.5554
        ]
      }
    },
    {
      "type": "Feature",
      "properties": {
        "id": "EST-CALDESDESTRAC",
        "name": "Caldes d'Estrac",
        "line": "RG1 L'Hospitalet de Llobregat - Figueres / Portbou"
      },
      "geometry": {
        "type": "Point",
        "coordinates": [
          2.52602,
          41.56844
        ]
      }
    },
    {
      "type": "Feature",
      "properties": {
        "id": "EST-ARENYSDEMAR",
        "name": "Arenys de Mar",
        "line": "RG1 L'Hospitalet de Llobregat - Figueres / Portbou"
      },
      "geometry": {
        "type": "Point",
        "coordinates": [
          2.54942,
          41.57741
        ]
      }
    },
    {
      "type": "Feature",
      "properties": {
        "id": "EST-CANETDEMAR",
        "name": "Canet de Mar",
        "line": "RG1 L'Hospitalet de Llobregat - Figueres / Portbou"
      },
      "geometry": {
        "type": "Point",
        "coordinates": [
          2.58115,
          41.58645
        ]
      }
    },
    {
      "type": "Feature",
      "properties": {
        "id": "EST-SANTPOLDEMAR",
        "name": "Sant Pol de Mar",
        "line": "RG1 L'Hospitalet de Llobregat - Figueres / Portbou"
      },
      "geometry": {
        "type": "Point",
        "coordinates": [
          2.59404,
          41.59227
        ]
      }
    },
    {
      "type": "Feature",
      "properties": {
        "id": "EST-CALELLA",
        "name": "Calella",
        "line": "RG1 L'Hospitalet de Llobregat - Figueres / Portbou"
      },
      "geometry": {
        "type": "Point",
        "coordinates": [
          2.66657,
          41.61471
        ]
      }
    },
    {
      "type": "Feature",
      "properties": {
        "id": "EST-PINEDADEMAR",
        "name": "Pineda de Mar",
        "line": "RG1 L'Hospitalet de Llobregat - Figueres / Portbou"
      },
      "geometry": {
        "type": "Point",
        "coordinates": [
          2.69361,
          41.62236
        ]
      }
    },
    {
      "type": "Feature",
      "properties": {
        "id": "EST-SANTASUSANNA",
        "name": "Santa Susanna",
        "line": "RG1 L'Hospitalet de Llobregat - Figueres / Portbou"
      },
      "geometry": {
        "type": "Point",
        "coordinates": [
          2.71646,
          41.63015
        ]
      }
    },
    {
      "type": "Feature",
      "properties": {
        "id": "EST-MALGRATDEMAR",
        "name": "Malgrat de Mar",
        "line": "RG1 L'Hospitalet de Llobregat - Figueres / Portbou"
      },
      "geometry": {
        "type": "Point",
        "coordinates": [
          2.7414,
          41.64153
        ]
      }
    },
    {
      "type": "Feature",
      "properties": {
        "id": "EST-BLANES",
        "name": "Blanes",
        "line": "RG1 L'Hospitalet de Llobregat - Figueres / Portbou"
      },
      "geometry": {
        "type": "Point",
        "coordinates": [
          2.76901,
          41.67334
        ]
      }
    },
    {
      "type": "Feature",
      "properties": {
        "id": "EST-TORDERA",
        "name": "Tordera",
        "line": "RG1 L'Hospitalet de Llobregat - Figueres / Portbou"
      },
      "geometry": {
        "type": "Point",
        "coordinates": [
          2.71948,
          41.70705
        ]
      }
    },
    {
      "type": "Feature",
      "properties": {
        "id": "EST-MACANETMASSANES",
        "name": "Maçanet-Massanes",
        "line": "RG1 L'Hospitalet de Llobregat - Figueres / Portbou"
      },
      "geometry": {
        "type": "Point",
        "coordinates": [
          2.67338,
          41.77217
        ]
      }
    },
    {
      "type": "Feature",
      "properties": {
        "id": "EST-SILS",
        "name": "Sils",
        "line": "RG1 L'Hospitalet de Llobregat - Figueres / Portbou"
      },
      "geometry": {
        "type": "Point",
        "coordinates": [
          2.74502,
          41.80748
        ]
      }
    },
    {
      "type": "Feature",
      "properties": {
        "id": "EST-CALDESDEMALAVELLA",
        "name": "Caldes de Malavella",
        "line": "RG1 L'Hospitalet de Llobregat - Figueres / Portbou"
      },
      "geometry": {
        "type": "Point",
        "coordinates": [
          2.80057,
          41.84116
        ]
      }
    },
    {
      "type": "Feature",
      "properties": {
        "id": "EST-RIUDELLOTS",
        "name": "Riudellots",
        "line": "RG1 L'Hospitalet de Llobregat - Figueres / Portbou"
      },
      "geometry": {
        "type": "Point",
        "coordinates": [
          2.81174,
          41.89616
        ]
      }
    },
    {
      "type": "Feature",
      "properties": {
        "id": "EST-GIRONABCN",
        "name": "Girona",
        "line": "RG1 L'Hospitalet de Llobregat - Figueres / Portbou"
      },
      "geometry": {
        "type": "Point",
        "coordinates": [
          2.17096,
          41.39502
        ]
      }
    },
    {
      "type": "Feature",
      "properties": {
        "id": "EST-CELRA",
        "name": "Celrà",
        "line": "RG1 L'Hospitalet de Llobregat - Figueres / Portbou"
      },
      "geometry": {
        "type": "Point",
        "coordinates": [
          2.87485,
          42.02732
        ]
      }
    },
    {
      "type": "Feature",
      "properties": {
        "id": "EST-BORDILSJUIA",
        "name": "Bordils-Juià",
        "line": "RG1 L'Hospitalet de Llobregat - Figueres / Portbou"
      },
      "geometry": {
        "type": "Point",
        "coordinates": [
          2.9153,
          42.03698
        ]
      }
    },
    {
      "type": "Feature",
      "properties": {
        "id": "EST-FLACA",
        "name": "Flaçà",
        "line": "RG1 L'Hospitalet de Llobregat - Figueres / Portbou"
      },
      "geometry": {
        "type": "Point",
        "coordinates": [
          2.95717,
          42.04749
        ]
      }
    },
    {
      "type": "Feature",
      "properties": {
        "id": "EST-SANTJORDIDESVALLS",
        "name": "Sant Jordi Desvalls",
        "line": "RG1 L'Hospitalet de Llobregat - Figueres / Portbou"
      },
      "geometry": {
        "type": "Point",
        "coordinates": [
          2.96476,
          42.06828
        ]
      }
    },
    {
      "type": "Feature",
      "properties": {
        "id": "EST-CAMALLERA",
        "name": "Camallera",
        "line": "RG1 L'Hospitalet de Llobregat - Figueres / Portbou"
      },
      "geometry": {
        "type": "Point",
        "coordinates": [
          2.96561,
          42.12222
        ]
      }
    },
    {
      "type": "Feature",
      "properties": {
        "id": "EST-SANTMIQUELDEFLUVIA",
        "name": "Sant Miquel de Fluvià",
        "line": "RG1 L'Hospitalet de Llobregat - Figueres / Portbou"
      },
      "geometry": {
        "type": "Point",
        "coordinates": [
          2.98933,
          42.17229
        ]
      }
    },
    {
      "type": "Feature",
      "properties": {
        "id": "EST-VILAMALLA",
        "name": "Vilamalla",
        "line": "RG1 L'Hospitalet de Llobregat - Figueres / Portbou"
      },
      "geometry": {
        "type": "Point",
        "coordinates": [
          2.97803,
          42.21637
        ]
      }
    },
    {
      "type": "Feature",
      "properties": {
        "id": "EST-FIGUERES",
        "name": "Figueres",
        "line": "RG1 L'Hospitalet de Llobregat - Figueres / Portbou"
      },
      "geometry": {
        "type": "Point",
        "coordinates": [
          2.96897,
          42.265
        ]
      }
    },
    {
      "type": "Feature",
      "properties": {
        "id": "EST-VILAJUIGA",
        "name": "Vilajuïga",
        "line": "RG1 L'Hospitalet de Llobregat - Figueres / Portbou"
      },
      "geometry": {
        "type": "Point",
        "coordinates": [
          3.0863,
          42.32515
        ]
      }
    },
    {
      "type": "Feature",
      "properties": {
        "id": "EST-LLANCA",
        "name": "Llançà",
        "line": "RG1 L'Hospitalet de Llobregat - Figueres / Portbou"
      },
      "geometry": {
        "type": "Point",
        "coordinates": [
          3.14916,
          42.3668
        ]
      }
    },
    {
      "type": "Feature",
      "properties": {
        "id": "EST-COLERA",
        "name": "Colera",
        "line": "RG1 L'Hospitalet de Llobregat - Figueres / Portbou"
      },
      "geometry": {
        "type": "Point",
        "coordinates": [
          3.15418,
          42.407
        ]
      }
    },
    {
      "type": "Feature",
      "properties": {
        "id": "EST-PORTBOU",
        "name": "Portbou",
        "line": "RG1 L'Hospitalet de Llobregat - Figueres / Portbou"
      },
      "geometry": {
        "type": "Point",
        "coordinates": [
          3.15801,
          42.4248
        ]
      }
    }
  ]
}