{
  "type": "FeatureCollection",
  "features": [
    {
      "type": "Feature",
      "properties": {
        "id": "169",
        "name": "S3 Plaça d'Espanya - Can Ros",
        "line_type": "Suburbano",
        "operator": "FGC"
      },
      "geometry": {
        "type": "LineString",
        "coordinates": [
          [
            2.13937,
            41.36786
          ],
          [
            2.13017,
            41.36116
          ],
          [
            2.11707,
            41.35478
          ],
          [
            2.11036,
            41.36095
          ],
          [
            2.10248,
            41.35891
          ],
          [
            2.08451,
            41.35304
          ],
          [
            2.07056,
            41.35752
          ],
          [
            2.04295,
            41.34849
          ],
          [
            2.03528,
            41.35752
          ],
          [
            2.03161,
            41.3641
          ],
          [
            2.0239,
            41.3702
          ],
          [
            2.01238,
            41.3881
          ],
          [
            2.00494,
            41.39934
          ]
        ]
      }
    },
    {
      "type": "Feature",
      "properties": {
        "id": "EST-MAGORIALACAMPANA",
        "name": "Magòria-La Campana",
        "line": "S3 Plaça d'Espanya - Can Ros"
      },
      "geometry": {
        "type": "Point",
        "coordinates": [
          2.13937,
          41.36786
        ]
      }
    },
    {
      "type": "Feature",
      "properties": {
        "id": "EST-ILDEFONSCERDA",
        "name": "Ildefons Cerdà",
        "line": "S3 Plaça d'Espanya - Can Ros"
      },
      "geometry": {
        "type": "Point",
        "coordinates": [
          2.13017,
          41.36116
        ]
      }
    },
    {
      "type": "Feature",
      "properties": {
        "id": "EST-GORNAL",
        "name": "Gornal",
        "line": "S3 Plaça d'Espanya - Can Ros"
      },
      "geometry": {
        "type": "Point",
        "coordinates": [
          2.11707,
          41.35478
        ]
      }
    },
    {
      "type": "Feature",
      "properties": {
        "id": "EST-SANTJOSEP",
        "name": "Sant Josep",
        "line": "S3 Plaça d'Espanya - Can Ros"
      },
      "geometry": {
        "type": "Point",
        "coordinates": [
          2.11036,
          41.36095
        ]
      }
    },
    {
      "type": "Feature",
      "properties": {
        "id": "EST-LHOSPITALETAVCARRILET",
        "name": "L'Hospitalet Av. Carrilet",
        "line": "S3 Plaça d'Espanya - Can Ros"
      },
      "geometry": {
        "type": "Point",
        "coordinates": [
          2.10248,
          41.35891
        ]
      }
    },
    {
      "type": "Feature",
      "properties": {
        "id": "EST-ALMEDA",
        "name": "Almeda",
        "line": "S3 Plaça d'Espanya - Can Ros"
      },
      "geometry": {
        "type": "Point",
        "coordinates": [
          2.08451,
          41.35304
        ]
      }
    },
    {
      "type": "Feature",
      "properties": {
        "id": "EST-CORNELLARIERA",
        "name": "Cornellà Riera",
        "line": "S3 Plaça d'Espanya - Can Ros"
      },
      "geometry": {
        "type": "Point",
        "coordinates": [
          2.07056,
          41.35752
        ]
      }
    },
    {
      "type": "Feature",
      "properties": {
        "id": "EST-SANTBOI",
        "name": "Sant Boi",
        "line": "S3 Plaça d'Espanya - Can Ros"
      },
      "geometry": {
        "type": "Point",
        "coordinates": [
          2.04295,
          41.34849
        ]
      }
    },
    {
      "type": "Feature",
      "properties": {
        "id": "EST-MOLINOUCIUTATCOOPERATIVA",
        "name": "Molí Nou-Ciutat Cooperativa",
        "line": "S3 Plaça d'Espanya - Can Ros"
      },
      "geometry": {
        "type": "Point",
        "coordinates": [
          2.03528,
          41.35752
        ]
      }
    },
    {
      "type": "Feature",
      "properties": {
        "id": "EST-COLONIAGUELL",
        "name": "Colònia Güell",
        "line": "S3 Plaça d'Espanya - Can Ros"
      },
      "geometry": {
        "type": "Point",
        "coordinates": [
          2.03161,
          41.3641
        ]
      }
    },
    {
      "type": "Feature",
      "properties": {
        "id": "EST-SANTACOLOMADECERVELLO",
        "name": "Santa Coloma de Cervelló",
        "line": "S3 Plaça d'Espanya - Can Ros"
      },
      "geometry": {
        "type": "Point",
        "coordinates": [
          2.0239,
          41.3702
        ]
      }
    },
    {
      "type": "Feature",
      "properties": {
        "id": "EST-SANTVICENCDELSHORTS",
        "name": "Sant Vicenç dels Horts",
        "line": "S3 Plaça d'Espanya - Can Ros"
      },
      "geometry": {
        "type": "Point",
        "coordinates": [
          2.01238,
          41.3881
        ]
      }
    },
    {
      "type": "Feature",
      "properties": {
        "id": "EST-CANROS",
        "name": "Can Ros",
        "line": "S3 Plaça d'Espanya - Can Ros"
      },
      "geometry": {
        "type": "Point",
        "coordinates": [
          2.00494,
          41.39934
        ]
      }
    }
  ]
}