{
  "type": "FeatureCollection",
  "features": [
    {
      "type": "Feature",
      "properties": {
        "id": "171",
        "name": "S8 Plaça d'Espanya - Martorell Enllaç",
        "line_type": "Suburbano",
        "operator": "FGC"
      },
      "geometry": {
        "type": "LineString",
        "coordinates": [
          [
            2.13937,
            41.36786
          ],
          [
            2.13017,
            41.36116
          ],
          [
            2.11707,
            41.35478
          ],
          [
            2.11036,
            41.36095
          ],
          [
            2.10248,
            41.35891
          ],
          [
            2.08451,
            41.35304
          ],
          [
            2.07056,
            41.35752
          ],
          [
            2.04295,
            41.34849
          ],
          [
            2.03528,
            41.35752
          ],
          [
            2.03161,
            41.3641
          ],
          [
            2.0239,
            41.3702
          ],
          [
            2.01238,
            41.3881
          ],
          [
            2.00494,
            41.39934
          ],
          [
            1.99557,
            41.42078
          ],
          [
            2.00157,
            41.40664
          ],
          [
            1.97309,
            41.44684
          ],
          [
            1.96256,
            41.45564
          ],
          [
            1.96779,
            41.47328
          ],
          [
            1.9267,
            41.47909
          ],
          [
            1.9186,
            41.48403
          ]
        ]
      }
    },
    {
      "type": "Feature",
      "properties": {
        "id": "EST-MAGORIALACAMPANA",
        "name": "Magòria-La Campana",
        "line": "S8 Plaça d'Espanya - Martorell Enllaç"
      },
      "geometry": {
        "type": "Point",
        "coordinates": [
          2.13937,
          41.36786
        ]
      }
    },
    {
      "type": "Feature",
      "properties": {
        "id": "EST-ILDEFONSCERDA",
        "name": "Ildefons Cerdà",
        "line": "S8 Plaça d'Espanya - Martorell Enllaç"
      },
      "geometry": {
        "type": "Point",
        "coordinates": [
          2.13017,
          41.36116
        ]
      }
    },
    {
      "type": "Feature",
      "properties": {
        "id": "EST-GORNAL",
        "name": "Gornal",
        "line": "S8 Plaça d'Espanya - Martorell Enllaç"
      },
      "geometry": {
        "type": "Point",
        "coordinates": [
          2.11707,
          41.35478
        ]
      }
    },
    {
      "type": "Feature",
      "properties": {
        "id": "EST-SANTJOSEP",
        "name": "Sant Josep",
        "line": "S8 Plaça d'Espanya - Martorell Enllaç"
      },
      "geometry": {
        "type": "Point",
        "coordinates": [
          2.11036,
          41.36095
        ]
      }
    },
    {
      "type": "Feature",
      "properties": {
        "id": "EST-LHOSPITALETAVCARRILET",
        "name": "L'Hospitalet Av. Carrilet",
        "line": "S8 Plaça d'Espanya - Martorell Enllaç"
      },
      "geometry": {
        "type": "Point",
        "coordinates": [
          2.10248,
          41.35891
        ]
      }
    },
    {
      "type": "Feature",
      "properties": {
        "id": "EST-ALMEDA",
        "name": "Almeda",
        "line": "S8 Plaça d'Espanya - Martorell Enllaç"
      },
      "geometry": {
        "type": "Point",
        "coordinates": [
          2.08451,
          41.35304
        ]
      }
    },
    {
      "type": "Feature",
      "properties": {
        "id": "EST-CORNELLARIERA",
        "name": "Cornellà Riera",
        "line": "S8 Plaça d'Espanya - Martorell Enllaç"
      },
      "geometry": {
        "type": "Point",
        "coordinates": [
          2.07056,
          41.35752
        ]
      }
    },
    {
      "type": "Feature",
      "properties": {
        "id": "EST-SANTBOI",
        "name": "Sant Boi",
        "line": "S8 Plaça d'Espanya - Martorell Enllaç"
      },
      "geometry": {
        "type": "Point",
        "coordinates": [
          2.04295,
          41.34849
        ]
      }
    },
    {
      "type": "Feature",
      "properties": {
        "id": "EST-MOLINOUCIUTATCOOPERATIVA",
        "name": "Molí Nou-Ciutat Cooperativa",
        "line": "S8 Plaça d'Espanya - Martorell Enllaç"
      },
      "geometry": {
        "type": "Point",
        "coordinates": [
          2.03528,
          41.35752
        ]
      }
    },
    {
      "type": "Feature",
      "properties": {
        "id": "EST-COLONIAGUELL",
        "name": "Colònia Güell",
        "line": "S8 Plaça d'Espanya - Martorell Enllaç"
      },
      "geometry": {
        "type": "Point",
        "coordinates": [
          2.03161,
          41.3641
        ]
      }
    },
    {
      "type": "Feature",
      "properties": {
        "id": "EST-SANTACOLOMADECERVELLO",
        "name": "Santa Coloma de Cervelló",
        "line": "S8 Plaça d'Espanya - Martorell Enllaç"
      },
      "geometry": {
        "type": "Point",
        "coordinates": [
          2.0239,
          41.3702
        ]
      }
    },
    {
      "type": "Feature",
      "properties": {
        "id": "EST-SANTVICENCDELSHORTS",
        "name": "Sant Vicenç dels Horts",
        "line": "S8 Plaça d'Espanya - Martorell Enllaç"
      },
      "geometry": {
        "type": "Point",
        "coordinates": [
          2.01238,
          41.3881
        ]
      }
    },
    {
      "type": "Feature",
      "properties": {
        "id": "EST-CANROS",
        "name": "Can Ros",
        "line": "S8 Plaça d'Espanya - Martorell Enllaç"
      },
      "geometry": {
        "type": "Point",
        "coordinates": [
          2.00494,
          41.39934
        ]
      }
    },
    {
      "type": "Feature",
      "properties": {
        "id": "EST-PALLEJA",
        "name": "Pallejà",
        "line": "S8 Plaça d'Espanya - Martorell Enllaç"
      },
      "geometry": {
        "type": "Point",
        "coordinates": [
          1.99557,
          41.42078
        ]
      }
    },
    {
      "type": "Feature",
      "properties": {
        "id": "EST-QUATRECAMINS",
        "name": "Quatre Camins",
        "line": "S8 Plaça d'Espanya - Martorell Enllaç"
      },
      "geometry": {
        "type": "Point",
        "coordinates": [
          2.00157,
          41.40664
        ]
      }
    },
    {
      "type": "Feature",
      "properties": {
        "id": "EST-SANTANDREUDELABARCA",
        "name": "Sant Andreu de la Barca",
        "line": "S8 Plaça d'Espanya - Martorell Enllaç"
      },
      "geometry": {
        "type": "Point",
        "coordinates": [
          1.97309,
          41.44684
        ]
      }
    },
    {
      "type": "Feature",
      "properties": {
        "id": "EST-ELPALAU",
        "name": "El Palau",
        "line": "S8 Plaça d'Espanya - Martorell Enllaç"
      },
      "geometry": {
        "type": "Point",
        "coordinates": [
          1.96256,
          41.45564
        ]
      }
    },
    {
      "type": "Feature",
      "properties": {
        "id": "EST-MARTORELLVILACASTELLBISBAL",
        "name": "Martorell Vila | Castellbisbal",
        "line": "S8 Plaça d'Espanya - Martorell Enllaç"
      },
      "geometry": {
        "type": "Point",
        "coordinates": [
          1.96779,
          41.47328
        ]
      }
    },
    {
      "type": "Feature",
      "properties": {
        "id": "EST-MARTORELLCENTRAL",
        "name": "Martorell Central",
        "line": "S8 Plaça d'Espanya - Martorell Enllaç"
      },
      "geometry": {
        "type": "Point",
        "coordinates": [
          1.9267,
          41.47909
        ]
      }
    },
    {
      "type": "Feature",
      "properties": {
        "id": "EST-MARTORELLENLLAC",
        "name": "Martorell Enllaç",
        "line": "S8 Plaça d'Espanya - Martorell Enllaç"
      },
      "geometry": {
        "type": "Point",
        "coordinates": [
          1.9186,
          41.48403
        ]
      }
    }
  ]
}