{
  "type": "FeatureCollection",
  "features": [
    {
      "type": "Feature",
      "properties": {
        "id": "181",
        "name": "L9 Nord La Sagrera - Can Zam",
        "line_type": "Metro",
        "operator": "TMB"
      },
      "geometry": {
        "type": "LineString",
        "coordinates": [
          [
            2.18702,
            41.42262
          ],
          [
            2.19344,
            41.42976
          ],
          [
            2.20481,
            41.43613
          ],
          [
            2.21029,
            41.44447
          ],
          [
            2.21581,
            41.44684
          ],
          [
            2.21841,
            41.45167
          ],
          [
            2.2124,
            41.45476
          ],
          [
            2.20559,
            41.45946
          ],
          [
            2.19849,
            41.45768
          ]
        ]
      }
    },
    {
      "type": "Feature",
      "properties": {
        "id": "EST-LASAGRERA",
        "name": "La Sagrera",
        "line": "L9 Nord La Sagrera - Can Zam"
      },
      "geometry": {
        "type": "Point",
        "coordinates": [
          2.18702,
          41.42262
        ]
      }
    },
    {
      "type": "Feature",
      "properties": {
        "id": "EST-ONZEDESETEMBRE",
        "name": "Onze de Setembre",
        "line": "L9 Nord La Sagrera - Can Zam"
      },
      "geometry": {
        "type": "Point",
        "coordinates": [
          2.19344,
          41.42976
        ]
      }
    },
    {
      "type": "Feature",
      "properties": {
        "id": "EST-BONPASTOR",
        "name": "Bon Pastor",
        "line": "L9 Nord La Sagrera - Can Zam"
      },
      "geometry": {
        "type": "Point",
        "coordinates": [
          2.20481,
          41.43613
        ]
      }
    },
    {
      "type": "Feature",
      "properties": {
        "id": "EST-CANPEIXAUET",
        "name": "Can Peixauet",
        "line": "L9 Nord La Sagrera - Can Zam"
      },
      "geometry": {
        "type": "Point",
        "coordinates": [
          2.21029,
          41.44447
        ]
      }
    },
    {
      "type": "Feature",
      "properties": {
        "id": "EST-SANTAROSA",
        "name": "Santa Rosa",
        "line": "L9 Nord La Sagrera - Can Zam"
      },
      "geometry": {
        "type": "Point",
        "coordinates": [
          2.21581,
          41.44684
        ]
      }
    },
    {
      "type": "Feature",
      "properties": {
        "id": "EST-FONDO",
        "name": "Fondo",
        "line": "L9 Nord La Sagrera - Can Zam"
      },
      "geometry": {
        "type": "Point",
        "coordinates": [
          2.21841,
          41.45167
        ]
      }
    },
    {
      "type": "Feature",
      "properties": {
        "id": "EST-ESGLESIAMAJOR",
        "name": "Església Major",
        "line": "L9 Nord La Sagrera - Can Zam"
      },
      "geometry": {
        "type": "Point",
        "coordinates": [
          2.2124,
          41.45476
        ]
      }
    },
    {
      "type": "Feature",
      "properties": {
        "id": "EST-SINGUERLIN",
        "name": "Singuerlín",
        "line": "L9 Nord La Sagrera - Can Zam"
      },
      "geometry": {
        "type": "Point",
        "coordinates": [
          2.20559,
          41.45946
        ]
      }
    },
    {
      "type": "Feature",
      "properties": {
        "id": "EST-CANZAM",
        "name": "Can Zam",
        "line": "L9 Nord La Sagrera - Can Zam"
      },
      "geometry": {
        "type": "Point",
        "coordinates": [
          2.19849,
          41.45768
        ]
      }
    }
  ]
}