{
  "type": "FeatureCollection",
  "features": [
    {
      "type": "Feature",
      "properties": {
        "id": "185",
        "name": "L11 Trinitat Nova - Can Cuiàs",
        "line_type": "Metro Ligero",
        "operator": "TMB"
      },
      "geometry": {
        "type": "LineString",
        "coordinates": [
          [
            2.18416,
            41.44948
          ],
          [
            2.18495,
            41.45124
          ],
          [
            2.17994,
            41.45922
          ],
          [
            2.1746,
            41.46078
          ],
          [
            2.17311,
            41.46234
          ]
        ]
      }
    },
    {
      "type": "Feature",
      "properties": {
        "id": "EST-TRINITATNOVA",
        "name": "Trinitat Nova",
        "line": "L11 Trinitat Nova - Can Cuiàs"
      },
      "geometry": {
        "type": "Point",
        "coordinates": [
          2.18416,
          41.44948
        ]
      }
    },
    {
      "type": "Feature",
      "properties": {
        "id": "EST-CASADELAIGUA",
        "name": "Casa de l'Aigua",
        "line": "L11 Trinitat Nova - Can Cuiàs"
      },
      "geometry": {
        "type": "Point",
        "coordinates": [
          2.18495,
          41.45124
        ]
      }
    },
    {
      "type": "Feature",
      "properties": {
        "id": "EST-TORREBAROVALLBONA",
        "name": "Torre Baró | Vallbona",
        "line": "L11 Trinitat Nova - Can Cuiàs"
      },
      "geometry": {
        "type": "Point",
        "coordinates": [
          2.17994,
          41.45922
        ]
      }
    },
    {
      "type": "Feature",
      "properties": {
        "id": "EST-CIUTATMERIDIANA",
        "name": "Ciutat Meridiana",
        "line": "L11 Trinitat Nova - Can Cuiàs"
      },
      "geometry": {
        "type": "Point",
        "coordinates": [
          2.1746,
          41.46078
        ]
      }
    },
    {
      "type": "Feature",
      "properties": {
        "id": "EST-CANCUIAS",
        "name": "Can Cuiàs",
        "line": "L11 Trinitat Nova - Can Cuiàs"
      },
      "geometry": {
        "type": "Point",
        "coordinates": [
          2.17311,
          41.46234
        ]
      }
    }
  ]
}