{
  "type": "FeatureCollection",
  "features": [
    {
      "type": "Feature",
      "properties": {
        "id": "186",
        "name": "L12 Sarrià - Reina Elisenda",
        "line_type": "Metro",
        "operator": "FGC"
      },
      "geometry": {
        "type": "LineString",
        "coordinates": [
          [
            -7.41365,
            42.78262
          ],
          [
            2.11903,
            41.39879
          ]
        ]
      }
    },
    {
      "type": "Feature",
      "properties": {
        "id": "EST-SARRIA-Barcelona-Barcelona",
        "name": "Sarrià",
        "line": "L12 Sarrià - Reina Elisenda"
      },
      "geometry": {
        "type": "Point",
        "coordinates": [
          -7.41365,
          42.78262
        ]
      }
    },
    {
      "type": "Feature",
      "properties": {
        "id": "EST-REINAELISENDA",
        "name": "Reina Elisenda",
        "line": "L12 Sarrià - Reina Elisenda"
      },
      "geometry": {
        "type": "Point",
        "coordinates": [
          2.11903,
          41.39879
        ]
      }
    }
  ]
}