{
  "type": "FeatureCollection",
  "features": [
    {
      "type": "Feature",
      "properties": {
        "id": "200",
        "name": "C-2 Valencia-Nord - Moixent",
        "line_type": "Cercanías",
        "operator": "Renfe"
      },
      "geometry": {
        "type": "LineString",
        "coordinates": [
          [
            -0.37719,
            39.46691
          ],
          [
            -0.39259,
            39.42233
          ],
          [
            -0.39532,
            39.40917
          ],
          [
            -0.39919,
            39.40007
          ],
          [
            -0.41494,
            39.36175
          ],
          [
            -0.42999,
            39.2842
          ],
          [
            -0.44093,
            39.19315
          ],
          [
            -0.45068,
            39.1532
          ],
          [
            -0.45455,
            39.12051
          ],
          [
            -0.52468,
            38.99225
          ],
          [
            -0.58651,
            38.96917
          ],
          [
            -0.64166,
            38.94256
          ],
          [
            -0.68533,
            38.91134
          ],
          [
            -0.75309,
            38.87813
          ]
        ]
      }
    },
    {
      "type": "Feature",
      "properties": {
        "id": "EST-VALENCIANORD",
        "name": "València-Nord",
        "line": "C-2 Valencia-Nord - Moixent"
      },
      "geometry": {
        "type": "Point",
        "coordinates": [
          -0.37719,
          39.46691
        ]
      }
    },
    {
      "type": "Feature",
      "properties": {
        "id": "EST-ALFAFARBENETUSSER",
        "name": "Alfafar-Benetússer",
        "line": "C-2 Valencia-Nord - Moixent"
      },
      "geometry": {
        "type": "Point",
        "coordinates": [
          -0.39259,
          39.42233
        ]
      }
    },
    {
      "type": "Feature",
      "properties": {
        "id": "EST-MASSANASSA",
        "name": "Massanassa",
        "line": "C-2 Valencia-Nord - Moixent"
      },
      "geometry": {
        "type": "Point",
        "coordinates": [
          -0.39532,
          39.40917
        ]
      }
    },
    {
      "type": "Feature",
      "properties": {
        "id": "EST-CATARROJA",
        "name": "Catarroja",
        "line": "C-2 Valencia-Nord - Moixent"
      },
      "geometry": {
        "type": "Point",
        "coordinates": [
          -0.39919,
          39.40007
        ]
      }
    },
    {
      "type": "Feature",
      "properties": {
        "id": "EST-SILLA",
        "name": "Silla",
        "line": "C-2 Valencia-Nord - Moixent"
      },
      "geometry": {
        "type": "Point",
        "coordinates": [
          -0.41494,
          39.36175
        ]
      }
    },
    {
      "type": "Feature",
      "properties": {
        "id": "EST-BENIFAIOALMUSSAFES",
        "name": "Benifaió-Almussafes",
        "line": "C-2 Valencia-Nord - Moixent"
      },
      "geometry": {
        "type": "Point",
        "coordinates": [
          -0.42999,
          39.2842
        ]
      }
    },
    {
      "type": "Feature",
      "properties": {
        "id": "EST-ALGEMESI",
        "name": "Algemesí",
        "line": "C-2 Valencia-Nord - Moixent"
      },
      "geometry": {
        "type": "Point",
        "coordinates": [
          -0.44093,
          39.19315
        ]
      }
    },
    {
      "type": "Feature",
      "properties": {
        "id": "EST-ALZIRA",
        "name": "Alzira",
        "line": "C-2 Valencia-Nord - Moixent"
      },
      "geometry": {
        "type": "Point",
        "coordinates": [
          -0.45068,
          39.1532
        ]
      }
    },
    {
      "type": "Feature",
      "properties": {
        "id": "EST-CARCAIXENT",
        "name": "Carcaixent",
        "line": "C-2 Valencia-Nord - Moixent"
      },
      "geometry": {
        "type": "Point",
        "coordinates": [
          -0.45455,
          39.12051
        ]
      }
    },
    {
      "type": "Feature",
      "properties": {
        "id": "EST-XATIVA",
        "name": "Xàtiva",
        "line": "C-2 Valencia-Nord - Moixent"
      },
      "geometry": {
        "type": "Point",
        "coordinates": [
          -0.52468,
          38.99225
        ]
      }
    },
    {
      "type": "Feature",
      "properties": {
        "id": "EST-ALCUDIADECRESPINS",
        "name": "Alcúdia de Crespins",
        "line": "C-2 Valencia-Nord - Moixent"
      },
      "geometry": {
        "type": "Point",
        "coordinates": [
          -0.58651,
          38.96917
        ]
      }
    },
    {
      "type": "Feature",
      "properties": {
        "id": "EST-MONTESA-Barcelona-EspluguesdeLlobregat",
        "name": "Montesa",
        "line": "C-2 Valencia-Nord - Moixent"
      },
      "geometry": {
        "type": "Point",
        "coordinates": [
          -0.64166,
          38.94256
        ]
      }
    },
    {
      "type": "Feature",
      "properties": {
        "id": "EST-VALLADA",
        "name": "Vallada",
        "line": "C-2 Valencia-Nord - Moixent"
      },
      "geometry": {
        "type": "Point",
        "coordinates": [
          -0.68533,
          38.91134
        ]
      }
    },
    {
      "type": "Feature",
      "properties": {
        "id": "EST-MOIXENT",
        "name": "Moixent",
        "line": "C-2 Valencia-Nord - Moixent"
      },
      "geometry": {
        "type": "Point",
        "coordinates": [
          -0.75309,
          38.87813
        ]
      }
    }
  ]
}