{
  "type": "FeatureCollection",
  "features": [
    {
      "type": "Feature",
      "properties": {
        "id": "21",
        "name": "Alvia Madrid - Logroño",
        "line_type": "Larga Distancia",
        "operator": "Renfe"
      },
      "geometry": {
        "type": "LineString",
        "coordinates": [
          [
            -3.6886,
            40.40697
          ],
          [
            -3.18225,
            40.64408
          ],
          [
            -1.63842,
            41.34636
          ],
          [
            -1.59767,
            42.0595
          ],
          [
            -1.69244,
            42.17287
          ],
          [
            -1.74814,
            42.18661
          ],
          [
            -1.95782,
            42.3107
          ],
          [
            -2.44082,
            42.45757
          ]
        ]
      }
    },
    {
      "type": "Feature",
      "properties": {
        "id": "EST-MADRIDPUERTADEATOCHA",
        "name": "Madrid-Puerta de Atocha",
        "line": "Alvia Madrid - Logroño"
      },
      "geometry": {
        "type": "Point",
        "coordinates": [
          -3.6886,
          40.40697
        ]
      }
    },
    {
      "type": "Feature",
      "properties": {
        "id": "EST-GUADALAJARAYEBES",
        "name": "Guadalajara-Yebes",
        "line": "Alvia Madrid - Logroño"
      },
      "geometry": {
        "type": "Point",
        "coordinates": [
          -3.18225,
          40.64408
        ]
      }
    },
    {
      "type": "Feature",
      "properties": {
        "id": "EST-CALATAYUD",
        "name": "Calatayud",
        "line": "Alvia Madrid - Logroño"
      },
      "geometry": {
        "type": "Point",
        "coordinates": [
          -1.63842,
          41.34636
        ]
      }
    },
    {
      "type": "Feature",
      "properties": {
        "id": "EST-TUDELADENAVARRA",
        "name": "Tudela de Navarra",
        "line": "Alvia Madrid - Logroño"
      },
      "geometry": {
        "type": "Point",
        "coordinates": [
          -1.59767,
          42.0595
        ]
      }
    },
    {
      "type": "Feature",
      "properties": {
        "id": "EST-CASTEJONDEEBRO",
        "name": "Castejón de Ebro",
        "line": "Alvia Madrid - Logroño"
      },
      "geometry": {
        "type": "Point",
        "coordinates": [
          -1.69244,
          42.17287
        ]
      }
    },
    {
      "type": "Feature",
      "properties": {
        "id": "EST-ALFARO",
        "name": "Alfaro",
        "line": "Alvia Madrid - Logroño"
      },
      "geometry": {
        "type": "Point",
        "coordinates": [
          -1.74814,
          42.18661
        ]
      }
    },
    {
      "type": "Feature",
      "properties": {
        "id": "EST-CALAHORRA",
        "name": "Calahorra",
        "line": "Alvia Madrid - Logroño"
      },
      "geometry": {
        "type": "Point",
        "coordinates": [
          -1.95782,
          42.3107
        ]
      }
    },
    {
      "type": "Feature",
      "properties": {
        "id": "EST-LOGRONO",
        "name": "Logroño",
        "line": "Alvia Madrid - Logroño"
      },
      "geometry": {
        "type": "Point",
        "coordinates": [
          -2.44082,
          42.45757
        ]
      }
    }
  ]
}