{
  "type": "FeatureCollection",
  "features": [
    {
      "type": "Feature",
      "properties": {
        "id": "22",
        "name": "Alvia Madrid - Salamanca",
        "line_type": "Larga Distancia",
        "operator": "Renfe"
      },
      "geometry": {
        "type": "LineString",
        "coordinates": [
          [
            -3.68226,
            40.47206
          ],
          [
            -4.09476,
            40.91014
          ],
          [
            -4.92299,
            41.29133
          ],
          [
            -5.64706,
            40.9718
          ]
        ]
      }
    },
    {
      "type": "Feature",
      "properties": {
        "id": "EST-MADRIDCHAMARTINCLARACAMPOAMOR",
        "name": "Madrid-Chamartín-Clara Campoamor",
        "line": "Alvia Madrid - Salamanca"
      },
      "geometry": {
        "type": "Point",
        "coordinates": [
          -3.68226,
          40.47206
        ]
      }
    },
    {
      "type": "Feature",
      "properties": {
        "id": "EST-SEGOVIAGUIOMAR",
        "name": "Segovia-Guiomar",
        "line": "Alvia Madrid - Salamanca"
      },
      "geometry": {
        "type": "Point",
        "coordinates": [
          -4.09476,
          40.91014
        ]
      }
    },
    {
      "type": "Feature",
      "properties": {
        "id": "EST-MEDINADELCAMPOAV",
        "name": "Medina del Campo AV",
        "line": "Alvia Madrid - Salamanca"
      },
      "geometry": {
        "type": "Point",
        "coordinates": [
          -4.92299,
          41.29133
        ]
      }
    },
    {
      "type": "Feature",
      "properties": {
        "id": "EST-SALAMANCA",
        "name": "Salamanca",
        "line": "Alvia Madrid - Salamanca"
      },
      "geometry": {
        "type": "Point",
        "coordinates": [
          -5.64706,
          40.9718
        ]
      }
    }
  ]
}