{
  "type": "FeatureCollection",
  "features": [
    {
      "type": "Feature",
      "properties": {
        "id": "220",
        "name": "C-1 Murcia del Carmen - Alicante Terminal",
        "line_type": "Cercanías",
        "operator": "Renfe"
      },
      "geometry": {
        "type": "LineString",
        "coordinates": [
          [
            -1.13346,
            37.97658
          ],
          [
            -0.99549,
            38.04715
          ],
          [
            -3.64001,
            40.38755
          ],
          [
            -0.87556,
            38.13675
          ],
          [
            -0.83835,
            38.16725
          ],
          [
            -0.78156,
            38.22451
          ],
          [
            -0.6951,
            38.27179
          ],
          [
            -0.58276,
            38.28965
          ],
          [
            -0.49606,
            38.34498
          ]
        ]
      }
    },
    {
      "type": "Feature",
      "properties": {
        "id": "EST-MURCIADELCARMEN",
        "name": "Murcia del Carmen",
        "line": "C-1 Murcia del Carmen - Alicante Terminal"
      },
      "geometry": {
        "type": "Point",
        "coordinates": [
          -1.13346,
          37.97658
        ]
      }
    },
    {
      "type": "Feature",
      "properties": {
        "id": "EST-BENIEL",
        "name": "Beniel",
        "line": "C-1 Murcia del Carmen - Alicante Terminal"
      },
      "geometry": {
        "type": "Point",
        "coordinates": [
          -0.99549,
          38.04715
        ]
      }
    },
    {
      "type": "Feature",
      "properties": {
        "id": "EST-ORIHUELAMIGUELHERNANDEZ",
        "name": "Orihuela-Miguel Hernández",
        "line": "C-1 Murcia del Carmen - Alicante Terminal"
      },
      "geometry": {
        "type": "Point",
        "coordinates": [
          -3.64001,
          40.38755
        ]
      }
    },
    {
      "type": "Feature",
      "properties": {
        "id": "EST-CALLOSADESEGURACOX",
        "name": "Callosa de Segura-Cox",
        "line": "C-1 Murcia del Carmen - Alicante Terminal"
      },
      "geometry": {
        "type": "Point",
        "coordinates": [
          -0.87556,
          38.13675
        ]
      }
    },
    {
      "type": "Feature",
      "properties": {
        "id": "EST-ALBATERACATRAL",
        "name": "Albatera-Catral",
        "line": "C-1 Murcia del Carmen - Alicante Terminal"
      },
      "geometry": {
        "type": "Point",
        "coordinates": [
          -0.83835,
          38.16725
        ]
      }
    },
    {
      "type": "Feature",
      "properties": {
        "id": "EST-CREVILLENT",
        "name": "Crevillent",
        "line": "C-1 Murcia del Carmen - Alicante Terminal"
      },
      "geometry": {
        "type": "Point",
        "coordinates": [
          -0.78156,
          38.22451
        ]
      }
    },
    {
      "type": "Feature",
      "properties": {
        "id": "EST-ELXPARC",
        "name": "Elx-Parc",
        "line": "C-1 Murcia del Carmen - Alicante Terminal"
      },
      "geometry": {
        "type": "Point",
        "coordinates": [
          -0.6951,
          38.27179
        ]
      }
    },
    {
      "type": "Feature",
      "properties": {
        "id": "EST-TORRELLANO",
        "name": "Torrellano",
        "line": "C-1 Murcia del Carmen - Alicante Terminal"
      },
      "geometry": {
        "type": "Point",
        "coordinates": [
          -0.58276,
          38.28965
        ]
      }
    },
    {
      "type": "Feature",
      "properties": {
        "id": "EST-ALICANTERMINAL",
        "name": "Alicante-Terminal",
        "line": "C-1 Murcia del Carmen - Alicante Terminal"
      },
      "geometry": {
        "type": "Point",
        "coordinates": [
          -0.49606,
          38.34498
        ]
      }
    }
  ]
}