{
  "type": "FeatureCollection",
  "features": [
    {
      "type": "Feature",
      "properties": {
        "id": "238",
        "name": "T1 TramBahía Cádiz - Chiclana",
        "line_type": "Tren-Tram",
        "operator": "Renfe"
      },
      "geometry": {
        "type": "LineString",
        "coordinates": [
          [
            -6.1343,
            36.4087
          ],
          [
            -6.172,
            36.567
          ],
          [
            -6.14472,
            36.42054
          ],
          [
            -3.62406,
            40.55091
          ],
          [
            -0.36602,
            39.47311
          ],
          [
            -4.01003,
            43.3983
          ],
          [
            -6.14451,
            36.44051
          ],
          [
            -6.17568,
            36.46653
          ],
          [
            -6.19108,
            36.46774
          ],
          [
            -6.19554,
            36.46625
          ],
          [
            -4.31123,
            42.65682
          ],
          [
            -6.20103,
            36.46048
          ],
          [
            -6.20352,
            36.45817
          ],
          [
            -6.20962,
            36.45594
          ],
          [
            -6.21599,
            36.45625
          ],
          [
            -6.22469,
            36.45753
          ],
          [
            -6.26811,
            36.49436
          ],
          [
            -6.27205,
            36.50292
          ],
          [
            -6.27696,
            36.5135
          ],
          [
            -6.28062,
            36.52139
          ],
          [
            -5.98418,
            37.38296
          ]
        ]
      }
    },
    {
      "type": "Feature",
      "properties": {
        "id": "EST-PELAGATOS",
        "name": "Pelagatos",
        "line": "T1 TramBahía Cádiz - Chiclana"
      },
      "geometry": {
        "type": "Point",
        "coordinates": [
          -6.1343,
          36.4087
        ]
      }
    },
    {
      "type": "Feature",
      "properties": {
        "id": "EST-POLIGONOJUNCARICOS",
        "name": "Polígono Juncaricos",
        "line": "T1 TramBahía Cádiz - Chiclana"
      },
      "geometry": {
        "type": "Point",
        "coordinates": [
          -6.172,
          36.567
        ]
      }
    },
    {
      "type": "Feature",
      "properties": {
        "id": "EST-NUESTRASENORADELOSREMEDIOS",
        "name": "Nuestra Señora de Los Remedios",
        "line": "T1 TramBahía Cádiz - Chiclana"
      },
      "geometry": {
        "type": "Point",
        "coordinates": [
          -6.14472,
          36.42054
        ]
      }
    },
    {
      "type": "Feature",
      "properties": {
        "id": "EST-REYESCATOLICOSMURCIA",
        "name": "Reyes Católicos",
        "line": "T1 TramBahía Cádiz - Chiclana"
      },
      "geometry": {
        "type": "Point",
        "coordinates": [
          -3.62406,
          40.55091
        ]
      }
    },
    {
      "type": "Feature",
      "properties": {
        "id": "EST-LAALAMEDA",
        "name": "La Alameda",
        "line": "T1 TramBahía Cádiz - Chiclana"
      },
      "geometry": {
        "type": "Point",
        "coordinates": [
          -0.36602,
          39.47311
        ]
      }
    },
    {
      "type": "Feature",
      "properties": {
        "id": "EST-MARQUESDETAMARON",
        "name": "Marqués de Tamarón",
        "line": "T1 TramBahía Cádiz - Chiclana"
      },
      "geometry": {
        "type": "Point",
        "coordinates": [
          -4.01003,
          43.3983
        ]
      }
    },
    {
      "type": "Feature",
      "properties": {
        "id": "EST-PINARDELOSFRANCESES",
        "name": "Pinar de los Franceses",
        "line": "T1 TramBahía Cádiz - Chiclana"
      },
      "geometry": {
        "type": "Point",
        "coordinates": [
          -6.14451,
          36.44051
        ]
      }
    },
    {
      "type": "Feature",
      "properties": {
        "id": "EST-TRESCAMINOS",
        "name": "Tres Caminos",
        "line": "T1 TramBahía Cádiz - Chiclana"
      },
      "geometry": {
        "type": "Point",
        "coordinates": [
          -6.17568,
          36.46653
        ]
      }
    },
    {
      "type": "Feature",
      "properties": {
        "id": "EST-VENTADEVARGAS",
        "name": "Venta de Vargas",
        "line": "T1 TramBahía Cádiz - Chiclana"
      },
      "geometry": {
        "type": "Point",
        "coordinates": [
          -6.19108,
          36.46774
        ]
      }
    },
    {
      "type": "Feature",
      "properties": {
        "id": "EST-PLAZADELAIGLESIA",
        "name": "Plaza de la Iglesia",
        "line": "T1 TramBahía Cádiz - Chiclana"
      },
      "geometry": {
        "type": "Point",
        "coordinates": [
          -6.19554,
          36.46625
        ]
      }
    },
    {
      "type": "Feature",
      "properties": {
        "id": "EST-PLAZADELREY",
        "name": "Plaza del Rey",
        "line": "T1 TramBahía Cádiz - Chiclana"
      },
      "geometry": {
        "type": "Point",
        "coordinates": [
          -4.31123,
          42.65682
        ]
      }
    },
    {
      "type": "Feature",
      "properties": {
        "id": "EST-COMPANIADEMARIA",
        "name": "Compañía de María",
        "line": "T1 TramBahía Cádiz - Chiclana"
      },
      "geometry": {
        "type": "Point",
        "coordinates": [
          -6.20103,
          36.46048
        ]
      }
    },
    {
      "type": "Feature",
      "properties": {
        "id": "EST-PLAZADELCARMEN",
        "name": "Plaza del Carmen",
        "line": "T1 TramBahía Cádiz - Chiclana"
      },
      "geometry": {
        "type": "Point",
        "coordinates": [
          -6.20352,
          36.45817
        ]
      }
    },
    {
      "type": "Feature",
      "properties": {
        "id": "EST-SANTOENTIERRO",
        "name": "Santo Entierro",
        "line": "T1 TramBahía Cádiz - Chiclana"
      },
      "geometry": {
        "type": "Point",
        "coordinates": [
          -6.20962,
          36.45594
        ]
      }
    },
    {
      "type": "Feature",
      "properties": {
        "id": "EST-ARDILA",
        "name": "Ardila",
        "line": "T1 TramBahía Cádiz - Chiclana"
      },
      "geometry": {
        "type": "Point",
        "coordinates": [
          -6.21599,
          36.45625
        ]
      }
    },
    {
      "type": "Feature",
      "properties": {
        "id": "EST-RIOARILLO",
        "name": "Río Arillo",
        "line": "T1 TramBahía Cádiz - Chiclana"
      },
      "geometry": {
        "type": "Point",
        "coordinates": [
          -6.22469,
          36.45753
        ]
      }
    },
    {
      "type": "Feature",
      "properties": {
        "id": "EST-CORTADURA",
        "name": "Cortadura",
        "line": "T1 TramBahía Cádiz - Chiclana"
      },
      "geometry": {
        "type": "Point",
        "coordinates": [
          -6.26811,
          36.49436
        ]
      }
    },
    {
      "type": "Feature",
      "properties": {
        "id": "EST-ESTADIO",
        "name": "Estadio",
        "line": "T1 TramBahía Cádiz - Chiclana"
      },
      "geometry": {
        "type": "Point",
        "coordinates": [
          -6.27205,
          36.50292
        ]
      }
    },
    {
      "type": "Feature",
      "properties": {
        "id": "EST-SEGUNDAAGUADA",
        "name": "Segunda Aguada",
        "line": "T1 TramBahía Cádiz - Chiclana"
      },
      "geometry": {
        "type": "Point",
        "coordinates": [
          -6.27696,
          36.5135
        ]
      }
    },
    {
      "type": "Feature",
      "properties": {
        "id": "EST-SANSEVERIANO",
        "name": "San Severiano",
        "line": "T1 TramBahía Cádiz - Chiclana"
      },
      "geometry": {
        "type": "Point",
        "coordinates": [
          -6.28062,
          36.52139
        ]
      }
    },
    {
      "type": "Feature",
      "properties": {
        "id": "EST-CADIZ",
        "name": "Cádiz",
        "line": "T1 TramBahía Cádiz - Chiclana"
      },
      "geometry": {
        "type": "Point",
        "coordinates": [
          -5.98418,
          37.38296
        ]
      }
    }
  ]
}