{
  "type": "FeatureCollection",
  "features": [
    {
      "type": "Feature",
      "properties": {
        "id": "24",
        "name": "Alvia Barcelona - Vigo",
        "line_type": "Larga Distancia",
        "operator": "Renfe"
      },
      "geometry": {
        "type": "LineString",
        "coordinates": [
          [
            2.13996,
            41.37901
          ],
          [
            1.27357,
            41.19217
          ],
          [
            0.63304,
            41.62073
          ],
          [
            -0.91139,
            41.65857
          ],
          [
            -1.59767,
            42.0595
          ],
          [
            -1.69244,
            42.17287
          ],
          [
            -1.67121,
            42.52575
          ],
          [
            -1.66149,
            42.82505
          ],
          [
            -2.6727,
            42.8413
          ],
          [
            -2.94114,
            42.6908
          ],
          [
            -3.66632,
            42.37117
          ],
          [
            -4.53386,
            42.01573
          ],
          [
            -5.0226,
            42.3694
          ],
          [
            -6.52214,
            42.4055
          ],
          [
            -6.04706,
            42.4594
          ],
          [
            -6.42221,
            42.60954
          ],
          [
            -6.60249,
            42.54566
          ],
          [
            -6.98505,
            42.41826
          ],
          [
            -7.11325,
            42.39261
          ],
          [
            -7.28721,
            42.46517
          ],
          [
            -7.50314,
            42.52952
          ],
          [
            -7.87255,
            42.35069
          ],
          [
            -8.62232,
            42.06571
          ],
          [
            -8.62217,
            42.16414
          ],
          [
            -8.60372,
            42.28549
          ],
          [
            -8.71188,
            42.23952
          ]
        ]
      }
    },
    {
      "type": "Feature",
      "properties": {
        "id": "EST-BARCELONASANTS",
        "name": "Barcelona-Sants",
        "line": "Alvia Barcelona - Vigo"
      },
      "geometry": {
        "type": "Point",
        "coordinates": [
          2.13996,
          41.37901
        ]
      }
    },
    {
      "type": "Feature",
      "properties": {
        "id": "EST-CAMPDETARRAGONA",
        "name": "Camp de Tarragona",
        "line": "Alvia Barcelona - Vigo"
      },
      "geometry": {
        "type": "Point",
        "coordinates": [
          1.27357,
          41.19217
        ]
      }
    },
    {
      "type": "Feature",
      "properties": {
        "id": "EST-LLEIDAPIRINEUS",
        "name": "Lleida Pirineus",
        "line": "Alvia Barcelona - Vigo"
      },
      "geometry": {
        "type": "Point",
        "coordinates": [
          0.63304,
          41.62073
        ]
      }
    },
    {
      "type": "Feature",
      "properties": {
        "id": "EST-ZARAGOZADELICIAS",
        "name": "Zaragoza-Delicias",
        "line": "Alvia Barcelona - Vigo"
      },
      "geometry": {
        "type": "Point",
        "coordinates": [
          -0.91139,
          41.65857
        ]
      }
    },
    {
      "type": "Feature",
      "properties": {
        "id": "EST-TUDELADENAVARRA",
        "name": "Tudela de Navarra",
        "line": "Alvia Barcelona - Vigo"
      },
      "geometry": {
        "type": "Point",
        "coordinates": [
          -1.59767,
          42.0595
        ]
      }
    },
    {
      "type": "Feature",
      "properties": {
        "id": "EST-CASTEJONDEEBRO",
        "name": "Castejón de Ebro",
        "line": "Alvia Barcelona - Vigo"
      },
      "geometry": {
        "type": "Point",
        "coordinates": [
          -1.69244,
          42.17287
        ]
      }
    },
    {
      "type": "Feature",
      "properties": {
        "id": "EST-TAFALLA",
        "name": "Tafalla",
        "line": "Alvia Barcelona - Vigo"
      },
      "geometry": {
        "type": "Point",
        "coordinates": [
          -1.67121,
          42.52575
        ]
      }
    },
    {
      "type": "Feature",
      "properties": {
        "id": "EST-PAMPLONA",
        "name": "Pamplona",
        "line": "Alvia Barcelona - Vigo"
      },
      "geometry": {
        "type": "Point",
        "coordinates": [
          -1.66149,
          42.82505
        ]
      }
    },
    {
      "type": "Feature",
      "properties": {
        "id": "EST-VITORIAGASTEIZ",
        "name": "Vitoria-Gasteiz",
        "line": "Alvia Barcelona - Vigo"
      },
      "geometry": {
        "type": "Point",
        "coordinates": [
          -2.6727,
          42.8413
        ]
      }
    },
    {
      "type": "Feature",
      "properties": {
        "id": "EST-MIRANDADEEBRO",
        "name": "Miranda de Ebro",
        "line": "Alvia Barcelona - Vigo"
      },
      "geometry": {
        "type": "Point",
        "coordinates": [
          -2.94114,
          42.6908
        ]
      }
    },
    {
      "type": "Feature",
      "properties": {
        "id": "EST-BURGOSROSADELIMA",
        "name": "Burgos-Rosa de Lima",
        "line": "Alvia Barcelona - Vigo"
      },
      "geometry": {
        "type": "Point",
        "coordinates": [
          -3.66632,
          42.37117
        ]
      }
    },
    {
      "type": "Feature",
      "properties": {
        "id": "EST-PALENCIA",
        "name": "Palencia",
        "line": "Alvia Barcelona - Vigo"
      },
      "geometry": {
        "type": "Point",
        "coordinates": [
          -4.53386,
          42.01573
        ]
      }
    },
    {
      "type": "Feature",
      "properties": {
        "id": "EST-SAHAGUN",
        "name": "Sahagún",
        "line": "Alvia Barcelona - Vigo"
      },
      "geometry": {
        "type": "Point",
        "coordinates": [
          -5.0226,
          42.3694
        ]
      }
    },
    {
      "type": "Feature",
      "properties": {
        "id": "EST-LEON",
        "name": "León",
        "line": "Alvia Barcelona - Vigo"
      },
      "geometry": {
        "type": "Point",
        "coordinates": [
          -6.52214,
          42.4055
        ]
      }
    },
    {
      "type": "Feature",
      "properties": {
        "id": "EST-ASTORGA",
        "name": "Astorga",
        "line": "Alvia Barcelona - Vigo"
      },
      "geometry": {
        "type": "Point",
        "coordinates": [
          -6.04706,
          42.4594
        ]
      }
    },
    {
      "type": "Feature",
      "properties": {
        "id": "EST-BEMBIBRE",
        "name": "Bembibre",
        "line": "Alvia Barcelona - Vigo"
      },
      "geometry": {
        "type": "Point",
        "coordinates": [
          -6.42221,
          42.60954
        ]
      }
    },
    {
      "type": "Feature",
      "properties": {
        "id": "EST-PONFERRADA",
        "name": "Ponferrada",
        "line": "Alvia Barcelona - Vigo"
      },
      "geometry": {
        "type": "Point",
        "coordinates": [
          -6.60249,
          42.54566
        ]
      }
    },
    {
      "type": "Feature",
      "properties": {
        "id": "EST-OBARCODEVALDEORRAS",
        "name": "O Barco de Valdeorras",
        "line": "Alvia Barcelona - Vigo"
      },
      "geometry": {
        "type": "Point",
        "coordinates": [
          -6.98505,
          42.41826
        ]
      }
    },
    {
      "type": "Feature",
      "properties": {
        "id": "EST-ARUAPETIN",
        "name": "A Rúa-Petín",
        "line": "Alvia Barcelona - Vigo"
      },
      "geometry": {
        "type": "Point",
        "coordinates": [
          -7.11325,
          42.39261
        ]
      }
    },
    {
      "type": "Feature",
      "properties": {
        "id": "EST-SANCLODIOQUIROGA",
        "name": "San Clodio-Quiroga",
        "line": "Alvia Barcelona - Vigo"
      },
      "geometry": {
        "type": "Point",
        "coordinates": [
          -7.28721,
          42.46517
        ]
      }
    },
    {
      "type": "Feature",
      "properties": {
        "id": "EST-MONFORTEDELEMOS",
        "name": "Monforte de Lemos",
        "line": "Alvia Barcelona - Vigo"
      },
      "geometry": {
        "type": "Point",
        "coordinates": [
          -7.50314,
          42.52952
        ]
      }
    },
    {
      "type": "Feature",
      "properties": {
        "id": "EST-OURENSE",
        "name": "Ourense",
        "line": "Alvia Barcelona - Vigo"
      },
      "geometry": {
        "type": "Point",
        "coordinates": [
          -7.87255,
          42.35069
        ]
      }
    },
    {
      "type": "Feature",
      "properties": {
        "id": "EST-GUILLAREI",
        "name": "Guillarei",
        "line": "Alvia Barcelona - Vigo"
      },
      "geometry": {
        "type": "Point",
        "coordinates": [
          -8.62232,
          42.06571
        ]
      }
    },
    {
      "type": "Feature",
      "properties": {
        "id": "EST-OPORRINO",
        "name": "O Porriño",
        "line": "Alvia Barcelona - Vigo"
      },
      "geometry": {
        "type": "Point",
        "coordinates": [
          -8.62217,
          42.16414
        ]
      }
    },
    {
      "type": "Feature",
      "properties": {
        "id": "EST-REDONDELA",
        "name": "Redondela",
        "line": "Alvia Barcelona - Vigo"
      },
      "geometry": {
        "type": "Point",
        "coordinates": [
          -8.60372,
          42.28549
        ]
      }
    },
    {
      "type": "Feature",
      "properties": {
        "id": "EST-VIGOGUIXAR",
        "name": "Vigo-Guixar",
        "line": "Alvia Barcelona - Vigo"
      },
      "geometry": {
        "type": "Point",
        "coordinates": [
          -8.71188,
          42.23952
        ]
      }
    }
  ]
}