{
  "type": "FeatureCollection",
  "features": [
    {
      "type": "Feature",
      "properties": {
        "id": "251",
        "name": "C-9 Trubia - Gijón",
        "line_type": "Cercanías AM",
        "operator": "Renfe"
      },
      "geometry": {
        "type": "LineString",
        "coordinates": [
          [
            -5.67563,
            43.53773
          ],
          [
            -5.69475,
            43.52856
          ],
          [
            -5.72655,
            43.5073
          ],
          [
            -5.7196,
            43.48653
          ],
          [
            -4.20505,
            40.80486
          ],
          [
            -5.72059,
            43.53817
          ],
          [
            2.10983,
            41.36832
          ],
          [
            -5.7036,
            43.39402
          ],
          [
            -5.70247,
            43.38248
          ],
          [
            -5.79207,
            43.37949
          ],
          [
            -5.80874,
            43.38621
          ],
          [
            -5.85487,
            43.36636
          ],
          [
            -5.86482,
            43.3652
          ],
          [
            -5.86482,
            43.3652
          ],
          [
            -5.88327,
            43.3639
          ],
          [
            -5.89687,
            43.35968
          ],
          [
            -5.91779,
            43.35532
          ],
          [
            -4.27108,
            41.0746
          ],
          [
            -5.96504,
            43.35647
          ],
          [
            -5.96758,
            43.34856
          ]
        ]
      }
    },
    {
      "type": "Feature",
      "properties": {
        "id": "EST-GIJON",
        "name": "Gijón",
        "line": "C-9 Trubia - Gijón"
      },
      "geometry": {
        "type": "Point",
        "coordinates": [
          -5.67563,
          43.53773
        ]
      }
    },
    {
      "type": "Feature",
      "properties": {
        "id": "EST-TREMANESCARRENO",
        "name": "Tremañes-Carreño",
        "line": "C-9 Trubia - Gijón"
      },
      "geometry": {
        "type": "Point",
        "coordinates": [
          -5.69475,
          43.52856
        ]
      }
    },
    {
      "type": "Feature",
      "properties": {
        "id": "EST-SOTIELLO",
        "name": "Sotiello",
        "line": "C-9 Trubia - Gijón"
      },
      "geometry": {
        "type": "Point",
        "coordinates": [
          -5.72655,
          43.5073
        ]
      }
    },
    {
      "type": "Feature",
      "properties": {
        "id": "EST-PINZALES",
        "name": "Pinzales",
        "line": "C-9 Trubia - Gijón"
      },
      "geometry": {
        "type": "Point",
        "coordinates": [
          -5.7196,
          43.48653
        ]
      }
    },
    {
      "type": "Feature",
      "properties": {
        "id": "EST-LAAGUDA",
        "name": "La Aguda",
        "line": "C-9 Trubia - Gijón"
      },
      "geometry": {
        "type": "Point",
        "coordinates": [
          -4.20505,
          40.80486
        ]
      }
    },
    {
      "type": "Feature",
      "properties": {
        "id": "EST-PUENTESECO",
        "name": "Puente Seco",
        "line": "C-9 Trubia - Gijón"
      },
      "geometry": {
        "type": "Point",
        "coordinates": [
          -5.72059,
          43.53817
        ]
      }
    },
    {
      "type": "Feature",
      "properties": {
        "id": "EST-FLORIDA-Asturias-Siero",
        "name": "Florida",
        "line": "C-9 Trubia - Gijón"
      },
      "geometry": {
        "type": "Point",
        "coordinates": [
          2.10983,
          41.36832
        ]
      }
    },
    {
      "type": "Feature",
      "properties": {
        "id": "EST-NORENA",
        "name": "Noreña",
        "line": "C-9 Trubia - Gijón"
      },
      "geometry": {
        "type": "Point",
        "coordinates": [
          -5.7036,
          43.39402
        ]
      }
    },
    {
      "type": "Feature",
      "properties": {
        "id": "EST-ELBERRON",
        "name": "El Berrón",
        "line": "C-9 Trubia - Gijón"
      },
      "geometry": {
        "type": "Point",
        "coordinates": [
          -5.70247,
          43.38248
        ]
      }
    },
    {
      "type": "Feature",
      "properties": {
        "id": "EST-COLLOTO",
        "name": "Colloto",
        "line": "C-9 Trubia - Gijón"
      },
      "geometry": {
        "type": "Point",
        "coordinates": [
          -5.79207,
          43.37949
        ]
      }
    },
    {
      "type": "Feature",
      "properties": {
        "id": "EST-PARQUEPRINCIPADO",
        "name": "Parque Principado",
        "line": "C-9 Trubia - Gijón"
      },
      "geometry": {
        "type": "Point",
        "coordinates": [
          -5.80874,
          43.38621
        ]
      }
    },
    {
      "type": "Feature",
      "properties": {
        "id": "EST-OVIEDO",
        "name": "Oviedo",
        "line": "C-9 Trubia - Gijón"
      },
      "geometry": {
        "type": "Point",
        "coordinates": [
          -5.85487,
          43.36636
        ]
      }
    },
    {
      "type": "Feature",
      "properties": {
        "id": "EST-VALLOBIN",
        "name": "Vallobín",
        "line": "C-9 Trubia - Gijón"
      },
      "geometry": {
        "type": "Point",
        "coordinates": [
          -5.86482,
          43.3652
        ]
      }
    },
    {
      "type": "Feature",
      "properties": {
        "id": "EST-ARGANOSA",
        "name": "Argañosa",
        "line": "C-9 Trubia - Gijón"
      },
      "geometry": {
        "type": "Point",
        "coordinates": [
          -5.86482,
          43.3652
        ]
      }
    },
    {
      "type": "Feature",
      "properties": {
        "id": "EST-LASCAMPAS",
        "name": "Las Campas",
        "line": "C-9 Trubia - Gijón"
      },
      "geometry": {
        "type": "Point",
        "coordinates": [
          -5.88327,
          43.3639
        ]
      }
    },
    {
      "type": "Feature",
      "properties": {
        "id": "EST-LASMAZAS",
        "name": "Las Mazas",
        "line": "C-9 Trubia - Gijón"
      },
      "geometry": {
        "type": "Point",
        "coordinates": [
          -5.89687,
          43.35968
        ]
      }
    },
    {
      "type": "Feature",
      "properties": {
        "id": "EST-SANCLAUDIO",
        "name": "San Claudio",
        "line": "C-9 Trubia - Gijón"
      },
      "geometry": {
        "type": "Point",
        "coordinates": [
          -5.91779,
          43.35532
        ]
      }
    },
    {
      "type": "Feature",
      "properties": {
        "id": "EST-SANPEDRO",
        "name": "San Pedro",
        "line": "C-9 Trubia - Gijón"
      },
      "geometry": {
        "type": "Point",
        "coordinates": [
          -4.27108,
          41.0746
        ]
      }
    },
    {
      "type": "Feature",
      "properties": {
        "id": "EST-SOTOUDRION",
        "name": "Soto-Udrión",
        "line": "C-9 Trubia - Gijón"
      },
      "geometry": {
        "type": "Point",
        "coordinates": [
          -5.96504,
          43.35647
        ]
      }
    },
    {
      "type": "Feature",
      "properties": {
        "id": "EST-TRUBIA",
        "name": "Trubia",
        "line": "C-9 Trubia - Gijón"
      },
      "geometry": {
        "type": "Point",
        "coordinates": [
          -5.96758,
          43.34856
        ]
      }
    }
  ]
}