{
  "type": "FeatureCollection",
  "features": [
    {
      "type": "Feature",
      "properties": {
        "id": "261",
        "name": "E2 Lasarte - Donostia - Hendaia",
        "line_type": "Suburbano",
        "operator": "Euskotren"
      },
      "geometry": {
        "type": "LineString",
        "coordinates": [
          [
            -2.02026,
            43.27095
          ],
          [
            -2.00743,
            43.27876
          ],
          [
            -1.99463,
            43.29182
          ],
          [
            -2.0007,
            43.30243
          ],
          [
            -1.98153,
            43.31268
          ],
          [
            -1.97481,
            43.30226
          ],
          [
            -1.96796,
            43.31049
          ],
          [
            -1.95487,
            43.31423
          ],
          [
            -1.93671,
            43.31962
          ],
          [
            -1.91707,
            43.31898
          ],
          [
            -1.90644,
            43.31239
          ],
          [
            -1.89869,
            43.31101
          ],
          [
            -1.88885,
            43.30826
          ],
          [
            -1.87916,
            43.30862
          ],
          [
            -1.8576,
            43.32676
          ],
          [
            -1.81706,
            43.33036
          ],
          [
            -1.80058,
            43.33921
          ],
          [
            -1.80058,
            43.33921
          ],
          [
            -1.80058,
            43.33921
          ],
          [
            -1.79156,
            43.36803
          ]
        ]
      }
    },
    {
      "type": "Feature",
      "properties": {
        "id": "EST-LASARTEORIA",
        "name": "Lasarte-Oria",
        "line": "E2 Lasarte - Donostia - Hendaia"
      },
      "geometry": {
        "type": "Point",
        "coordinates": [
          -2.02026,
          43.27095
        ]
      }
    },
    {
      "type": "Feature",
      "properties": {
        "id": "EST-ERREKALDEDONOSTIA",
        "name": "Errekalde-Donostia",
        "line": "E2 Lasarte - Donostia - Hendaia"
      },
      "geometry": {
        "type": "Point",
        "coordinates": [
          -2.00743,
          43.27876
        ]
      }
    },
    {
      "type": "Feature",
      "properties": {
        "id": "EST-ANORGADONOSTIA",
        "name": "Añorga-Donostia",
        "line": "E2 Lasarte - Donostia - Hendaia"
      },
      "geometry": {
        "type": "Point",
        "coordinates": [
          -1.99463,
          43.29182
        ]
      }
    },
    {
      "type": "Feature",
      "properties": {
        "id": "EST-LUGARITZDONOSTIA",
        "name": "Lugaritz-Donostia",
        "line": "E2 Lasarte - Donostia - Hendaia"
      },
      "geometry": {
        "type": "Point",
        "coordinates": [
          -2.0007,
          43.30243
        ]
      }
    },
    {
      "type": "Feature",
      "properties": {
        "id": "EST-AMARADONOSTIA",
        "name": "Amara-Donostia",
        "line": "E2 Lasarte - Donostia - Hendaia"
      },
      "geometry": {
        "type": "Point",
        "coordinates": [
          -1.98153,
          43.31268
        ]
      }
    },
    {
      "type": "Feature",
      "properties": {
        "id": "EST-ANOETADONOSTIA-Gipuzkoa-DonostiaSanSebastin",
        "name": "Anoeta-Donostia",
        "line": "E2 Lasarte - Donostia - Hendaia"
      },
      "geometry": {
        "type": "Point",
        "coordinates": [
          -1.97481,
          43.30226
        ]
      }
    },
    {
      "type": "Feature",
      "properties": {
        "id": "EST-LOIOLADONOSTIA",
        "name": "Loiola-Donostia",
        "line": "E2 Lasarte - Donostia - Hendaia"
      },
      "geometry": {
        "type": "Point",
        "coordinates": [
          -1.96796,
          43.31049
        ]
      }
    },
    {
      "type": "Feature",
      "properties": {
        "id": "EST-INTXAURRONDODONOSTIA",
        "name": "Intxaurrondo-Donostia",
        "line": "E2 Lasarte - Donostia - Hendaia"
      },
      "geometry": {
        "type": "Point",
        "coordinates": [
          -1.95487,
          43.31423
        ]
      }
    },
    {
      "type": "Feature",
      "properties": {
        "id": "EST-HERRERADONOSTIA",
        "name": "Herrera-Donostia",
        "line": "E2 Lasarte - Donostia - Hendaia"
      },
      "geometry": {
        "type": "Point",
        "coordinates": [
          -1.93671,
          43.31962
        ]
      }
    },
    {
      "type": "Feature",
      "properties": {
        "id": "EST-PASAIA",
        "name": "Pasaia",
        "line": "E2 Lasarte - Donostia - Hendaia"
      },
      "geometry": {
        "type": "Point",
        "coordinates": [
          -1.91707,
          43.31898
        ]
      }
    },
    {
      "type": "Feature",
      "properties": {
        "id": "EST-GALTZARABORDAERRENTERIA",
        "name": "Galtzaraborda-Errenteria",
        "line": "E2 Lasarte - Donostia - Hendaia"
      },
      "geometry": {
        "type": "Point",
        "coordinates": [
          -1.90644,
          43.31239
        ]
      }
    },
    {
      "type": "Feature",
      "properties": {
        "id": "EST-ERRENTERIA",
        "name": "Errenteria",
        "line": "E2 Lasarte - Donostia - Hendaia"
      },
      "geometry": {
        "type": "Point",
        "coordinates": [
          -1.89869,
          43.31101
        ]
      }
    },
    {
      "type": "Feature",
      "properties": {
        "id": "EST-FANDERIAERRENTERIA",
        "name": "Fanderia-Errenteria",
        "line": "E2 Lasarte - Donostia - Hendaia"
      },
      "geometry": {
        "type": "Point",
        "coordinates": [
          -1.88885,
          43.30826
        ]
      }
    },
    {
      "type": "Feature",
      "properties": {
        "id": "EST-OIARTZUN",
        "name": "Oiartzun",
        "line": "E2 Lasarte - Donostia - Hendaia"
      },
      "geometry": {
        "type": "Point",
        "coordinates": [
          -1.87916,
          43.30862
        ]
      }
    },
    {
      "type": "Feature",
      "properties": {
        "id": "EST-GAINTXURIZKETALEZO",
        "name": "Gaintxurizketa-Lezo",
        "line": "E2 Lasarte - Donostia - Hendaia"
      },
      "geometry": {
        "type": "Point",
        "coordinates": [
          -1.8576,
          43.32676
        ]
      }
    },
    {
      "type": "Feature",
      "properties": {
        "id": "EST-BENTAKIRUN",
        "name": "Bentak-Irun",
        "line": "E2 Lasarte - Donostia - Hendaia"
      },
      "geometry": {
        "type": "Point",
        "coordinates": [
          -1.81706,
          43.33036
        ]
      }
    },
    {
      "type": "Feature",
      "properties": {
        "id": "EST-BELASKOENEAIRUN",
        "name": "Belaskoenea-Irun",
        "line": "E2 Lasarte - Donostia - Hendaia"
      },
      "geometry": {
        "type": "Point",
        "coordinates": [
          -1.80058,
          43.33921
        ]
      }
    },
    {
      "type": "Feature",
      "properties": {
        "id": "EST-IRUN",
        "name": "Irún",
        "line": "E2 Lasarte - Donostia - Hendaia"
      },
      "geometry": {
        "type": "Point",
        "coordinates": [
          -1.80058,
          43.33921
        ]
      }
    },
    {
      "type": "Feature",
      "properties": {
        "id": "EST-FICOBAIRUN",
        "name": "Ficoba-Irun",
        "line": "E2 Lasarte - Donostia - Hendaia"
      },
      "geometry": {
        "type": "Point",
        "coordinates": [
          -1.80058,
          43.33921
        ]
      }
    },
    {
      "type": "Feature",
      "properties": {
        "id": "EST-HENDAIA",
        "name": "Hendaia",
        "line": "E2 Lasarte - Donostia - Hendaia"
      },
      "geometry": {
        "type": "Point",
        "coordinates": [
          -1.79156,
          43.36803
        ]
      }
    }
  ]
}