{
  "type": "FeatureCollection",
  "features": [
    {
      "type": "Feature",
      "properties": {
        "id": "299",
        "name": "MD 35 Madrid - Castellón",
        "line_type": "Media Distancia AV",
        "operator": "Renfe"
      },
      "geometry": {
        "type": "LineString",
        "coordinates": [
          [
            -3.6886,
            40.40697
          ],
          [
            -2.14369,
            40.03396
          ],
          [
            -0.38121,
            39.46005
          ],
          [
            -0.00226,
            39.97506
          ]
        ]
      }
    },
    {
      "type": "Feature",
      "properties": {
        "id": "EST-MADRIDPUERTADEATOCHA",
        "name": "Madrid-Puerta de Atocha",
        "line": "MD 35 Madrid - Castellón"
      },
      "geometry": {
        "type": "Point",
        "coordinates": [
          -3.6886,
          40.40697
        ]
      }
    },
    {
      "type": "Feature",
      "properties": {
        "id": "EST-CUENCAFERNANDOZOBEL",
        "name": "Cuenca-Fernando Zóbel",
        "line": "MD 35 Madrid - Castellón"
      },
      "geometry": {
        "type": "Point",
        "coordinates": [
          -2.14369,
          40.03396
        ]
      }
    },
    {
      "type": "Feature",
      "properties": {
        "id": "EST-VALENCIAJOAQUINSOROLLA",
        "name": "Valencia-Joaquín Sorolla",
        "line": "MD 35 Madrid - Castellón"
      },
      "geometry": {
        "type": "Point",
        "coordinates": [
          -0.38121,
          39.46005
        ]
      }
    },
    {
      "type": "Feature",
      "properties": {
        "id": "EST-CASTELLODELAPLANA",
        "name": "Castelló de la Plana",
        "line": "MD 35 Madrid - Castellón"
      },
      "geometry": {
        "type": "Point",
        "coordinates": [
          -0.00226,
          39.97506
        ]
      }
    }
  ]
}