{
  "type": "FeatureCollection",
  "features": [
    {
      "type": "Feature",
      "properties": {
        "id": "305",
        "name": "Intercity Madrid - Cartagena",
        "line_type": "Larga Distancia",
        "operator": "Renfe"
      },
      "geometry": {
        "type": "LineString",
        "coordinates": [
          [
            -3.68226,
            40.47206
          ],
          [
            -2.14369,
            40.03396
          ],
          [
            -3.98261,
            42.98795
          ],
          [
            -1.13346,
            37.97658
          ],
          [
            -0.97497,
            37.60503
          ]
        ]
      }
    },
    {
      "type": "Feature",
      "properties": {
        "id": "EST-MADRIDCHAMARTINCLARACAMPOAMOR",
        "name": "Madrid-Chamartín-Clara Campoamor",
        "line": "Intercity Madrid - Cartagena"
      },
      "geometry": {
        "type": "Point",
        "coordinates": [
          -3.68226,
          40.47206
        ]
      }
    },
    {
      "type": "Feature",
      "properties": {
        "id": "EST-CUENCAFERNANDOZOBEL",
        "name": "Cuenca-Fernando Zóbel",
        "line": "Intercity Madrid - Cartagena"
      },
      "geometry": {
        "type": "Point",
        "coordinates": [
          -2.14369,
          40.03396
        ]
      }
    },
    {
      "type": "Feature",
      "properties": {
        "id": "EST-ALBACETELOSLLANOS",
        "name": "Albacete-Los Llanos",
        "line": "Intercity Madrid - Cartagena"
      },
      "geometry": {
        "type": "Point",
        "coordinates": [
          -3.98261,
          42.98795
        ]
      }
    },
    {
      "type": "Feature",
      "properties": {
        "id": "EST-MURCIADELCARMEN",
        "name": "Murcia del Carmen",
        "line": "Intercity Madrid - Cartagena"
      },
      "geometry": {
        "type": "Point",
        "coordinates": [
          -1.13346,
          37.97658
        ]
      }
    },
    {
      "type": "Feature",
      "properties": {
        "id": "EST-CARTAGENA",
        "name": "Cartagena",
        "line": "Intercity Madrid - Cartagena"
      },
      "geometry": {
        "type": "Point",
        "coordinates": [
          -0.97497,
          37.60503
        ]
      }
    }
  ]
}