{
  "type": "FeatureCollection",
  "features": [
    {
      "type": "Feature",
      "properties": {
        "id": "333",
        "name": "Alvia Madrid - Oviedo",
        "line_type": "Larga Distancia",
        "operator": "Renfe"
      },
      "geometry": {
        "type": "LineString",
        "coordinates": [
          [
            -3.68226,
            40.47206
          ],
          [
            -4.7272,
            41.64334
          ],
          [
            -4.53386,
            42.01573
          ],
          [
            -6.52214,
            42.4055
          ],
          [
            -5.78239,
            43.25004
          ],
          [
            -5.85487,
            43.36636
          ]
        ]
      }
    },
    {
      "type": "Feature",
      "properties": {
        "id": "EST-MADRIDCHAMARTINCLARACAMPOAMOR",
        "name": "Madrid-Chamartín-Clara Campoamor",
        "line": "Alvia Madrid - Oviedo"
      },
      "geometry": {
        "type": "Point",
        "coordinates": [
          -3.68226,
          40.47206
        ]
      }
    },
    {
      "type": "Feature",
      "properties": {
        "id": "EST-VALLADOLIDCAMPOGRANDE",
        "name": "Valladolid-Campo Grande",
        "line": "Alvia Madrid - Oviedo"
      },
      "geometry": {
        "type": "Point",
        "coordinates": [
          -4.7272,
          41.64334
        ]
      }
    },
    {
      "type": "Feature",
      "properties": {
        "id": "EST-PALENCIA",
        "name": "Palencia",
        "line": "Alvia Madrid - Oviedo"
      },
      "geometry": {
        "type": "Point",
        "coordinates": [
          -4.53386,
          42.01573
        ]
      }
    },
    {
      "type": "Feature",
      "properties": {
        "id": "EST-LEON",
        "name": "León",
        "line": "Alvia Madrid - Oviedo"
      },
      "geometry": {
        "type": "Point",
        "coordinates": [
          -6.52214,
          42.4055
        ]
      }
    },
    {
      "type": "Feature",
      "properties": {
        "id": "EST-MIERESPUENTE",
        "name": "Mieres-Puente",
        "line": "Alvia Madrid - Oviedo"
      },
      "geometry": {
        "type": "Point",
        "coordinates": [
          -5.78239,
          43.25004
        ]
      }
    },
    {
      "type": "Feature",
      "properties": {
        "id": "EST-OVIEDO",
        "name": "Oviedo",
        "line": "Alvia Madrid - Oviedo"
      },
      "geometry": {
        "type": "Point",
        "coordinates": [
          -5.85487,
          43.36636
        ]
      }
    }
  ]
}