{
  "type": "FeatureCollection",
  "features": [
    {
      "type": "Feature",
      "properties": {
        "id": "349",
        "name": "MD AV Vigo - A Coruña",
        "line_type": "Media Distancia AV",
        "operator": "Renfe"
      },
      "geometry": {
        "type": "LineString",
        "coordinates": [
          [
            -8.7119,
            42.23496
          ],
          [
            -8.60372,
            42.28549
          ],
          [
            -8.61067,
            42.34041
          ],
          [
            -8.6354,
            42.42168
          ],
          [
            -8.76228,
            42.60199
          ],
          [
            -8.65241,
            42.73898
          ],
          [
            -8.5452,
            42.87044
          ],
          [
            -8.44688,
            43.20764
          ],
          [
            -8.41215,
            43.35037
          ]
        ]
      }
    },
    {
      "type": "Feature",
      "properties": {
        "id": "EST-VIGOURZAIZ",
        "name": "Vigo-Urzaiz",
        "line": "MD AV Vigo - A Coruña"
      },
      "geometry": {
        "type": "Point",
        "coordinates": [
          -8.7119,
          42.23496
        ]
      }
    },
    {
      "type": "Feature",
      "properties": {
        "id": "EST-REDONDELA",
        "name": "Redondela",
        "line": "MD AV Vigo - A Coruña"
      },
      "geometry": {
        "type": "Point",
        "coordinates": [
          -8.60372,
          42.28549
        ]
      }
    },
    {
      "type": "Feature",
      "properties": {
        "id": "EST-ARCADE",
        "name": "Arcade",
        "line": "MD AV Vigo - A Coruña"
      },
      "geometry": {
        "type": "Point",
        "coordinates": [
          -8.61067,
          42.34041
        ]
      }
    },
    {
      "type": "Feature",
      "properties": {
        "id": "EST-PONTEVEDRA",
        "name": "Pontevedra",
        "line": "MD AV Vigo - A Coruña"
      },
      "geometry": {
        "type": "Point",
        "coordinates": [
          -8.6354,
          42.42168
        ]
      }
    },
    {
      "type": "Feature",
      "properties": {
        "id": "EST-VILAGARCIADEAROUSA",
        "name": "Vilagarcía de Arousa",
        "line": "MD AV Vigo - A Coruña"
      },
      "geometry": {
        "type": "Point",
        "coordinates": [
          -8.76228,
          42.60199
        ]
      }
    },
    {
      "type": "Feature",
      "properties": {
        "id": "EST-PADRONBARBANZA",
        "name": "Padrón-Barbanza",
        "line": "MD AV Vigo - A Coruña"
      },
      "geometry": {
        "type": "Point",
        "coordinates": [
          -8.65241,
          42.73898
        ]
      }
    },
    {
      "type": "Feature",
      "properties": {
        "id": "EST-SANTIAGODECOMPOSTELA",
        "name": "Santiago de Compostela",
        "line": "MD AV Vigo - A Coruña"
      },
      "geometry": {
        "type": "Point",
        "coordinates": [
          -8.5452,
          42.87044
        ]
      }
    },
    {
      "type": "Feature",
      "properties": {
        "id": "EST-CERCEDAMEIRAMA",
        "name": "Cerceda-Meirama",
        "line": "MD AV Vigo - A Coruña"
      },
      "geometry": {
        "type": "Point",
        "coordinates": [
          -8.44688,
          43.20764
        ]
      }
    },
    {
      "type": "Feature",
      "properties": {
        "id": "EST-ACORUNA",
        "name": "A Coruña",
        "line": "MD AV Vigo - A Coruña"
      },
      "geometry": {
        "type": "Point",
        "coordinates": [
          -8.41215,
          43.35037
        ]
      }
    }
  ]
}