{
  "type": "FeatureCollection",
  "features": [
    {
      "type": "Feature",
      "properties": {
        "id": "352",
        "name": "Regional R-3 Santander - Marrón - Carranza - Bilbao",
        "line_type": "Regional",
        "operator": "Renfe"
      },
      "geometry": {
        "type": "LineString",
        "coordinates": [
          [
            -3.81102,
            43.4583
          ],
          [
            -3.82781,
            43.45404
          ],
          [
            -3.84724,
            43.4444
          ],
          [
            -3.84041,
            43.42746
          ],
          [
            -3.84096,
            43.41612
          ],
          [
            -3.8209,
            43.40396
          ],
          [
            -3.81489,
            43.39727
          ],
          [
            -3.80377,
            43.39373
          ],
          [
            -3.76655,
            43.40105
          ],
          [
            -3.73816,
            43.39942
          ],
          [
            -5.72059,
            43.53817
          ],
          [
            -3.70366,
            43.41124
          ],
          [
            -3.66666,
            43.40502
          ],
          [
            -3.57707,
            43.41363
          ],
          [
            -3.52496,
            43.42303
          ],
          [
            -3.49051,
            43.41708
          ],
          [
            -3.46936,
            43.39418
          ],
          [
            -3.43336,
            43.35883
          ],
          [
            -3.42105,
            43.34653
          ],
          [
            -3.44564,
            43.31366
          ],
          [
            -3.43828,
            43.28203
          ],
          [
            -3.71177,
            40.34103
          ],
          [
            -3.19827,
            43.23335
          ],
          [
            -3.10896,
            43.2105
          ],
          [
            -3.05048,
            43.20205
          ],
          [
            -3.01643,
            43.23336
          ],
          [
            -2.98998,
            43.24782
          ],
          [
            -2.95322,
            43.25965
          ],
          [
            -2.92524,
            43.29188
          ],
          [
            -2.92546,
            43.26903
          ]
        ]
      }
    },
    {
      "type": "Feature",
      "properties": {
        "id": "EST-SANTANDER",
        "name": "Santander",
        "line": "Regional R-3 Santander - Marrón - Carranza - Bilbao"
      },
      "geometry": {
        "type": "Point",
        "coordinates": [
          -3.81102,
          43.4583
        ]
      }
    },
    {
      "type": "Feature",
      "properties": {
        "id": "EST-VALDECILLA",
        "name": "Valdecilla",
        "line": "Regional R-3 Santander - Marrón - Carranza - Bilbao"
      },
      "geometry": {
        "type": "Point",
        "coordinates": [
          -3.82781,
          43.45404
        ]
      }
    },
    {
      "type": "Feature",
      "properties": {
        "id": "EST-NUEVAMONTANA",
        "name": "Nueva Montaña",
        "line": "Regional R-3 Santander - Marrón - Carranza - Bilbao"
      },
      "geometry": {
        "type": "Point",
        "coordinates": [
          -3.84724,
          43.4444
        ]
      }
    },
    {
      "type": "Feature",
      "properties": {
        "id": "EST-VALLEREAL",
        "name": "Valle Real",
        "line": "Regional R-3 Santander - Marrón - Carranza - Bilbao"
      },
      "geometry": {
        "type": "Point",
        "coordinates": [
          -3.84041,
          43.42746
        ]
      }
    },
    {
      "type": "Feature",
      "properties": {
        "id": "EST-MALIANOLAVIDRIERA",
        "name": "Maliaño-La Vidriera",
        "line": "Regional R-3 Santander - Marrón - Carranza - Bilbao"
      },
      "geometry": {
        "type": "Point",
        "coordinates": [
          -3.84096,
          43.41612
        ]
      }
    },
    {
      "type": "Feature",
      "properties": {
        "id": "EST-ASTILLERO",
        "name": "Astillero",
        "line": "Regional R-3 Santander - Marrón - Carranza - Bilbao"
      },
      "geometry": {
        "type": "Point",
        "coordinates": [
          -3.8209,
          43.40396
        ]
      }
    },
    {
      "type": "Feature",
      "properties": {
        "id": "EST-LACANTABRICA",
        "name": "La Cantábrica",
        "line": "Regional R-3 Santander - Marrón - Carranza - Bilbao"
      },
      "geometry": {
        "type": "Point",
        "coordinates": [
          -3.81489,
          43.39727
        ]
      }
    },
    {
      "type": "Feature",
      "properties": {
        "id": "EST-SANSALVADOR",
        "name": "San Salvador",
        "line": "Regional R-3 Santander - Marrón - Carranza - Bilbao"
      },
      "geometry": {
        "type": "Point",
        "coordinates": [
          -3.80377,
          43.39373
        ]
      }
    },
    {
      "type": "Feature",
      "properties": {
        "id": "EST-HERAS",
        "name": "Heras",
        "line": "Regional R-3 Santander - Marrón - Carranza - Bilbao"
      },
      "geometry": {
        "type": "Point",
        "coordinates": [
          -3.76655,
          43.40105
        ]
      }
    },
    {
      "type": "Feature",
      "properties": {
        "id": "EST-OREJO",
        "name": "Orejo",
        "line": "Regional R-3 Santander - Marrón - Carranza - Bilbao"
      },
      "geometry": {
        "type": "Point",
        "coordinates": [
          -3.73816,
          43.39942
        ]
      }
    },
    {
      "type": "Feature",
      "properties": {
        "id": "EST-PUENTESECO",
        "name": "Puente Seco",
        "line": "Regional R-3 Santander - Marrón - Carranza - Bilbao"
      },
      "geometry": {
        "type": "Point",
        "coordinates": [
          -5.72059,
          43.53817
        ]
      }
    },
    {
      "type": "Feature",
      "properties": {
        "id": "EST-VILLAVERDEDEPONTONES",
        "name": "Villaverde de Pontones",
        "line": "Regional R-3 Santander - Marrón - Carranza - Bilbao"
      },
      "geometry": {
        "type": "Point",
        "coordinates": [
          -3.70366,
          43.41124
        ]
      }
    },
    {
      "type": "Feature",
      "properties": {
        "id": "EST-HOZDEANERO",
        "name": "Hoz de Anero",
        "line": "Regional R-3 Santander - Marrón - Carranza - Bilbao"
      },
      "geometry": {
        "type": "Point",
        "coordinates": [
          -3.66666,
          43.40502
        ]
      }
    },
    {
      "type": "Feature",
      "properties": {
        "id": "EST-BERANGA",
        "name": "Beranga",
        "line": "Regional R-3 Santander - Marrón - Carranza - Bilbao"
      },
      "geometry": {
        "type": "Point",
        "coordinates": [
          -3.57707,
          43.41363
        ]
      }
    },
    {
      "type": "Feature",
      "properties": {
        "id": "EST-GAMA",
        "name": "Gama",
        "line": "Regional R-3 Santander - Marrón - Carranza - Bilbao"
      },
      "geometry": {
        "type": "Point",
        "coordinates": [
          -3.52496,
          43.42303
        ]
      }
    },
    {
      "type": "Feature",
      "properties": {
        "id": "EST-CICERO",
        "name": "Cicero",
        "line": "Regional R-3 Santander - Marrón - Carranza - Bilbao"
      },
      "geometry": {
        "type": "Point",
        "coordinates": [
          -3.49051,
          43.41708
        ]
      }
    },
    {
      "type": "Feature",
      "properties": {
        "id": "EST-TRETO",
        "name": "Treto",
        "line": "Regional R-3 Santander - Marrón - Carranza - Bilbao"
      },
      "geometry": {
        "type": "Point",
        "coordinates": [
          -3.46936,
          43.39418
        ]
      }
    },
    {
      "type": "Feature",
      "properties": {
        "id": "EST-LIMPIAS",
        "name": "Limpias",
        "line": "Regional R-3 Santander - Marrón - Carranza - Bilbao"
      },
      "geometry": {
        "type": "Point",
        "coordinates": [
          -3.43336,
          43.35883
        ]
      }
    },
    {
      "type": "Feature",
      "properties": {
        "id": "EST-MARRON",
        "name": "Marrón",
        "line": "Regional R-3 Santander - Marrón - Carranza - Bilbao"
      },
      "geometry": {
        "type": "Point",
        "coordinates": [
          -3.42105,
          43.34653
        ]
      }
    },
    {
      "type": "Feature",
      "properties": {
        "id": "EST-UDALLA",
        "name": "Udalla",
        "line": "Regional R-3 Santander - Marrón - Carranza - Bilbao"
      },
      "geometry": {
        "type": "Point",
        "coordinates": [
          -3.44564,
          43.31366
        ]
      }
    },
    {
      "type": "Feature",
      "properties": {
        "id": "EST-GIBAJA",
        "name": "Gibaja",
        "line": "Regional R-3 Santander - Marrón - Carranza - Bilbao"
      },
      "geometry": {
        "type": "Point",
        "coordinates": [
          -3.43828,
          43.28203
        ]
      }
    },
    {
      "type": "Feature",
      "properties": {
        "id": "EST-VILLAVERDEALTO",
        "name": "Villaverde Alto",
        "line": "Regional R-3 Santander - Marrón - Carranza - Bilbao"
      },
      "geometry": {
        "type": "Point",
        "coordinates": [
          -3.71177,
          40.34103
        ]
      }
    },
    {
      "type": "Feature",
      "properties": {
        "id": "EST-TRASLAVINA",
        "name": "Traslaviña",
        "line": "Regional R-3 Santander - Marrón - Carranza - Bilbao"
      },
      "geometry": {
        "type": "Point",
        "coordinates": [
          -3.19827,
          43.23335
        ]
      }
    },
    {
      "type": "Feature",
      "properties": {
        "id": "EST-ARANGUREN",
        "name": "Aranguren",
        "line": "Regional R-3 Santander - Marrón - Carranza - Bilbao"
      },
      "geometry": {
        "type": "Point",
        "coordinates": [
          -3.10896,
          43.2105
        ]
      }
    },
    {
      "type": "Feature",
      "properties": {
        "id": "EST-SODUPE",
        "name": "Sodupe",
        "line": "Regional R-3 Santander - Marrón - Carranza - Bilbao"
      },
      "geometry": {
        "type": "Point",
        "coordinates": [
          -3.05048,
          43.20205
        ]
      }
    },
    {
      "type": "Feature",
      "properties": {
        "id": "EST-ZARAMILLO",
        "name": "Zaramillo",
        "line": "Regional R-3 Santander - Marrón - Carranza - Bilbao"
      },
      "geometry": {
        "type": "Point",
        "coordinates": [
          -3.01643,
          43.23336
        ]
      }
    },
    {
      "type": "Feature",
      "properties": {
        "id": "EST-IRAUREGUI",
        "name": "Irauregui",
        "line": "Regional R-3 Santander - Marrón - Carranza - Bilbao"
      },
      "geometry": {
        "type": "Point",
        "coordinates": [
          -2.98998,
          43.24782
        ]
      }
    },
    {
      "type": "Feature",
      "properties": {
        "id": "EST-BASURTOHOSPITAL",
        "name": "Basurto-Hospital",
        "line": "Regional R-3 Santander - Marrón - Carranza - Bilbao"
      },
      "geometry": {
        "type": "Point",
        "coordinates": [
          -2.95322,
          43.25965
        ]
      }
    },
    {
      "type": "Feature",
      "properties": {
        "id": "EST-AMEZOLA",
        "name": "Amézola",
        "line": "Regional R-3 Santander - Marrón - Carranza - Bilbao"
      },
      "geometry": {
        "type": "Point",
        "coordinates": [
          -2.92524,
          43.29188
        ]
      }
    },
    {
      "type": "Feature",
      "properties": {
        "id": "EST-MATIKOBILBAO",
        "name": "Matiko-Bilbao",
        "line": "Regional R-3 Santander - Marrón - Carranza - Bilbao"
      },
      "geometry": {
        "type": "Point",
        "coordinates": [
          -2.92546,
          43.26903
        ]
      }
    }
  ]
}