{
  "type": "FeatureCollection",
  "features": [
    {
      "type": "Feature",
      "properties": {
        "id": "353",
        "name": "Regional R-4 Bilbao - Mataporquera - León",
        "line_type": "Regional",
        "operator": "Renfe"
      },
      "geometry": {
        "type": "LineString",
        "coordinates": [
          [
            -2.92546,
            43.26903
          ],
          [
            -2.92524,
            43.29188
          ],
          [
            -2.95322,
            43.25965
          ],
          [
            -2.98998,
            43.24782
          ],
          [
            -3.01643,
            43.23336
          ],
          [
            -3.05048,
            43.20205
          ],
          [
            -3.10896,
            43.2105
          ],
          [
            -3.10896,
            43.2105
          ],
          [
            -3.13333,
            43.21283
          ],
          [
            -3.18981,
            43.19654
          ],
          [
            -5.70247,
            43.38248
          ],
          [
            -5.50899,
            43.36119
          ],
          [
            -3.45763,
            43.0884
          ],
          [
            -3.64815,
            40.43311
          ],
          [
            -3.64949,
            43.17974
          ],
          [
            -3.61968,
            43.06058
          ],
          [
            -3.68835,
            43.04527
          ],
          [
            -3.75683,
            43.01241
          ],
          [
            -3.88,
            42.96
          ],
          [
            -3.84486,
            43.00579
          ],
          [
            -3.85841,
            42.99637
          ],
          [
            -3.94475,
            42.99152
          ],
          [
            -3.98261,
            42.98795
          ],
          [
            -3.86794,
            40.49429
          ],
          [
            -4.04268,
            42.9321
          ],
          [
            -4.07531,
            42.91032
          ],
          [
            -4.16506,
            42.87121
          ],
          [
            -4.38611,
            42.85131
          ],
          [
            -4.4944,
            42.83933
          ],
          [
            -4.60194,
            42.81211
          ],
          [
            -4.68605,
            42.81855
          ],
          [
            -4.74178,
            42.80196
          ],
          [
            -4.85188,
            42.79097
          ],
          [
            -4.85188,
            42.79097
          ],
          [
            -4.90536,
            42.78668
          ],
          [
            -4.92968,
            42.76528
          ],
          [
            -4.97248,
            42.7876
          ],
          [
            -5.00559,
            42.77981
          ],
          [
            -5.02714,
            42.78328
          ],
          [
            -5.04132,
            42.7703
          ],
          [
            -5.07096,
            42.76789
          ],
          [
            -5.12748,
            42.78615
          ],
          [
            -5.13091,
            42.80318
          ],
          [
            -5.21402,
            42.80889
          ],
          [
            -5.32871,
            42.86278
          ],
          [
            -5.41207,
            42.85511
          ],
          [
            -5.52217,
            42.84114
          ],
          [
            -5.53796,
            42.68227
          ],
          [
            -4.48415,
            41.15566
          ],
          [
            -6.52214,
            42.4055
          ]
        ]
      }
    },
    {
      "type": "Feature",
      "properties": {
        "id": "EST-MATIKOBILBAO",
        "name": "Matiko-Bilbao",
        "line": "Regional R-4 Bilbao - Mataporquera - León"
      },
      "geometry": {
        "type": "Point",
        "coordinates": [
          -2.92546,
          43.26903
        ]
      }
    },
    {
      "type": "Feature",
      "properties": {
        "id": "EST-AMEZOLA",
        "name": "Amézola",
        "line": "Regional R-4 Bilbao - Mataporquera - León"
      },
      "geometry": {
        "type": "Point",
        "coordinates": [
          -2.92524,
          43.29188
        ]
      }
    },
    {
      "type": "Feature",
      "properties": {
        "id": "EST-BASURTOHOSPITAL",
        "name": "Basurto-Hospital",
        "line": "Regional R-4 Bilbao - Mataporquera - León"
      },
      "geometry": {
        "type": "Point",
        "coordinates": [
          -2.95322,
          43.25965
        ]
      }
    },
    {
      "type": "Feature",
      "properties": {
        "id": "EST-IRAUREGUI",
        "name": "Irauregui",
        "line": "Regional R-4 Bilbao - Mataporquera - León"
      },
      "geometry": {
        "type": "Point",
        "coordinates": [
          -2.98998,
          43.24782
        ]
      }
    },
    {
      "type": "Feature",
      "properties": {
        "id": "EST-ZARAMILLO",
        "name": "Zaramillo",
        "line": "Regional R-4 Bilbao - Mataporquera - León"
      },
      "geometry": {
        "type": "Point",
        "coordinates": [
          -3.01643,
          43.23336
        ]
      }
    },
    {
      "type": "Feature",
      "properties": {
        "id": "EST-SODUPE",
        "name": "Sodupe",
        "line": "Regional R-4 Bilbao - Mataporquera - León"
      },
      "geometry": {
        "type": "Point",
        "coordinates": [
          -3.05048,
          43.20205
        ]
      }
    },
    {
      "type": "Feature",
      "properties": {
        "id": "EST-ARANGUREN",
        "name": "Aranguren",
        "line": "Regional R-4 Bilbao - Mataporquera - León"
      },
      "geometry": {
        "type": "Point",
        "coordinates": [
          -3.10896,
          43.2105
        ]
      }
    },
    {
      "type": "Feature",
      "properties": {
        "id": "EST-ARANGURENAPEADERO",
        "name": "Aranguren-Apeadero",
        "line": "Regional R-4 Bilbao - Mataporquera - León"
      },
      "geometry": {
        "type": "Point",
        "coordinates": [
          -3.10896,
          43.2105
        ]
      }
    },
    {
      "type": "Feature",
      "properties": {
        "id": "EST-ZALLA",
        "name": "Zalla",
        "line": "Regional R-4 Bilbao - Mataporquera - León"
      },
      "geometry": {
        "type": "Point",
        "coordinates": [
          -3.13333,
          43.21283
        ]
      }
    },
    {
      "type": "Feature",
      "properties": {
        "id": "EST-BALMASEDA",
        "name": "Balmaseda",
        "line": "Regional R-4 Bilbao - Mataporquera - León"
      },
      "geometry": {
        "type": "Point",
        "coordinates": [
          -3.18981,
          43.19654
        ]
      }
    },
    {
      "type": "Feature",
      "properties": {
        "id": "EST-ELBERRON",
        "name": "El Berrón",
        "line": "Regional R-4 Bilbao - Mataporquera - León"
      },
      "geometry": {
        "type": "Point",
        "coordinates": [
          -5.70247,
          43.38248
        ]
      }
    },
    {
      "type": "Feature",
      "properties": {
        "id": "EST-NAVA",
        "name": "Nava",
        "line": "Regional R-4 Bilbao - Mataporquera - León"
      },
      "geometry": {
        "type": "Point",
        "coordinates": [
          -5.50899,
          43.36119
        ]
      }
    },
    {
      "type": "Feature",
      "properties": {
        "id": "EST-BERCEDO",
        "name": "Bercedo",
        "line": "Regional R-4 Bilbao - Mataporquera - León"
      },
      "geometry": {
        "type": "Point",
        "coordinates": [
          -3.45763,
          43.0884
        ]
      }
    },
    {
      "type": "Feature",
      "properties": {
        "id": "EST-QUINTANA-Burgos-MerindaddeMontija",
        "name": "Quintana",
        "line": "Regional R-4 Bilbao - Mataporquera - León"
      },
      "geometry": {
        "type": "Point",
        "coordinates": [
          -3.64815,
          40.43311
        ]
      }
    },
    {
      "type": "Feature",
      "properties": {
        "id": "EST-ESPINOSADELOSMONTEROS",
        "name": "Espinosa de los Monteros",
        "line": "Regional R-4 Bilbao - Mataporquera - León"
      },
      "geometry": {
        "type": "Point",
        "coordinates": [
          -3.64949,
          43.17974
        ]
      }
    },
    {
      "type": "Feature",
      "properties": {
        "id": "EST-REDONDO",
        "name": "Redondo",
        "line": "Regional R-4 Bilbao - Mataporquera - León"
      },
      "geometry": {
        "type": "Point",
        "coordinates": [
          -3.61968,
          43.06058
        ]
      }
    },
    {
      "type": "Feature",
      "properties": {
        "id": "EST-SOTOSCUEVA",
        "name": "Sotoscueva",
        "line": "Regional R-4 Bilbao - Mataporquera - León"
      },
      "geometry": {
        "type": "Point",
        "coordinates": [
          -3.68835,
          43.04527
        ]
      }
    },
    {
      "type": "Feature",
      "properties": {
        "id": "EST-PEDROSA",
        "name": "Pedrosa",
        "line": "Regional R-4 Bilbao - Mataporquera - León"
      },
      "geometry": {
        "type": "Point",
        "coordinates": [
          -3.75683,
          43.01241
        ]
      }
    },
    {
      "type": "Feature",
      "properties": {
        "id": "EST-DOSANTECEBALLOS",
        "name": "Dosante-Ceballos",
        "line": "Regional R-4 Bilbao - Mataporquera - León"
      },
      "geometry": {
        "type": "Point",
        "coordinates": [
          -3.88,
          42.96
        ]
      }
    },
    {
      "type": "Feature",
      "properties": {
        "id": "EST-SONCILLO",
        "name": "Soncillo",
        "line": "Regional R-4 Bilbao - Mataporquera - León"
      },
      "geometry": {
        "type": "Point",
        "coordinates": [
          -3.84486,
          43.00579
        ]
      }
    },
    {
      "type": "Feature",
      "properties": {
        "id": "EST-CABANASDEVIRTUS",
        "name": "Cabañas de Virtus",
        "line": "Regional R-4 Bilbao - Mataporquera - León"
      },
      "geometry": {
        "type": "Point",
        "coordinates": [
          -3.85841,
          42.99637
        ]
      }
    },
    {
      "type": "Feature",
      "properties": {
        "id": "EST-ARIJA",
        "name": "Arija",
        "line": "Regional R-4 Bilbao - Mataporquera - León"
      },
      "geometry": {
        "type": "Point",
        "coordinates": [
          -3.94475,
          42.99152
        ]
      }
    },
    {
      "type": "Feature",
      "properties": {
        "id": "EST-LLANO",
        "name": "Llano",
        "line": "Regional R-4 Bilbao - Mataporquera - León"
      },
      "geometry": {
        "type": "Point",
        "coordinates": [
          -3.98261,
          42.98795
        ]
      }
    },
    {
      "type": "Feature",
      "properties": {
        "id": "EST-LASROZAS",
        "name": "Las Rozas",
        "line": "Regional R-4 Bilbao - Mataporquera - León"
      },
      "geometry": {
        "type": "Point",
        "coordinates": [
          -3.86794,
          40.49429
        ]
      }
    },
    {
      "type": "Feature",
      "properties": {
        "id": "EST-MONTESCLAROS",
        "name": "Montes Claros",
        "line": "Regional R-4 Bilbao - Mataporquera - León"
      },
      "geometry": {
        "type": "Point",
        "coordinates": [
          -4.04268,
          42.9321
        ]
      }
    },
    {
      "type": "Feature",
      "properties": {
        "id": "EST-LOSCARABEOS",
        "name": "Los Carabeos",
        "line": "Regional R-4 Bilbao - Mataporquera - León"
      },
      "geometry": {
        "type": "Point",
        "coordinates": [
          -4.07531,
          42.91032
        ]
      }
    },
    {
      "type": "Feature",
      "properties": {
        "id": "EST-MATAPORQUERA",
        "name": "Mataporquera",
        "line": "Regional R-4 Bilbao - Mataporquera - León"
      },
      "geometry": {
        "type": "Point",
        "coordinates": [
          -4.16506,
          42.87121
        ]
      }
    },
    {
      "type": "Feature",
      "properties": {
        "id": "EST-SALINASDEPISUERGA",
        "name": "Salinas de Pisuerga",
        "line": "Regional R-4 Bilbao - Mataporquera - León"
      },
      "geometry": {
        "type": "Point",
        "coordinates": [
          -4.38611,
          42.85131
        ]
      }
    },
    {
      "type": "Feature",
      "properties": {
        "id": "EST-VADOCERVERA",
        "name": "Vado-Cervera",
        "line": "Regional R-4 Bilbao - Mataporquera - León"
      },
      "geometry": {
        "type": "Point",
        "coordinates": [
          -4.4944,
          42.83933
        ]
      }
    },
    {
      "type": "Feature",
      "properties": {
        "id": "EST-CASTREJONDELAPENA",
        "name": "Castrejón de la Peña",
        "line": "Regional R-4 Bilbao - Mataporquera - León"
      },
      "geometry": {
        "type": "Point",
        "coordinates": [
          -4.60194,
          42.81211
        ]
      }
    },
    {
      "type": "Feature",
      "properties": {
        "id": "EST-TARILONTE",
        "name": "Tarilonte",
        "line": "Regional R-4 Bilbao - Mataporquera - León"
      },
      "geometry": {
        "type": "Point",
        "coordinates": [
          -4.68605,
          42.81855
        ]
      }
    },
    {
      "type": "Feature",
      "properties": {
        "id": "EST-SANTIBAÑEZDELAPENA",
        "name": "Santibáñez de la Peña",
        "line": "Regional R-4 Bilbao - Mataporquera - León"
      },
      "geometry": {
        "type": "Point",
        "coordinates": [
          -4.74178,
          42.80196
        ]
      }
    },
    {
      "type": "Feature",
      "properties": {
        "id": "EST-GUARDOAPEADERO",
        "name": "Guardo-Apeadero",
        "line": "Regional R-4 Bilbao - Mataporquera - León"
      },
      "geometry": {
        "type": "Point",
        "coordinates": [
          -4.85188,
          42.79097
        ]
      }
    },
    {
      "type": "Feature",
      "properties": {
        "id": "EST-GUARDO",
        "name": "Guardo",
        "line": "Regional R-4 Bilbao - Mataporquera - León"
      },
      "geometry": {
        "type": "Point",
        "coordinates": [
          -4.85188,
          42.79097
        ]
      }
    },
    {
      "type": "Feature",
      "properties": {
        "id": "EST-LAESPINA",
        "name": "La Espina",
        "line": "Regional R-4 Bilbao - Mataporquera - León"
      },
      "geometry": {
        "type": "Point",
        "coordinates": [
          -4.90536,
          42.78668
        ]
      }
    },
    {
      "type": "Feature",
      "properties": {
        "id": "EST-VALCUENDE",
        "name": "Valcuende",
        "line": "Regional R-4 Bilbao - Mataporquera - León"
      },
      "geometry": {
        "type": "Point",
        "coordinates": [
          -4.92968,
          42.76528
        ]
      }
    },
    {
      "type": "Feature",
      "properties": {
        "id": "EST-PUENTEALMUHEY",
        "name": "Puente Almuhey",
        "line": "Regional R-4 Bilbao - Mataporquera - León"
      },
      "geometry": {
        "type": "Point",
        "coordinates": [
          -4.97248,
          42.7876
        ]
      }
    },
    {
      "type": "Feature",
      "properties": {
        "id": "EST-CEREZALDELAGUZPENA",
        "name": "Cerezal de la Guzpeña",
        "line": "Regional R-4 Bilbao - Mataporquera - León"
      },
      "geometry": {
        "type": "Point",
        "coordinates": [
          -5.00559,
          42.77981
        ]
      }
    },
    {
      "type": "Feature",
      "properties": {
        "id": "EST-PRADODELAGUZPENA",
        "name": "Prado de la Guzpeña",
        "line": "Regional R-4 Bilbao - Mataporquera - León"
      },
      "geometry": {
        "type": "Point",
        "coordinates": [
          -5.02714,
          42.78328
        ]
      }
    },
    {
      "type": "Feature",
      "properties": {
        "id": "EST-LALLAMADELAGUZPENA",
        "name": "La Llama de la Guzpeña",
        "line": "Regional R-4 Bilbao - Mataporquera - León"
      },
      "geometry": {
        "type": "Point",
        "coordinates": [
          -5.04132,
          42.7703
        ]
      }
    },
    {
      "type": "Feature",
      "properties": {
        "id": "EST-VALLEDELASCASAS",
        "name": "Valle de las Casas",
        "line": "Regional R-4 Bilbao - Mataporquera - León"
      },
      "geometry": {
        "type": "Point",
        "coordinates": [
          -5.07096,
          42.76789
        ]
      }
    },
    {
      "type": "Feature",
      "properties": {
        "id": "EST-SORRIBA",
        "name": "Sorriba",
        "line": "Regional R-4 Bilbao - Mataporquera - León"
      },
      "geometry": {
        "type": "Point",
        "coordinates": [
          -5.12748,
          42.78615
        ]
      }
    },
    {
      "type": "Feature",
      "properties": {
        "id": "EST-CISTIERNA",
        "name": "Cistierna",
        "line": "Regional R-4 Bilbao - Mataporquera - León"
      },
      "geometry": {
        "type": "Point",
        "coordinates": [
          -5.13091,
          42.80318
        ]
      }
    },
    {
      "type": "Feature",
      "properties": {
        "id": "EST-LAERCINA",
        "name": "La Ercina",
        "line": "Regional R-4 Bilbao - Mataporquera - León"
      },
      "geometry": {
        "type": "Point",
        "coordinates": [
          -5.21402,
          42.80889
        ]
      }
    },
    {
      "type": "Feature",
      "properties": {
        "id": "EST-BONAR",
        "name": "Boñar",
        "line": "Regional R-4 Bilbao - Mataporquera - León"
      },
      "geometry": {
        "type": "Point",
        "coordinates": [
          -5.32871,
          42.86278
        ]
      }
    },
    {
      "type": "Feature",
      "properties": {
        "id": "EST-LAVECILLA",
        "name": "La Vecilla",
        "line": "Regional R-4 Bilbao - Mataporquera - León"
      },
      "geometry": {
        "type": "Point",
        "coordinates": [
          -5.41207,
          42.85511
        ]
      }
    },
    {
      "type": "Feature",
      "properties": {
        "id": "EST-MATALLANA",
        "name": "Matallana",
        "line": "Regional R-4 Bilbao - Mataporquera - León"
      },
      "geometry": {
        "type": "Point",
        "coordinates": [
          -5.52217,
          42.84114
        ]
      }
    },
    {
      "type": "Feature",
      "properties": {
        "id": "EST-SANFELIZ",
        "name": "San Feliz",
        "line": "Regional R-4 Bilbao - Mataporquera - León"
      },
      "geometry": {
        "type": "Point",
        "coordinates": [
          -5.53796,
          42.68227
        ]
      }
    },
    {
      "type": "Feature",
      "properties": {
        "id": "EST-ASUNCIONUNIVERSIDAD",
        "name": "Asunción-Universidad",
        "line": "Regional R-4 Bilbao - Mataporquera - León"
      },
      "geometry": {
        "type": "Point",
        "coordinates": [
          -4.48415,
          41.15566
        ]
      }
    },
    {
      "type": "Feature",
      "properties": {
        "id": "EST-LEON",
        "name": "León",
        "line": "Regional R-4 Bilbao - Mataporquera - León"
      },
      "geometry": {
        "type": "Point",
        "coordinates": [
          -6.52214,
          42.4055
        ]
      }
    }
  ]
}