{
  "type": "FeatureCollection",
  "features": [
    {
      "type": "Feature",
      "properties": {
        "id": "36",
        "name": "Avant Madrid - Puertollano",
        "line_type": "Media Distancia AV",
        "operator": "Renfe"
      },
      "geometry": {
        "type": "LineString",
        "coordinates": [
          [
            -3.6886,
            40.40697
          ],
          [
            -3.91314,
            38.98487
          ],
          [
            -4.11194,
            38.69129
          ]
        ]
      }
    },
    {
      "type": "Feature",
      "properties": {
        "id": "EST-MADRIDPUERTADEATOCHA",
        "name": "Madrid-Puerta de Atocha",
        "line": "Avant Madrid - Puertollano"
      },
      "geometry": {
        "type": "Point",
        "coordinates": [
          -3.6886,
          40.40697
        ]
      }
    },
    {
      "type": "Feature",
      "properties": {
        "id": "EST-CIUDADREAL",
        "name": "Ciudad Real",
        "line": "Avant Madrid - Puertollano"
      },
      "geometry": {
        "type": "Point",
        "coordinates": [
          -3.91314,
          38.98487
        ]
      }
    },
    {
      "type": "Feature",
      "properties": {
        "id": "EST-PUERTOLLANO",
        "name": "Puertollano",
        "line": "Avant Madrid - Puertollano"
      },
      "geometry": {
        "type": "Point",
        "coordinates": [
          -4.11194,
          38.69129
        ]
      }
    }
  ]
}