{
  "type": "FeatureCollection",
  "features": [
    {
      "type": "Feature",
      "properties": {
        "id": "372",
        "name": "35c/R12 Hospitalet - Manresa - Lérida",
        "line_type": "Media Distancia",
        "operator": "Renfe"
      },
      "geometry": {
        "type": "LineString",
        "coordinates": [
          [
            2.10094,
            41.36424
          ],
          [
            2.13996,
            41.37901
          ],
          [
            -3.71787,
            40.38536
          ],
          [
            2.16538,
            41.39254
          ],
          [
            2.18702,
            41.42262
          ],
          [
            -6.19402,
            36.47588
          ],
          [
            -1.13346,
            37.97658
          ],
          [
            1.82663,
            41.72026
          ],
          [
            2.77409,
            39.65317
          ],
          [
            2.14762,
            41.49263
          ],
          [
            2.11825,
            41.51357
          ],
          [
            -6.20688,
            36.46792
          ],
          [
            -6.19402,
            36.47588
          ],
          [
            2.08991,
            41.57123
          ],
          [
            -5.65292,
            43.2891
          ],
          [
            1.82663,
            41.72026
          ],
          [
            1.69858,
            41.73236
          ],
          [
            -4.23375,
            42.78527
          ],
          [
            -4.27108,
            41.0746
          ],
          [
            1.51519,
            41.73015
          ],
          [
            -6.19402,
            36.47588
          ],
          [
            -6.19402,
            36.47588
          ],
          [
            1.27472,
            41.6737
          ],
          [
            1.13883,
            41.6503
          ],
          [
            1.07898,
            41.6464
          ],
          [
            1.01297,
            41.6326
          ],
          [
            0.96797,
            41.63738
          ],
          [
            0.93086,
            41.63592
          ],
          [
            0.7816,
            41.63175
          ],
          [
            0.651,
            41.6237
          ]
        ]
      }
    },
    {
      "type": "Feature",
      "properties": {
        "id": "EST-LHOSPITALETDELLOBREGAT",
        "name": "L'Hospitalet de Llobregat",
        "line": "35c/R12 Hospitalet - Manresa - Lérida"
      },
      "geometry": {
        "type": "Point",
        "coordinates": [
          2.10094,
          41.36424
        ]
      }
    },
    {
      "type": "Feature",
      "properties": {
        "id": "EST-BARCELONASANTS",
        "name": "Barcelona-Sants",
        "line": "35c/R12 Hospitalet - Manresa - Lérida"
      },
      "geometry": {
        "type": "Point",
        "coordinates": [
          2.13996,
          41.37901
        ]
      }
    },
    {
      "type": "Feature",
      "properties": {
        "id": "EST-PLAZAELIPTICA",
        "name": "Plaza Elíptica",
        "line": "35c/R12 Hospitalet - Manresa - Lérida"
      },
      "geometry": {
        "type": "Point",
        "coordinates": [
          -3.71787,
          40.38536
        ]
      }
    },
    {
      "type": "Feature",
      "properties": {
        "id": "EST-BARCELONAPASSEIGDEGRACIA",
        "name": "Barcelona-Passeig de Gràcia",
        "line": "35c/R12 Hospitalet - Manresa - Lérida"
      },
      "geometry": {
        "type": "Point",
        "coordinates": [
          2.16538,
          41.39254
        ]
      }
    },
    {
      "type": "Feature",
      "properties": {
        "id": "EST-SAGRERA",
        "name": "Sagrera",
        "line": "35c/R12 Hospitalet - Manresa - Lérida"
      },
      "geometry": {
        "type": "Point",
        "coordinates": [
          2.18702,
          41.42262
        ]
      }
    },
    {
      "type": "Feature",
      "properties": {
        "id": "EST-SANFERNANDOCENTRO",
        "name": "San Fernando-Centro",
        "line": "35c/R12 Hospitalet - Manresa - Lérida"
      },
      "geometry": {
        "type": "Point",
        "coordinates": [
          -6.19402,
          36.47588
        ]
      }
    },
    {
      "type": "Feature",
      "properties": {
        "id": "EST-MURCIADELCARMEN",
        "name": "Murcia del Carmen",
        "line": "35c/R12 Hospitalet - Manresa - Lérida"
      },
      "geometry": {
        "type": "Point",
        "coordinates": [
          -1.13346,
          37.97658
        ]
      }
    },
    {
      "type": "Feature",
      "properties": {
        "id": "EST-MANRESA",
        "name": "Manresa",
        "line": "35c/R12 Hospitalet - Manresa - Lérida"
      },
      "geometry": {
        "type": "Point",
        "coordinates": [
          1.82663,
          41.72026
        ]
      }
    },
    {
      "type": "Feature",
      "properties": {
        "id": "EST-SANTAMARIA",
        "name": "Santa Maria",
        "line": "35c/R12 Hospitalet - Manresa - Lérida"
      },
      "geometry": {
        "type": "Point",
        "coordinates": [
          2.77409,
          39.65317
        ]
      }
    },
    {
      "type": "Feature",
      "properties": {
        "id": "EST-CERDANYOLADELVALLES",
        "name": "Cerdanyola del Vallès",
        "line": "35c/R12 Hospitalet - Manresa - Lérida"
      },
      "geometry": {
        "type": "Point",
        "coordinates": [
          2.14762,
          41.49263
        ]
      }
    },
    {
      "type": "Feature",
      "properties": {
        "id": "EST-BARBERADELVALLES",
        "name": "Barberà del Vallès",
        "line": "35c/R12 Hospitalet - Manresa - Lérida"
      },
      "geometry": {
        "type": "Point",
        "coordinates": [
          2.11825,
          41.51357
        ]
      }
    },
    {
      "type": "Feature",
      "properties": {
        "id": "EST-SANFERNANDOBAHIASUR",
        "name": "San Fernando-Bahía Sur",
        "line": "35c/R12 Hospitalet - Manresa - Lérida"
      },
      "geometry": {
        "type": "Point",
        "coordinates": [
          -6.20688,
          36.46792
        ]
      }
    },
    {
      "type": "Feature",
      "properties": {
        "id": "EST-SANFERNANDOCENTRO",
        "name": "San Fernando-Centro",
        "line": "35c/R12 Hospitalet - Manresa - Lérida"
      },
      "geometry": {
        "type": "Point",
        "coordinates": [
          -6.19402,
          36.47588
        ]
      }
    },
    {
      "type": "Feature",
      "properties": {
        "id": "EST-SABADELLPARCDELNORD",
        "name": "Sabadell Parc del Nord",
        "line": "35c/R12 Hospitalet - Manresa - Lérida"
      },
      "geometry": {
        "type": "Point",
        "coordinates": [
          2.08991,
          41.57123
        ]
      }
    },
    {
      "type": "Feature",
      "properties": {
        "id": "EST-SANVICENTE",
        "name": "San Vicente",
        "line": "35c/R12 Hospitalet - Manresa - Lérida"
      },
      "geometry": {
        "type": "Point",
        "coordinates": [
          -5.65292,
          43.2891
        ]
      }
    },
    {
      "type": "Feature",
      "properties": {
        "id": "EST-MANRESA",
        "name": "Manresa",
        "line": "35c/R12 Hospitalet - Manresa - Lérida"
      },
      "geometry": {
        "type": "Point",
        "coordinates": [
          1.82663,
          41.72026
        ]
      }
    },
    {
      "type": "Feature",
      "properties": {
        "id": "EST-RAJADELL",
        "name": "Rajadell",
        "line": "35c/R12 Hospitalet - Manresa - Lérida"
      },
      "geometry": {
        "type": "Point",
        "coordinates": [
          1.69858,
          41.73236
        ]
      }
    },
    {
      "type": "Feature",
      "properties": {
        "id": "EST-AGUILARDECAMPOO",
        "name": "Aguilar de Campoo",
        "line": "35c/R12 Hospitalet - Manresa - Lérida"
      },
      "geometry": {
        "type": "Point",
        "coordinates": [
          -4.23375,
          42.78527
        ]
      }
    },
    {
      "type": "Feature",
      "properties": {
        "id": "EST-SANPEDRO",
        "name": "San Pedro",
        "line": "35c/R12 Hospitalet - Manresa - Lérida"
      },
      "geometry": {
        "type": "Point",
        "coordinates": [
          -4.27108,
          41.0746
        ]
      }
    },
    {
      "type": "Feature",
      "properties": {
        "id": "EST-CALAF",
        "name": "Calaf",
        "line": "35c/R12 Hospitalet - Manresa - Lérida"
      },
      "geometry": {
        "type": "Point",
        "coordinates": [
          1.51519,
          41.73015
        ]
      }
    },
    {
      "type": "Feature",
      "properties": {
        "id": "EST-SANFERNANDOCENTRO",
        "name": "San Fernando-Centro",
        "line": "35c/R12 Hospitalet - Manresa - Lérida"
      },
      "geometry": {
        "type": "Point",
        "coordinates": [
          -6.19402,
          36.47588
        ]
      }
    },
    {
      "type": "Feature",
      "properties": {
        "id": "EST-SANFERNANDOCENTRO",
        "name": "San Fernando-Centro",
        "line": "35c/R12 Hospitalet - Manresa - Lérida"
      },
      "geometry": {
        "type": "Point",
        "coordinates": [
          -6.19402,
          36.47588
        ]
      }
    },
    {
      "type": "Feature",
      "properties": {
        "id": "EST-CERVERA",
        "name": "Cervera",
        "line": "35c/R12 Hospitalet - Manresa - Lérida"
      },
      "geometry": {
        "type": "Point",
        "coordinates": [
          1.27472,
          41.6737
        ]
      }
    },
    {
      "type": "Feature",
      "properties": {
        "id": "EST-TARREGA",
        "name": "Tàrrega",
        "line": "35c/R12 Hospitalet - Manresa - Lérida"
      },
      "geometry": {
        "type": "Point",
        "coordinates": [
          1.13883,
          41.6503
        ]
      }
    },
    {
      "type": "Feature",
      "properties": {
        "id": "EST-ANGLESOLA",
        "name": "Anglesola",
        "line": "35c/R12 Hospitalet - Manresa - Lérida"
      },
      "geometry": {
        "type": "Point",
        "coordinates": [
          1.07898,
          41.6464
        ]
      }
    },
    {
      "type": "Feature",
      "properties": {
        "id": "EST-BELLPUIG",
        "name": "Bellpuig",
        "line": "35c/R12 Hospitalet - Manresa - Lérida"
      },
      "geometry": {
        "type": "Point",
        "coordinates": [
          1.01297,
          41.6326
        ]
      }
    },
    {
      "type": "Feature",
      "properties": {
        "id": "EST-CASTELLNOUDESEANA",
        "name": "Castellnou de Seana",
        "line": "35c/R12 Hospitalet - Manresa - Lérida"
      },
      "geometry": {
        "type": "Point",
        "coordinates": [
          0.96797,
          41.63738
        ]
      }
    },
    {
      "type": "Feature",
      "properties": {
        "id": "EST-GOLMES",
        "name": "Golmés",
        "line": "35c/R12 Hospitalet - Manresa - Lérida"
      },
      "geometry": {
        "type": "Point",
        "coordinates": [
          0.93086,
          41.63592
        ]
      }
    },
    {
      "type": "Feature",
      "properties": {
        "id": "EST-BELLLLOCDURGELL",
        "name": "Bell-lloc d'Urgell",
        "line": "35c/R12 Hospitalet - Manresa - Lérida"
      },
      "geometry": {
        "type": "Point",
        "coordinates": [
          0.7816,
          41.63175
        ]
      }
    },
    {
      "type": "Feature",
      "properties": {
        "id": "EST-LERIDAPIRINEOS",
        "name": "Lérida-Pirineos",
        "line": "35c/R12 Hospitalet - Manresa - Lérida"
      },
      "geometry": {
        "type": "Point",
        "coordinates": [
          0.651,
          41.6237
        ]
      }
    }
  ]
}