{
  "type": "FeatureCollection",
  "features": [
    {
      "type": "Feature",
      "properties": {
        "id": "376",
        "name": "Regional Exprés 46 Valencia - Albacete - Alcázar",
        "line_type": "Regional Exprés",
        "operator": "Renfe"
      },
      "geometry": {
        "type": "LineString",
        "coordinates": [
          [
            -5.64784,
            43.28681
          ],
          [
            -0.41494,
            39.36175
          ],
          [
            -0.52468,
            38.99225
          ],
          [
            -0.75309,
            38.87813
          ],
          [
            -0.95385,
            38.76545
          ],
          [
            -1.10557,
            38.86765
          ],
          [
            -3.98261,
            42.98795
          ],
          [
            2.18627,
            41.395
          ],
          [
            -2.16292,
            39.19932
          ],
          [
            -2.59851,
            39.26072
          ],
          [
            -2.77539,
            39.27854
          ],
          [
            -4.7272,
            41.64334
          ],
          [
            -3.20537,
            39.39566
          ]
        ]
      }
    },
    {
      "type": "Feature",
      "properties": {
        "id": "EST-CIANO",
        "name": "Ciaño",
        "line": "Regional Exprés 46 Valencia - Albacete - Alcázar"
      },
      "geometry": {
        "type": "Point",
        "coordinates": [
          -5.64784,
          43.28681
        ]
      }
    },
    {
      "type": "Feature",
      "properties": {
        "id": "EST-SILLA",
        "name": "Silla",
        "line": "Regional Exprés 46 Valencia - Albacete - Alcázar"
      },
      "geometry": {
        "type": "Point",
        "coordinates": [
          -0.41494,
          39.36175
        ]
      }
    },
    {
      "type": "Feature",
      "properties": {
        "id": "EST-XATIVA",
        "name": "Xàtiva",
        "line": "Regional Exprés 46 Valencia - Albacete - Alcázar"
      },
      "geometry": {
        "type": "Point",
        "coordinates": [
          -0.52468,
          38.99225
        ]
      }
    },
    {
      "type": "Feature",
      "properties": {
        "id": "EST-MOIXENT",
        "name": "Moixent",
        "line": "Regional Exprés 46 Valencia - Albacete - Alcázar"
      },
      "geometry": {
        "type": "Point",
        "coordinates": [
          -0.75309,
          38.87813
        ]
      }
    },
    {
      "type": "Feature",
      "properties": {
        "id": "EST-LAENCINA",
        "name": "La Encina",
        "line": "Regional Exprés 46 Valencia - Albacete - Alcázar"
      },
      "geometry": {
        "type": "Point",
        "coordinates": [
          -0.95385,
          38.76545
        ]
      }
    },
    {
      "type": "Feature",
      "properties": {
        "id": "EST-ALMANSA",
        "name": "Almansa",
        "line": "Regional Exprés 46 Valencia - Albacete - Alcázar"
      },
      "geometry": {
        "type": "Point",
        "coordinates": [
          -1.10557,
          38.86765
        ]
      }
    },
    {
      "type": "Feature",
      "properties": {
        "id": "EST-ALBACETELOSLLANOS",
        "name": "Albacete-Los Llanos",
        "line": "Regional Exprés 46 Valencia - Albacete - Alcázar"
      },
      "geometry": {
        "type": "Point",
        "coordinates": [
          -3.98261,
          42.98795
        ]
      }
    },
    {
      "type": "Feature",
      "properties": {
        "id": "EST-CCLAMARINA",
        "name": "CC La Marina",
        "line": "Regional Exprés 46 Valencia - Albacete - Alcázar"
      },
      "geometry": {
        "type": "Point",
        "coordinates": [
          2.18627,
          41.395
        ]
      }
    },
    {
      "type": "Feature",
      "properties": {
        "id": "EST-LARODA",
        "name": "La Roda",
        "line": "Regional Exprés 46 Valencia - Albacete - Alcázar"
      },
      "geometry": {
        "type": "Point",
        "coordinates": [
          -2.16292,
          39.19932
        ]
      }
    },
    {
      "type": "Feature",
      "properties": {
        "id": "EST-VILLARROBLEDO",
        "name": "Villarrobledo",
        "line": "Regional Exprés 46 Valencia - Albacete - Alcázar"
      },
      "geometry": {
        "type": "Point",
        "coordinates": [
          -2.59851,
          39.26072
        ]
      }
    },
    {
      "type": "Feature",
      "properties": {
        "id": "EST-SOCUELLAMOS",
        "name": "Socuéllamos",
        "line": "Regional Exprés 46 Valencia - Albacete - Alcázar"
      },
      "geometry": {
        "type": "Point",
        "coordinates": [
          -2.77539,
          39.27854
        ]
      }
    },
    {
      "type": "Feature",
      "properties": {
        "id": "EST-VALLADOLIDCAMPOGRANDE",
        "name": "Valladolid-Campo Grande",
        "line": "Regional Exprés 46 Valencia - Albacete - Alcázar"
      },
      "geometry": {
        "type": "Point",
        "coordinates": [
          -4.7272,
          41.64334
        ]
      }
    },
    {
      "type": "Feature",
      "properties": {
        "id": "EST-ALCAZARDESANJUAN",
        "name": "Alcázar de San Juan",
        "line": "Regional Exprés 46 Valencia - Albacete - Alcázar"
      },
      "geometry": {
        "type": "Point",
        "coordinates": [
          -3.20537,
          39.39566
        ]
      }
    }
  ]
}