{
  "type": "FeatureCollection",
  "features": [
    {
      "type": "Feature",
      "properties": {
        "id": "381",
        "name": "Regional Exprés 52 Madrid - Cáceres - Mérida - Badajoz",
        "line_type": "Regional Exprés",
        "operator": "Renfe"
      },
      "geometry": {
        "type": "LineString",
        "coordinates": [
          [
            -3.6886,
            40.40697
          ],
          [
            -3.77236,
            40.32809
          ],
          [
            -3.79828,
            40.28229
          ],
          [
            -3.82844,
            40.25563
          ],
          [
            -3.84226,
            40.12085
          ],
          [
            -4.28316,
            39.97881
          ],
          [
            -4.48756,
            39.94935
          ],
          [
            -4.64656,
            39.96077
          ],
          [
            -4.82654,
            39.97063
          ],
          [
            -5.18621,
            39.92185
          ],
          [
            -5.54565,
            39.89496
          ],
          [
            -5.67764,
            39.89199
          ],
          [
            -6.10125,
            39.93762
          ],
          [
            -6.09963,
            40.02226
          ],
          [
            -6.22895,
            39.86621
          ],
          [
            -6.32569,
            39.81206
          ],
          [
            -6.37452,
            39.78881
          ],
          [
            -6.38572,
            39.46118
          ],
          [
            -6.53447,
            39.46807
          ],
          [
            -7.11698,
            39.38155
          ],
          [
            -6.34305,
            38.92159
          ],
          [
            -6.40788,
            38.93625
          ],
          [
            -6.47721,
            38.91537
          ],
          [
            -6.59867,
            38.91358
          ],
          [
            -6.59867,
            38.91358
          ],
          [
            -6.69002,
            38.92177
          ],
          [
            -6.98162,
            38.89073
          ]
        ]
      }
    },
    {
      "type": "Feature",
      "properties": {
        "id": "EST-MADRIDATOCHACERCANIAS",
        "name": "Madrid-Atocha Cercanías",
        "line": "Regional Exprés 52 Madrid - Cáceres - Mérida - Badajoz"
      },
      "geometry": {
        "type": "Point",
        "coordinates": [
          -3.6886,
          40.40697
        ]
      }
    },
    {
      "type": "Feature",
      "properties": {
        "id": "EST-LEGANES",
        "name": "Leganés",
        "line": "Regional Exprés 52 Madrid - Cáceres - Mérida - Badajoz"
      },
      "geometry": {
        "type": "Point",
        "coordinates": [
          -3.77236,
          40.32809
        ]
      }
    },
    {
      "type": "Feature",
      "properties": {
        "id": "EST-FUENLABRADA",
        "name": "Fuenlabrada",
        "line": "Regional Exprés 52 Madrid - Cáceres - Mérida - Badajoz"
      },
      "geometry": {
        "type": "Point",
        "coordinates": [
          -3.79828,
          40.28229
        ]
      }
    },
    {
      "type": "Feature",
      "properties": {
        "id": "EST-HUMANES",
        "name": "Humanes",
        "line": "Regional Exprés 52 Madrid - Cáceres - Mérida - Badajoz"
      },
      "geometry": {
        "type": "Point",
        "coordinates": [
          -3.82844,
          40.25563
        ]
      }
    },
    {
      "type": "Feature",
      "properties": {
        "id": "EST-ILLESCAS",
        "name": "Illescas",
        "line": "Regional Exprés 52 Madrid - Cáceres - Mérida - Badajoz"
      },
      "geometry": {
        "type": "Point",
        "coordinates": [
          -3.84226,
          40.12085
        ]
      }
    },
    {
      "type": "Feature",
      "properties": {
        "id": "EST-TORRIJOS",
        "name": "Torrijos",
        "line": "Regional Exprés 52 Madrid - Cáceres - Mérida - Badajoz"
      },
      "geometry": {
        "type": "Point",
        "coordinates": [
          -4.28316,
          39.97881
        ]
      }
    },
    {
      "type": "Feature",
      "properties": {
        "id": "EST-ERUSTES",
        "name": "Erustes",
        "line": "Regional Exprés 52 Madrid - Cáceres - Mérida - Badajoz"
      },
      "geometry": {
        "type": "Point",
        "coordinates": [
          -4.48756,
          39.94935
        ]
      }
    },
    {
      "type": "Feature",
      "properties": {
        "id": "EST-MONTEARAGON",
        "name": "Montearagón",
        "line": "Regional Exprés 52 Madrid - Cáceres - Mérida - Badajoz"
      },
      "geometry": {
        "type": "Point",
        "coordinates": [
          -4.64656,
          39.96077
        ]
      }
    },
    {
      "type": "Feature",
      "properties": {
        "id": "EST-TALAVERADELAREINA",
        "name": "Talavera de la Reina",
        "line": "Regional Exprés 52 Madrid - Cáceres - Mérida - Badajoz"
      },
      "geometry": {
        "type": "Point",
        "coordinates": [
          -4.82654,
          39.97063
        ]
      }
    },
    {
      "type": "Feature",
      "properties": {
        "id": "EST-OROPESADETOLEDO",
        "name": "Oropesa de Toledo",
        "line": "Regional Exprés 52 Madrid - Cáceres - Mérida - Badajoz"
      },
      "geometry": {
        "type": "Point",
        "coordinates": [
          -5.18621,
          39.92185
        ]
      }
    },
    {
      "type": "Feature",
      "properties": {
        "id": "EST-NAVALMORALDELAMATA",
        "name": "Navalmoral de la Mata",
        "line": "Regional Exprés 52 Madrid - Cáceres - Mérida - Badajoz"
      },
      "geometry": {
        "type": "Point",
        "coordinates": [
          -5.54565,
          39.89496
        ]
      }
    },
    {
      "type": "Feature",
      "properties": {
        "id": "EST-CASATEJADA",
        "name": "Casatejada",
        "line": "Regional Exprés 52 Madrid - Cáceres - Mérida - Badajoz"
      },
      "geometry": {
        "type": "Point",
        "coordinates": [
          -5.67764,
          39.89199
        ]
      }
    },
    {
      "type": "Feature",
      "properties": {
        "id": "EST-MONFRAGUE",
        "name": "Monfragüe",
        "line": "Regional Exprés 52 Madrid - Cáceres - Mérida - Badajoz"
      },
      "geometry": {
        "type": "Point",
        "coordinates": [
          -6.10125,
          39.93762
        ]
      }
    },
    {
      "type": "Feature",
      "properties": {
        "id": "EST-PLASENCIA",
        "name": "Plasencia",
        "line": "Regional Exprés 52 Madrid - Cáceres - Mérida - Badajoz"
      },
      "geometry": {
        "type": "Point",
        "coordinates": [
          -6.09963,
          40.02226
        ]
      }
    },
    {
      "type": "Feature",
      "properties": {
        "id": "EST-MIRABEL",
        "name": "Mirabel",
        "line": "Regional Exprés 52 Madrid - Cáceres - Mérida - Badajoz"
      },
      "geometry": {
        "type": "Point",
        "coordinates": [
          -6.22895,
          39.86621
        ]
      }
    },
    {
      "type": "Feature",
      "properties": {
        "id": "EST-CASASDEMILLAN",
        "name": "Casas de Millán",
        "line": "Regional Exprés 52 Madrid - Cáceres - Mérida - Badajoz"
      },
      "geometry": {
        "type": "Point",
        "coordinates": [
          -6.32569,
          39.81206
        ]
      }
    },
    {
      "type": "Feature",
      "properties": {
        "id": "EST-CANAVERAL",
        "name": "Cañaveral",
        "line": "Regional Exprés 52 Madrid - Cáceres - Mérida - Badajoz"
      },
      "geometry": {
        "type": "Point",
        "coordinates": [
          -6.37452,
          39.78881
        ]
      }
    },
    {
      "type": "Feature",
      "properties": {
        "id": "EST-CACERES",
        "name": "Cáceres",
        "line": "Regional Exprés 52 Madrid - Cáceres - Mérida - Badajoz"
      },
      "geometry": {
        "type": "Point",
        "coordinates": [
          -6.38572,
          39.46118
        ]
      }
    },
    {
      "type": "Feature",
      "properties": {
        "id": "EST-ARROYOMALPARTIDA",
        "name": "Arroyo-Malpartida",
        "line": "Regional Exprés 52 Madrid - Cáceres - Mérida - Badajoz"
      },
      "geometry": {
        "type": "Point",
        "coordinates": [
          -6.53447,
          39.46807
        ]
      }
    },
    {
      "type": "Feature",
      "properties": {
        "id": "EST-SANVICENTEDEALCANTARA",
        "name": "San Vicente de Alcántara",
        "line": "Regional Exprés 52 Madrid - Cáceres - Mérida - Badajoz"
      },
      "geometry": {
        "type": "Point",
        "coordinates": [
          -7.11698,
          39.38155
        ]
      }
    },
    {
      "type": "Feature",
      "properties": {
        "id": "EST-MERIDA",
        "name": "Mérida",
        "line": "Regional Exprés 52 Madrid - Cáceres - Mérida - Badajoz"
      },
      "geometry": {
        "type": "Point",
        "coordinates": [
          -6.34305,
          38.92159
        ]
      }
    },
    {
      "type": "Feature",
      "properties": {
        "id": "EST-ALJUCEN",
        "name": "Aljucén",
        "line": "Regional Exprés 52 Madrid - Cáceres - Mérida - Badajoz"
      },
      "geometry": {
        "type": "Point",
        "coordinates": [
          -6.40788,
          38.93625
        ]
      }
    },
    {
      "type": "Feature",
      "properties": {
        "id": "EST-GARROVILLALASVEGAS",
        "name": "Garrovilla-Las Vegas",
        "line": "Regional Exprés 52 Madrid - Cáceres - Mérida - Badajoz"
      },
      "geometry": {
        "type": "Point",
        "coordinates": [
          -6.47721,
          38.91537
        ]
      }
    },
    {
      "type": "Feature",
      "properties": {
        "id": "EST-MONTIJO",
        "name": "Montijo",
        "line": "Regional Exprés 52 Madrid - Cáceres - Mérida - Badajoz"
      },
      "geometry": {
        "type": "Point",
        "coordinates": [
          -6.59867,
          38.91358
        ]
      }
    },
    {
      "type": "Feature",
      "properties": {
        "id": "EST-MONTIJOELMOLINO",
        "name": "Montijo-El Molino",
        "line": "Regional Exprés 52 Madrid - Cáceres - Mérida - Badajoz"
      },
      "geometry": {
        "type": "Point",
        "coordinates": [
          -6.59867,
          38.91358
        ]
      }
    },
    {
      "type": "Feature",
      "properties": {
        "id": "EST-GUADIANA",
        "name": "Guadiana",
        "line": "Regional Exprés 52 Madrid - Cáceres - Mérida - Badajoz"
      },
      "geometry": {
        "type": "Point",
        "coordinates": [
          -6.69002,
          38.92177
        ]
      }
    },
    {
      "type": "Feature",
      "properties": {
        "id": "EST-BADAJOZ",
        "name": "Badajoz",
        "line": "Regional Exprés 52 Madrid - Cáceres - Mérida - Badajoz"
      },
      "geometry": {
        "type": "Point",
        "coordinates": [
          -6.98162,
          38.89073
        ]
      }
    }
  ]
}