{
  "type": "FeatureCollection",
  "features": [
    {
      "type": "Feature",
      "properties": {
        "id": "382",
        "name": "Regional 53 Madrid - Segovia (se requiere transbordo en Cercedilla)",
        "line_type": "Regional",
        "operator": "Renfe"
      },
      "geometry": {
        "type": "LineString",
        "coordinates": [
          [
            -3.6886,
            40.40697
          ],
          [
            -3.6917,
            40.4225
          ],
          [
            -3.6917,
            40.44584
          ],
          [
            -3.68271,
            40.47395
          ],
          [
            -4.00815,
            40.62638
          ],
          [
            -4.06603,
            40.73766
          ],
          [
            -4.12539,
            40.70563
          ],
          [
            -4.15774,
            40.71689
          ],
          [
            -4.1814,
            40.71494
          ],
          [
            -4.18952,
            40.74084
          ],
          [
            -3.6346,
            40.54675
          ],
          [
            -5.38997,
            42.85959
          ],
          [
            -1.13346,
            37.97658
          ],
          [
            -2.88744,
            43.29089
          ],
          [
            -4.11362,
            40.93404
          ]
        ]
      }
    },
    {
      "type": "Feature",
      "properties": {
        "id": "EST-MADRIDATOCHACERCANIAS",
        "name": "Madrid-Atocha Cercanías",
        "line": "Regional 53 Madrid - Segovia (se requiere transbordo en Cercedilla)"
      },
      "geometry": {
        "type": "Point",
        "coordinates": [
          -3.6886,
          40.40697
        ]
      }
    },
    {
      "type": "Feature",
      "properties": {
        "id": "EST-RECOLETOS",
        "name": "Recoletos",
        "line": "Regional 53 Madrid - Segovia (se requiere transbordo en Cercedilla)"
      },
      "geometry": {
        "type": "Point",
        "coordinates": [
          -3.6917,
          40.4225
        ]
      }
    },
    {
      "type": "Feature",
      "properties": {
        "id": "EST-NUEVOSMINISTERIOS",
        "name": "Nuevos Ministerios",
        "line": "Regional 53 Madrid - Segovia (se requiere transbordo en Cercedilla)"
      },
      "geometry": {
        "type": "Point",
        "coordinates": [
          -3.6917,
          40.44584
        ]
      }
    },
    {
      "type": "Feature",
      "properties": {
        "id": "EST-MADRIDCHAMARTIN",
        "name": "Madrid-Chamartín",
        "line": "Regional 53 Madrid - Segovia (se requiere transbordo en Cercedilla)"
      },
      "geometry": {
        "type": "Point",
        "coordinates": [
          -3.68271,
          40.47395
        ]
      }
    },
    {
      "type": "Feature",
      "properties": {
        "id": "EST-VILLALBADEGUADARRAMA",
        "name": "Villalba de Guadarrama",
        "line": "Regional 53 Madrid - Segovia (se requiere transbordo en Cercedilla)"
      },
      "geometry": {
        "type": "Point",
        "coordinates": [
          -4.00815,
          40.62638
        ]
      }
    },
    {
      "type": "Feature",
      "properties": {
        "id": "EST-CERCEDILLA",
        "name": "Cercedilla",
        "line": "Regional 53 Madrid - Segovia (se requiere transbordo en Cercedilla)"
      },
      "geometry": {
        "type": "Point",
        "coordinates": [
          -4.06603,
          40.73766
        ]
      }
    },
    {
      "type": "Feature",
      "properties": {
        "id": "EST-TABLADA",
        "name": "Tablada",
        "line": "Regional 53 Madrid - Segovia (se requiere transbordo en Cercedilla)"
      },
      "geometry": {
        "type": "Point",
        "coordinates": [
          -4.12539,
          40.70563
        ]
      }
    },
    {
      "type": "Feature",
      "properties": {
        "id": "EST-GUDILLOS",
        "name": "Gudillos",
        "line": "Regional 53 Madrid - Segovia (se requiere transbordo en Cercedilla)"
      },
      "geometry": {
        "type": "Point",
        "coordinates": [
          -4.15774,
          40.71689
        ]
      }
    },
    {
      "type": "Feature",
      "properties": {
        "id": "EST-SANRAFAEL",
        "name": "San Rafael",
        "line": "Regional 53 Madrid - Segovia (se requiere transbordo en Cercedilla)"
      },
      "geometry": {
        "type": "Point",
        "coordinates": [
          -4.1814,
          40.71494
        ]
      }
    },
    {
      "type": "Feature",
      "properties": {
        "id": "EST-ELESPINAR",
        "name": "El Espinar",
        "line": "Regional 53 Madrid - Segovia (se requiere transbordo en Cercedilla)"
      },
      "geometry": {
        "type": "Point",
        "coordinates": [
          -4.18952,
          40.74084
        ]
      }
    },
    {
      "type": "Feature",
      "properties": {
        "id": "EST-LOSANGELESDESANRAFAEL",
        "name": "Los Ángeles de San Rafael",
        "line": "Regional 53 Madrid - Segovia (se requiere transbordo en Cercedilla)"
      },
      "geometry": {
        "type": "Point",
        "coordinates": [
          -3.6346,
          40.54675
        ]
      }
    },
    {
      "type": "Feature",
      "properties": {
        "id": "EST-OTERODEHERREROS",
        "name": "Otero de Herreros",
        "line": "Regional 53 Madrid - Segovia (se requiere transbordo en Cercedilla)"
      },
      "geometry": {
        "type": "Point",
        "coordinates": [
          -5.38997,
          42.85959
        ]
      }
    },
    {
      "type": "Feature",
      "properties": {
        "id": "EST-MURCIADELCARMEN",
        "name": "Murcia del Carmen",
        "line": "Regional 53 Madrid - Segovia (se requiere transbordo en Cercedilla)"
      },
      "geometry": {
        "type": "Point",
        "coordinates": [
          -1.13346,
          37.97658
        ]
      }
    },
    {
      "type": "Feature",
      "properties": {
        "id": "EST-DERIO",
        "name": "Derio",
        "line": "Regional 53 Madrid - Segovia (se requiere transbordo en Cercedilla)"
      },
      "geometry": {
        "type": "Point",
        "coordinates": [
          -2.88744,
          43.29089
        ]
      }
    },
    {
      "type": "Feature",
      "properties": {
        "id": "EST-SEGOVIA",
        "name": "Segovia",
        "line": "Regional 53 Madrid - Segovia (se requiere transbordo en Cercedilla)"
      },
      "geometry": {
        "type": "Point",
        "coordinates": [
          -4.11362,
          40.93404
        ]
      }
    }
  ]
}