{
  "type": "FeatureCollection",
  "features": [
    {
      "type": "Feature",
      "properties": {
        "id": "384",
        "name": "Regional Exprés 55 Madrid - Arcos de Jalón - Zaragoza",
        "line_type": "Regional Exprés",
        "operator": "Renfe"
      },
      "geometry": {
        "type": "LineString",
        "coordinates": [
          [
            -3.68271,
            40.47395
          ],
          [
            -3.36619,
            40.48906
          ],
          [
            -3.18225,
            40.64408
          ],
          [
            -3.16307,
            40.74699
          ],
          [
            -3.13892,
            40.83117
          ],
          [
            -3.07316,
            40.90971
          ],
          [
            -3.01438,
            40.90586
          ],
          [
            -2.93585,
            40.93
          ],
          [
            -2.84328,
            40.95385
          ],
          [
            -2.78602,
            41.00489
          ],
          [
            -2.64622,
            41.07145
          ],
          [
            -2.49305,
            41.13631
          ],
          [
            -2.42117,
            41.16522
          ],
          [
            -2.27769,
            41.21565
          ],
          [
            -2.17796,
            41.26407
          ],
          [
            -2.10982,
            41.2987
          ],
          [
            -2.05996,
            41.30943
          ],
          [
            -1.95994,
            41.29604
          ],
          [
            -1.90429,
            41.29451
          ],
          [
            -1.85549,
            41.31717
          ],
          [
            -1.78529,
            41.32438
          ],
          [
            -1.70847,
            41.32219
          ],
          [
            -1.63842,
            41.34636
          ],
          [
            -1.59314,
            41.42132
          ],
          [
            -1.57006,
            41.43914
          ],
          [
            -1.57006,
            41.43914
          ],
          [
            -1.56625,
            41.47855
          ],
          [
            -1.54028,
            41.47718
          ],
          [
            -1.47818,
            41.47552
          ],
          [
            -1.40279,
            41.50128
          ],
          [
            -1.36081,
            41.5287
          ],
          [
            -1.32546,
            41.56835
          ],
          [
            -1.30117,
            41.60972
          ],
          [
            -1.28168,
            41.63922
          ],
          [
            -1.23436,
            41.68962
          ],
          [
            -1.16585,
            41.74526
          ],
          [
            -1.02049,
            41.72273
          ],
          [
            -0.99849,
            41.71092
          ],
          [
            -0.91139,
            41.65857
          ]
        ]
      }
    },
    {
      "type": "Feature",
      "properties": {
        "id": "EST-MADRIDCHAMARTIN",
        "name": "Madrid-Chamartín",
        "line": "Regional Exprés 55 Madrid - Arcos de Jalón - Zaragoza"
      },
      "geometry": {
        "type": "Point",
        "coordinates": [
          -3.68271,
          40.47395
        ]
      }
    },
    {
      "type": "Feature",
      "properties": {
        "id": "EST-ALCALADEHENARES",
        "name": "Alcalá de Henares",
        "line": "Regional Exprés 55 Madrid - Arcos de Jalón - Zaragoza"
      },
      "geometry": {
        "type": "Point",
        "coordinates": [
          -3.36619,
          40.48906
        ]
      }
    },
    {
      "type": "Feature",
      "properties": {
        "id": "EST-GUADALAJARA",
        "name": "Guadalajara",
        "line": "Regional Exprés 55 Madrid - Arcos de Jalón - Zaragoza"
      },
      "geometry": {
        "type": "Point",
        "coordinates": [
          -3.18225,
          40.64408
        ]
      }
    },
    {
      "type": "Feature",
      "properties": {
        "id": "EST-YUNQUERADEHENARES",
        "name": "Yunquera de Henares",
        "line": "Regional Exprés 55 Madrid - Arcos de Jalón - Zaragoza"
      },
      "geometry": {
        "type": "Point",
        "coordinates": [
          -3.16307,
          40.74699
        ]
      }
    },
    {
      "type": "Feature",
      "properties": {
        "id": "EST-HUMANESDEMOHERNANDO",
        "name": "Humanes de Mohernando",
        "line": "Regional Exprés 55 Madrid - Arcos de Jalón - Zaragoza"
      },
      "geometry": {
        "type": "Point",
        "coordinates": [
          -3.13892,
          40.83117
        ]
      }
    },
    {
      "type": "Feature",
      "properties": {
        "id": "EST-ESPINOSADEHENARES",
        "name": "Espinosa de Henares",
        "line": "Regional Exprés 55 Madrid - Arcos de Jalón - Zaragoza"
      },
      "geometry": {
        "type": "Point",
        "coordinates": [
          -3.07316,
          40.90971
        ]
      }
    },
    {
      "type": "Feature",
      "properties": {
        "id": "EST-CARRASCOSADEHENARES",
        "name": "Carrascosa de Henares",
        "line": "Regional Exprés 55 Madrid - Arcos de Jalón - Zaragoza"
      },
      "geometry": {
        "type": "Point",
        "coordinates": [
          -3.01438,
          40.90586
        ]
      }
    },
    {
      "type": "Feature",
      "properties": {
        "id": "EST-JADRAQUE",
        "name": "Jadraque",
        "line": "Regional Exprés 55 Madrid - Arcos de Jalón - Zaragoza"
      },
      "geometry": {
        "type": "Point",
        "coordinates": [
          -2.93585,
          40.93
        ]
      }
    },
    {
      "type": "Feature",
      "properties": {
        "id": "EST-MATILLAS",
        "name": "Matillas",
        "line": "Regional Exprés 55 Madrid - Arcos de Jalón - Zaragoza"
      },
      "geometry": {
        "type": "Point",
        "coordinates": [
          -2.84328,
          40.95385
        ]
      }
    },
    {
      "type": "Feature",
      "properties": {
        "id": "EST-BAIDES",
        "name": "Baides",
        "line": "Regional Exprés 55 Madrid - Arcos de Jalón - Zaragoza"
      },
      "geometry": {
        "type": "Point",
        "coordinates": [
          -2.78602,
          41.00489
        ]
      }
    },
    {
      "type": "Feature",
      "properties": {
        "id": "EST-SIGUENZA",
        "name": "Sigüenza",
        "line": "Regional Exprés 55 Madrid - Arcos de Jalón - Zaragoza"
      },
      "geometry": {
        "type": "Point",
        "coordinates": [
          -2.64622,
          41.07145
        ]
      }
    },
    {
      "type": "Feature",
      "properties": {
        "id": "EST-TORRALBA",
        "name": "Torralba",
        "line": "Regional Exprés 55 Madrid - Arcos de Jalón - Zaragoza"
      },
      "geometry": {
        "type": "Point",
        "coordinates": [
          -2.49305,
          41.13631
        ]
      }
    },
    {
      "type": "Feature",
      "properties": {
        "id": "EST-MEDINACELI",
        "name": "Medinaceli",
        "line": "Regional Exprés 55 Madrid - Arcos de Jalón - Zaragoza"
      },
      "geometry": {
        "type": "Point",
        "coordinates": [
          -2.42117,
          41.16522
        ]
      }
    },
    {
      "type": "Feature",
      "properties": {
        "id": "EST-ARCOSDEJALON",
        "name": "Arcos de Jalón",
        "line": "Regional Exprés 55 Madrid - Arcos de Jalón - Zaragoza"
      },
      "geometry": {
        "type": "Point",
        "coordinates": [
          -2.27769,
          41.21565
        ]
      }
    },
    {
      "type": "Feature",
      "properties": {
        "id": "EST-SANTAMARIADEHUERTA",
        "name": "Santa María de Huerta",
        "line": "Regional Exprés 55 Madrid - Arcos de Jalón - Zaragoza"
      },
      "geometry": {
        "type": "Point",
        "coordinates": [
          -2.17796,
          41.26407
        ]
      }
    },
    {
      "type": "Feature",
      "properties": {
        "id": "EST-MONREALDEARIZA",
        "name": "Monreal de Ariza",
        "line": "Regional Exprés 55 Madrid - Arcos de Jalón - Zaragoza"
      },
      "geometry": {
        "type": "Point",
        "coordinates": [
          -2.10982,
          41.2987
        ]
      }
    },
    {
      "type": "Feature",
      "properties": {
        "id": "EST-ARIZA",
        "name": "Ariza",
        "line": "Regional Exprés 55 Madrid - Arcos de Jalón - Zaragoza"
      },
      "geometry": {
        "type": "Point",
        "coordinates": [
          -2.05996,
          41.30943
        ]
      }
    },
    {
      "type": "Feature",
      "properties": {
        "id": "EST-CETINA",
        "name": "Cetina",
        "line": "Regional Exprés 55 Madrid - Arcos de Jalón - Zaragoza"
      },
      "geometry": {
        "type": "Point",
        "coordinates": [
          -1.95994,
          41.29604
        ]
      }
    },
    {
      "type": "Feature",
      "properties": {
        "id": "EST-ALHAMADEARAGON",
        "name": "Alhama de Aragón",
        "line": "Regional Exprés 55 Madrid - Arcos de Jalón - Zaragoza"
      },
      "geometry": {
        "type": "Point",
        "coordinates": [
          -1.90429,
          41.29451
        ]
      }
    },
    {
      "type": "Feature",
      "properties": {
        "id": "EST-BUBIERCA",
        "name": "Bubierca",
        "line": "Regional Exprés 55 Madrid - Arcos de Jalón - Zaragoza"
      },
      "geometry": {
        "type": "Point",
        "coordinates": [
          -1.85549,
          41.31717
        ]
      }
    },
    {
      "type": "Feature",
      "properties": {
        "id": "EST-ATECA",
        "name": "Ateca",
        "line": "Regional Exprés 55 Madrid - Arcos de Jalón - Zaragoza"
      },
      "geometry": {
        "type": "Point",
        "coordinates": [
          -1.78529,
          41.32438
        ]
      }
    },
    {
      "type": "Feature",
      "properties": {
        "id": "EST-TERRER",
        "name": "Terrer",
        "line": "Regional Exprés 55 Madrid - Arcos de Jalón - Zaragoza"
      },
      "geometry": {
        "type": "Point",
        "coordinates": [
          -1.70847,
          41.32219
        ]
      }
    },
    {
      "type": "Feature",
      "properties": {
        "id": "EST-CALATAYUD",
        "name": "Calatayud",
        "line": "Regional Exprés 55 Madrid - Arcos de Jalón - Zaragoza"
      },
      "geometry": {
        "type": "Point",
        "coordinates": [
          -1.63842,
          41.34636
        ]
      }
    },
    {
      "type": "Feature",
      "properties": {
        "id": "EST-EMBIDDEJALON",
        "name": "Embid de Jalón",
        "line": "Regional Exprés 55 Madrid - Arcos de Jalón - Zaragoza"
      },
      "geometry": {
        "type": "Point",
        "coordinates": [
          -1.59314,
          41.42132
        ]
      }
    },
    {
      "type": "Feature",
      "properties": {
        "id": "EST-PARACUELLOSSAVINAN",
        "name": "Paracuellos-Saviñán",
        "line": "Regional Exprés 55 Madrid - Arcos de Jalón - Zaragoza"
      },
      "geometry": {
        "type": "Point",
        "coordinates": [
          -1.57006,
          41.43914
        ]
      }
    },
    {
      "type": "Feature",
      "properties": {
        "id": "EST-PARACUELLOSSAVINAN",
        "name": "Paracuellos-Saviñán",
        "line": "Regional Exprés 55 Madrid - Arcos de Jalón - Zaragoza"
      },
      "geometry": {
        "type": "Point",
        "coordinates": [
          -1.57006,
          41.43914
        ]
      }
    },
    {
      "type": "Feature",
      "properties": {
        "id": "EST-MORES",
        "name": "Morés",
        "line": "Regional Exprés 55 Madrid - Arcos de Jalón - Zaragoza"
      },
      "geometry": {
        "type": "Point",
        "coordinates": [
          -1.56625,
          41.47855
        ]
      }
    },
    {
      "type": "Feature",
      "properties": {
        "id": "EST-PURROY",
        "name": "Purroy",
        "line": "Regional Exprés 55 Madrid - Arcos de Jalón - Zaragoza"
      },
      "geometry": {
        "type": "Point",
        "coordinates": [
          -1.54028,
          41.47718
        ]
      }
    },
    {
      "type": "Feature",
      "properties": {
        "id": "EST-MORATADEJALON",
        "name": "Morata de Jalón",
        "line": "Regional Exprés 55 Madrid - Arcos de Jalón - Zaragoza"
      },
      "geometry": {
        "type": "Point",
        "coordinates": [
          -1.47818,
          41.47552
        ]
      }
    },
    {
      "type": "Feature",
      "properties": {
        "id": "EST-RICLALAALMUNIA",
        "name": "Ricla-La Almunia",
        "line": "Regional Exprés 55 Madrid - Arcos de Jalón - Zaragoza"
      },
      "geometry": {
        "type": "Point",
        "coordinates": [
          -1.40279,
          41.50128
        ]
      }
    },
    {
      "type": "Feature",
      "properties": {
        "id": "EST-CALATORAO",
        "name": "Calatorao",
        "line": "Regional Exprés 55 Madrid - Arcos de Jalón - Zaragoza"
      },
      "geometry": {
        "type": "Point",
        "coordinates": [
          -1.36081,
          41.5287
        ]
      }
    },
    {
      "type": "Feature",
      "properties": {
        "id": "EST-SALILLASDEJALON",
        "name": "Salillas de Jalón",
        "line": "Regional Exprés 55 Madrid - Arcos de Jalón - Zaragoza"
      },
      "geometry": {
        "type": "Point",
        "coordinates": [
          -1.32546,
          41.56835
        ]
      }
    },
    {
      "type": "Feature",
      "properties": {
        "id": "EST-EPILA",
        "name": "Épila",
        "line": "Regional Exprés 55 Madrid - Arcos de Jalón - Zaragoza"
      },
      "geometry": {
        "type": "Point",
        "coordinates": [
          -1.30117,
          41.60972
        ]
      }
    },
    {
      "type": "Feature",
      "properties": {
        "id": "EST-RUEDADEJALONLUMPIAQUE",
        "name": "Rueda de Jalón-Lumpiaque",
        "line": "Regional Exprés 55 Madrid - Arcos de Jalón - Zaragoza"
      },
      "geometry": {
        "type": "Point",
        "coordinates": [
          -1.28168,
          41.63922
        ]
      }
    },
    {
      "type": "Feature",
      "properties": {
        "id": "EST-PLASENCIADEJALON",
        "name": "Plasencia de Jalón",
        "line": "Regional Exprés 55 Madrid - Arcos de Jalón - Zaragoza"
      },
      "geometry": {
        "type": "Point",
        "coordinates": [
          -1.23436,
          41.68962
        ]
      }
    },
    {
      "type": "Feature",
      "properties": {
        "id": "EST-GRISEN",
        "name": "Grisén",
        "line": "Regional Exprés 55 Madrid - Arcos de Jalón - Zaragoza"
      },
      "geometry": {
        "type": "Point",
        "coordinates": [
          -1.16585,
          41.74526
        ]
      }
    },
    {
      "type": "Feature",
      "properties": {
        "id": "EST-CASETAS",
        "name": "Casetas",
        "line": "Regional Exprés 55 Madrid - Arcos de Jalón - Zaragoza"
      },
      "geometry": {
        "type": "Point",
        "coordinates": [
          -1.02049,
          41.72273
        ]
      }
    },
    {
      "type": "Feature",
      "properties": {
        "id": "EST-UTEBO",
        "name": "Utebo",
        "line": "Regional Exprés 55 Madrid - Arcos de Jalón - Zaragoza"
      },
      "geometry": {
        "type": "Point",
        "coordinates": [
          -0.99849,
          41.71092
        ]
      }
    },
    {
      "type": "Feature",
      "properties": {
        "id": "EST-ZARAGOZADELICIAS",
        "name": "Zaragoza-Delicias",
        "line": "Regional Exprés 55 Madrid - Arcos de Jalón - Zaragoza"
      },
      "geometry": {
        "type": "Point",
        "coordinates": [
          -0.91139,
          41.65857
        ]
      }
    }
  ]
}