{
  "type": "FeatureCollection",
  "features": [
    {
      "type": "Feature",
      "properties": {
        "id": "397",
        "name": "Regional R-1 Ferrol - Ribadeo - Oviedo",
        "line_type": "Regional",
        "operator": "Renfe"
      },
      "geometry": {
        "type": "LineString",
        "coordinates": [
          [
            -8.23101,
            43.48805
          ],
          [
            -6.19402,
            36.47588
          ],
          [
            2.35492,
            41.48761
          ],
          [
            -4.04509,
            43.17011
          ],
          [
            -1.13346,
            37.97658
          ],
          [
            -8.07792,
            43.54603
          ],
          [
            -3.70366,
            43.41124
          ],
          [
            -8.14,
            43.54
          ],
          [
            -8.1504,
            43.52796
          ],
          [
            -8.1402,
            43.54264
          ],
          [
            -5.40664,
            41.07987
          ],
          [
            -6.19402,
            36.47588
          ],
          [
            -8.02194,
            43.56531
          ],
          [
            -8.05,
            43.53
          ],
          [
            -8.02194,
            43.56531
          ],
          [
            -8.0,
            43.54
          ],
          [
            -7.96,
            43.52
          ],
          [
            -7.93461,
            43.58717
          ],
          [
            -7.92,
            43.513
          ],
          [
            2.77409,
            39.65317
          ],
          [
            -7.90256,
            43.66606
          ],
          [
            -5.91779,
            43.35532
          ],
          [
            -8.74215,
            42.52339
          ],
          [
            -7.84952,
            43.68626
          ],
          [
            -7.80487,
            43.70893
          ],
          [
            -7.7501,
            43.7304
          ],
          [
            -3.26637,
            39.50422
          ],
          [
            2.24859,
            41.93099
          ],
          [
            -7.49,
            43.676
          ],
          [
            -7.46,
            43.67
          ],
          [
            -6.83082,
            42.47525
          ],
          [
            2.67934,
            39.59349
          ],
          [
            2.67934,
            39.59349
          ],
          [
            -7.42,
            43.67
          ],
          [
            -7.53704,
            43.68744
          ],
          [
            -7.53704,
            43.68744
          ],
          [
            -3.73488,
            40.41651
          ],
          [
            -7.4,
            43.67
          ],
          [
            -3.60355,
            40.40399
          ],
          [
            -7.39,
            43.65
          ],
          [
            -7.36085,
            43.6596
          ],
          [
            -7.38,
            43.62
          ],
          [
            -7.37,
            43.59
          ],
          [
            -7.33,
            43.57
          ],
          [
            -4.01003,
            43.3983
          ],
          [
            -7.27203,
            43.561
          ],
          [
            -7.22531,
            43.54742
          ],
          [
            -7.25,
            43.55
          ],
          [
            -3.75238,
            40.33462
          ],
          [
            -7.73559,
            42.45115
          ],
          [
            -7.10865,
            43.54962
          ],
          [
            -7.10865,
            43.54962
          ],
          [
            -3.64417,
            40.43503
          ],
          [
            -7.2,
            43.53
          ],
          [
            -7.01385,
            43.50889
          ],
          [
            -5.88327,
            43.3639
          ],
          [
            -2.07914,
            43.13564
          ],
          [
            -6.90938,
            43.53505
          ],
          [
            2.18627,
            41.395
          ],
          [
            -6.97,
            43.56
          ],
          [
            -6.88,
            43.518
          ],
          [
            -6.82,
            43.555
          ],
          [
            -6.71994,
            43.53656
          ],
          [
            -6.64,
            43.568
          ],
          [
            -6.62,
            43.565
          ],
          [
            -6.58,
            43.562
          ],
          [
            -6.53667,
            43.53758
          ],
          [
            -7.20379,
            43.20303
          ],
          [
            -6.54,
            43.562
          ],
          [
            -3.68375,
            40.3422
          ],
          [
            -6.39182,
            43.54289
          ],
          [
            -6.49,
            43.565
          ],
          [
            -6.46,
            43.568
          ],
          [
            2.18627,
            41.395
          ],
          [
            -6.43,
            43.57
          ],
          [
            -6.4,
            43.572
          ],
          [
            -3.44142,
            40.46386
          ],
          [
            -6.19402,
            36.47588
          ],
          [
            -6.19402,
            36.47588
          ],
          [
            2.18627,
            41.395
          ],
          [
            -4.01003,
            43.3983
          ],
          [
            -6.15216,
            43.55091
          ],
          [
            -6.35,
            43.575
          ],
          [
            3.03208,
            39.73415
          ],
          [
            -0.91855,
            41.62253
          ],
          [
            -5.188,
            43.38745
          ],
          [
            -6.11062,
            43.49114
          ],
          [
            -6.09706,
            43.46942
          ],
          [
            -6.07716,
            43.44886
          ],
          [
            -6.06579,
            43.43991
          ],
          [
            -6.0599,
            43.42559
          ],
          [
            -6.06373,
            43.39443
          ],
          [
            -6.04518,
            43.40293
          ],
          [
            -6.01017,
            43.38989
          ],
          [
            -6.06373,
            43.39443
          ],
          [
            -5.96758,
            43.34856
          ],
          [
            -5.96504,
            43.35647
          ],
          [
            -4.27108,
            41.0746
          ],
          [
            -5.91779,
            43.35532
          ],
          [
            -5.89687,
            43.35968
          ],
          [
            -5.88327,
            43.3639
          ],
          [
            -5.86482,
            43.3652
          ],
          [
            -5.86482,
            43.3652
          ],
          [
            -5.85487,
            43.36636
          ]
        ]
      }
    },
    {
      "type": "Feature",
      "properties": {
        "id": "EST-FERROL",
        "name": "Ferrol",
        "line": "Regional R-1 Ferrol - Ribadeo - Oviedo"
      },
      "geometry": {
        "type": "Point",
        "coordinates": [
          -8.23101,
          43.48805
        ]
      }
    },
    {
      "type": "Feature",
      "properties": {
        "id": "EST-SANFERNANDOCENTRO",
        "name": "San Fernando-Centro",
        "line": "Regional R-1 Ferrol - Ribadeo - Oviedo"
      },
      "geometry": {
        "type": "Point",
        "coordinates": [
          -6.19402,
          36.47588
        ]
      }
    },
    {
      "type": "Feature",
      "properties": {
        "id": "EST-PREMIADEMAR",
        "name": "Premià de Mar",
        "line": "Regional R-1 Ferrol - Ribadeo - Oviedo"
      },
      "geometry": {
        "type": "Point",
        "coordinates": [
          2.35492,
          41.48761
        ]
      }
    },
    {
      "type": "Feature",
      "properties": {
        "id": "EST-SANTACRUZ",
        "name": "Santa Cruz",
        "line": "Regional R-1 Ferrol - Ribadeo - Oviedo"
      },
      "geometry": {
        "type": "Point",
        "coordinates": [
          -4.04509,
          43.17011
        ]
      }
    },
    {
      "type": "Feature",
      "properties": {
        "id": "EST-MURCIADELCARMEN",
        "name": "Murcia del Carmen",
        "line": "Regional R-1 Ferrol - Ribadeo - Oviedo"
      },
      "geometry": {
        "type": "Point",
        "coordinates": [
          -1.13346,
          37.97658
        ]
      }
    },
    {
      "type": "Feature",
      "properties": {
        "id": "EST-PINEIROS",
        "name": "Piñeiros",
        "line": "Regional R-1 Ferrol - Ribadeo - Oviedo"
      },
      "geometry": {
        "type": "Point",
        "coordinates": [
          -8.07792,
          43.54603
        ]
      }
    },
    {
      "type": "Feature",
      "properties": {
        "id": "EST-VILLAVERDEDEPONTONES",
        "name": "Villaverde de Pontones",
        "line": "Regional R-1 Ferrol - Ribadeo - Oviedo"
      },
      "geometry": {
        "type": "Point",
        "coordinates": [
          -3.70366,
          43.41124
        ]
      }
    },
    {
      "type": "Feature",
      "properties": {
        "id": "EST-JUBIA",
        "name": "Jubia",
        "line": "Regional R-1 Ferrol - Ribadeo - Oviedo"
      },
      "geometry": {
        "type": "Point",
        "coordinates": [
          -8.14,
          43.54
        ]
      }
    },
    {
      "type": "Feature",
      "properties": {
        "id": "EST-FERRERIAS",
        "name": "Ferrerías",
        "line": "Regional R-1 Ferrol - Ribadeo - Oviedo"
      },
      "geometry": {
        "type": "Point",
        "coordinates": [
          -8.1504,
          43.52796
        ]
      }
    },
    {
      "type": "Feature",
      "properties": {
        "id": "EST-SEDES",
        "name": "Sedes",
        "line": "Regional R-1 Ferrol - Ribadeo - Oviedo"
      },
      "geometry": {
        "type": "Point",
        "coordinates": [
          -8.1402,
          43.54264
        ]
      }
    },
    {
      "type": "Feature",
      "properties": {
        "id": "EST-ELPEDROSO",
        "name": "El Pedroso",
        "line": "Regional R-1 Ferrol - Ribadeo - Oviedo"
      },
      "geometry": {
        "type": "Point",
        "coordinates": [
          -5.40664,
          41.07987
        ]
      }
    },
    {
      "type": "Feature",
      "properties": {
        "id": "EST-SANFERNANDOCENTRO",
        "name": "San Fernando-Centro",
        "line": "Regional R-1 Ferrol - Ribadeo - Oviedo"
      },
      "geometry": {
        "type": "Point",
        "coordinates": [
          -6.19402,
          36.47588
        ]
      }
    },
    {
      "type": "Feature",
      "properties": {
        "id": "EST-LAMAS",
        "name": "Lamas",
        "line": "Regional R-1 Ferrol - Ribadeo - Oviedo"
      },
      "geometry": {
        "type": "Point",
        "coordinates": [
          -8.02194,
          43.56531
        ]
      }
    },
    {
      "type": "Feature",
      "properties": {
        "id": "EST-APALLA",
        "name": "Apalla",
        "line": "Regional R-1 Ferrol - Ribadeo - Oviedo"
      },
      "geometry": {
        "type": "Point",
        "coordinates": [
          -8.05,
          43.53
        ]
      }
    },
    {
      "type": "Feature",
      "properties": {
        "id": "EST-MOECHE",
        "name": "Moeche",
        "line": "Regional R-1 Ferrol - Ribadeo - Oviedo"
      },
      "geometry": {
        "type": "Point",
        "coordinates": [
          -8.02194,
          43.56531
        ]
      }
    },
    {
      "type": "Feature",
      "properties": {
        "id": "EST-LABACENGOS",
        "name": "Labacengos",
        "line": "Regional R-1 Ferrol - Ribadeo - Oviedo"
      },
      "geometry": {
        "type": "Point",
        "coordinates": [
          -8.0,
          43.54
        ]
      }
    },
    {
      "type": "Feature",
      "properties": {
        "id": "EST-ENTRAMBASRIAS",
        "name": "Entrambasrías",
        "line": "Regional R-1 Ferrol - Ribadeo - Oviedo"
      },
      "geometry": {
        "type": "Point",
        "coordinates": [
          -7.96,
          43.52
        ]
      }
    },
    {
      "type": "Feature",
      "properties": {
        "id": "EST-CERDIDO",
        "name": "Cerdido",
        "line": "Regional R-1 Ferrol - Ribadeo - Oviedo"
      },
      "geometry": {
        "type": "Point",
        "coordinates": [
          -7.93461,
          43.58717
        ]
      }
    },
    {
      "type": "Feature",
      "properties": {
        "id": "EST-CUQUEIRA",
        "name": "Cuqueira",
        "line": "Regional R-1 Ferrol - Ribadeo - Oviedo"
      },
      "geometry": {
        "type": "Point",
        "coordinates": [
          -7.92,
          43.513
        ]
      }
    },
    {
      "type": "Feature",
      "properties": {
        "id": "EST-SANTAMARIA",
        "name": "Santa Maria",
        "line": "Regional R-1 Ferrol - Ribadeo - Oviedo"
      },
      "geometry": {
        "type": "Point",
        "coordinates": [
          2.77409,
          39.65317
        ]
      }
    },
    {
      "type": "Feature",
      "properties": {
        "id": "EST-PONTEDEMERA",
        "name": "Ponte de Mera",
        "line": "Regional R-1 Ferrol - Ribadeo - Oviedo"
      },
      "geometry": {
        "type": "Point",
        "coordinates": [
          -7.90256,
          43.66606
        ]
      }
    },
    {
      "type": "Feature",
      "properties": {
        "id": "EST-SANCLAUDIO",
        "name": "San Claudio",
        "line": "Regional R-1 Ferrol - Ribadeo - Oviedo"
      },
      "geometry": {
        "type": "Point",
        "coordinates": [
          -5.91779,
          43.35532
        ]
      }
    },
    {
      "type": "Feature",
      "properties": {
        "id": "EST-SENRA",
        "name": "Senra",
        "line": "Regional R-1 Ferrol - Ribadeo - Oviedo"
      },
      "geometry": {
        "type": "Point",
        "coordinates": [
          -8.74215,
          42.52339
        ]
      }
    },
    {
      "type": "Feature",
      "properties": {
        "id": "EST-ORTIGUEIRA",
        "name": "Ortigueira",
        "line": "Regional R-1 Ferrol - Ribadeo - Oviedo"
      },
      "geometry": {
        "type": "Point",
        "coordinates": [
          -7.84952,
          43.68626
        ]
      }
    },
    {
      "type": "Feature",
      "properties": {
        "id": "EST-ESPASANTE",
        "name": "Espasante",
        "line": "Regional R-1 Ferrol - Ribadeo - Oviedo"
      },
      "geometry": {
        "type": "Point",
        "coordinates": [
          -7.80487,
          43.70893
        ]
      }
    },
    {
      "type": "Feature",
      "properties": {
        "id": "EST-LOIBA",
        "name": "Loiba",
        "line": "Regional R-1 Ferrol - Ribadeo - Oviedo"
      },
      "geometry": {
        "type": "Point",
        "coordinates": [
          -7.7501,
          43.7304
        ]
      }
    },
    {
      "type": "Feature",
      "properties": {
        "id": "EST-QUERO",
        "name": "Quero",
        "line": "Regional R-1 Ferrol - Ribadeo - Oviedo"
      },
      "geometry": {
        "type": "Point",
        "coordinates": [
          -3.26637,
          39.50422
        ]
      }
    },
    {
      "type": "Feature",
      "properties": {
        "id": "EST-VIC",
        "name": "Vic",
        "line": "Regional R-1 Ferrol - Ribadeo - Oviedo"
      },
      "geometry": {
        "type": "Point",
        "coordinates": [
          2.24859,
          41.93099
        ]
      }
    },
    {
      "type": "Feature",
      "properties": {
        "id": "EST-MOSENDE",
        "name": "Mosende",
        "line": "Regional R-1 Ferrol - Ribadeo - Oviedo"
      },
      "geometry": {
        "type": "Point",
        "coordinates": [
          -7.49,
          43.676
        ]
      }
    },
    {
      "type": "Feature",
      "properties": {
        "id": "EST-FOLGUEIRO",
        "name": "Folgueiro",
        "line": "Regional R-1 Ferrol - Ribadeo - Oviedo"
      },
      "geometry": {
        "type": "Point",
        "coordinates": [
          -7.46,
          43.67
        ]
      }
    },
    {
      "type": "Feature",
      "properties": {
        "id": "EST-COVAS",
        "name": "Covas",
        "line": "Regional R-1 Ferrol - Ribadeo - Oviedo"
      },
      "geometry": {
        "type": "Point",
        "coordinates": [
          -6.83082,
          42.47525
        ]
      }
    },
    {
      "type": "Feature",
      "properties": {
        "id": "EST-VIVERO",
        "name": "Vivero",
        "line": "Regional R-1 Ferrol - Ribadeo - Oviedo"
      },
      "geometry": {
        "type": "Point",
        "coordinates": [
          2.67934,
          39.59349
        ]
      }
    },
    {
      "type": "Feature",
      "properties": {
        "id": "EST-VIVERO",
        "name": "Vivero",
        "line": "Regional R-1 Ferrol - Ribadeo - Oviedo"
      },
      "geometry": {
        "type": "Point",
        "coordinates": [
          2.67934,
          39.59349
        ]
      }
    },
    {
      "type": "Feature",
      "properties": {
        "id": "EST-JUANCES",
        "name": "Juances",
        "line": "Regional R-1 Ferrol - Ribadeo - Oviedo"
      },
      "geometry": {
        "type": "Point",
        "coordinates": [
          -7.42,
          43.67
        ]
      }
    },
    {
      "type": "Feature",
      "properties": {
        "id": "EST-JOVE",
        "name": "Jove",
        "line": "Regional R-1 Ferrol - Ribadeo - Oviedo"
      },
      "geometry": {
        "type": "Point",
        "coordinates": [
          -7.53704,
          43.68744
        ]
      }
    },
    {
      "type": "Feature",
      "properties": {
        "id": "EST-JOVE",
        "name": "Jove",
        "line": "Regional R-1 Ferrol - Ribadeo - Oviedo"
      },
      "geometry": {
        "type": "Point",
        "coordinates": [
          -7.53704,
          43.68744
        ]
      }
    },
    {
      "type": "Feature",
      "properties": {
        "id": "EST-LAGO",
        "name": "Lago",
        "line": "Regional R-1 Ferrol - Ribadeo - Oviedo"
      },
      "geometry": {
        "type": "Point",
        "coordinates": [
          -3.73488,
          40.41651
        ]
      }
    },
    {
      "type": "Feature",
      "properties": {
        "id": "EST-BIDUEIROS",
        "name": "Bidueiros",
        "line": "Regional R-1 Ferrol - Ribadeo - Oviedo"
      },
      "geometry": {
        "type": "Point",
        "coordinates": [
          -7.4,
          43.67
        ]
      }
    },
    {
      "type": "Feature",
      "properties": {
        "id": "EST-SANCIPRIANO",
        "name": "San Cipriano",
        "line": "Regional R-1 Ferrol - Ribadeo - Oviedo"
      },
      "geometry": {
        "type": "Point",
        "coordinates": [
          -3.60355,
          40.40399
        ]
      }
    },
    {
      "type": "Feature",
      "properties": {
        "id": "EST-MADEIRO",
        "name": "Madeiro",
        "line": "Regional R-1 Ferrol - Ribadeo - Oviedo"
      },
      "geometry": {
        "type": "Point",
        "coordinates": [
          -7.39,
          43.65
        ]
      }
    },
    {
      "type": "Feature",
      "properties": {
        "id": "EST-BURELA",
        "name": "Burela",
        "line": "Regional R-1 Ferrol - Ribadeo - Oviedo"
      },
      "geometry": {
        "type": "Point",
        "coordinates": [
          -7.36085,
          43.6596
        ]
      }
    },
    {
      "type": "Feature",
      "properties": {
        "id": "EST-CANGASDEFOZ",
        "name": "Cangas de Foz",
        "line": "Regional R-1 Ferrol - Ribadeo - Oviedo"
      },
      "geometry": {
        "type": "Point",
        "coordinates": [
          -7.38,
          43.62
        ]
      }
    },
    {
      "type": "Feature",
      "properties": {
        "id": "EST-NOIS",
        "name": "Nois",
        "line": "Regional R-1 Ferrol - Ribadeo - Oviedo"
      },
      "geometry": {
        "type": "Point",
        "coordinates": [
          -7.37,
          43.59
        ]
      }
    },
    {
      "type": "Feature",
      "properties": {
        "id": "EST-FAZOURO",
        "name": "Fazouro",
        "line": "Regional R-1 Ferrol - Ribadeo - Oviedo"
      },
      "geometry": {
        "type": "Point",
        "coordinates": [
          -7.33,
          43.57
        ]
      }
    },
    {
      "type": "Feature",
      "properties": {
        "id": "EST-MARZAN",
        "name": "Marzán",
        "line": "Regional R-1 Ferrol - Ribadeo - Oviedo"
      },
      "geometry": {
        "type": "Point",
        "coordinates": [
          -4.01003,
          43.3983
        ]
      }
    },
    {
      "type": "Feature",
      "properties": {
        "id": "EST-FOZ",
        "name": "Foz",
        "line": "Regional R-1 Ferrol - Ribadeo - Oviedo"
      },
      "geometry": {
        "type": "Point",
        "coordinates": [
          -7.27203,
          43.561
        ]
      }
    },
    {
      "type": "Feature",
      "properties": {
        "id": "EST-BARREIROS",
        "name": "Barreiros",
        "line": "Regional R-1 Ferrol - Ribadeo - Oviedo"
      },
      "geometry": {
        "type": "Point",
        "coordinates": [
          -7.22531,
          43.54742
        ]
      }
    },
    {
      "type": "Feature",
      "properties": {
        "id": "EST-REINANTE",
        "name": "Reinante",
        "line": "Regional R-1 Ferrol - Ribadeo - Oviedo"
      },
      "geometry": {
        "type": "Point",
        "coordinates": [
          -7.25,
          43.55
        ]
      }
    },
    {
      "type": "Feature",
      "properties": {
        "id": "EST-JULIANBESTEIRO",
        "name": "Julián Besteiro",
        "line": "Regional R-1 Ferrol - Ribadeo - Oviedo"
      },
      "geometry": {
        "type": "Point",
        "coordinates": [
          -3.75238,
          40.33462
        ]
      }
    },
    {
      "type": "Feature",
      "properties": {
        "id": "EST-OSPEARES",
        "name": "Os Peares",
        "line": "Regional R-1 Ferrol - Ribadeo - Oviedo"
      },
      "geometry": {
        "type": "Point",
        "coordinates": [
          -7.73559,
          42.45115
        ]
      }
    },
    {
      "type": "Feature",
      "properties": {
        "id": "EST-RINLO",
        "name": "Rinlo",
        "line": "Regional R-1 Ferrol - Ribadeo - Oviedo"
      },
      "geometry": {
        "type": "Point",
        "coordinates": [
          -7.10865,
          43.54962
        ]
      }
    },
    {
      "type": "Feature",
      "properties": {
        "id": "EST-RIBADEO",
        "name": "Ribadeo",
        "line": "Regional R-1 Ferrol - Ribadeo - Oviedo"
      },
      "geometry": {
        "type": "Point",
        "coordinates": [
          -7.10865,
          43.54962
        ]
      }
    },
    {
      "type": "Feature",
      "properties": {
        "id": "EST-PUEBLONUEVO",
        "name": "Pueblo Nuevo",
        "line": "Regional R-1 Ferrol - Ribadeo - Oviedo"
      },
      "geometry": {
        "type": "Point",
        "coordinates": [
          -3.64417,
          40.43503
        ]
      }
    },
    {
      "type": "Feature",
      "properties": {
        "id": "EST-VILAVEDELLE",
        "name": "Vilavedelle",
        "line": "Regional R-1 Ferrol - Ribadeo - Oviedo"
      },
      "geometry": {
        "type": "Point",
        "coordinates": [
          -7.2,
          43.53
        ]
      }
    },
    {
      "type": "Feature",
      "properties": {
        "id": "EST-CASTROPOL",
        "name": "Castropol",
        "line": "Regional R-1 Ferrol - Ribadeo - Oviedo"
      },
      "geometry": {
        "type": "Point",
        "coordinates": [
          -7.01385,
          43.50889
        ]
      }
    },
    {
      "type": "Feature",
      "properties": {
        "id": "EST-LASCAMPAS",
        "name": "Las Campas",
        "line": "Regional R-1 Ferrol - Ribadeo - Oviedo"
      },
      "geometry": {
        "type": "Point",
        "coordinates": [
          -5.88327,
          43.3639
        ]
      }
    },
    {
      "type": "Feature",
      "properties": {
        "id": "EST-TOLOSAERDIA",
        "name": "Tolosa-Erdia",
        "line": "Regional R-1 Ferrol - Ribadeo - Oviedo"
      },
      "geometry": {
        "type": "Point",
        "coordinates": [
          -2.07914,
          43.13564
        ]
      }
    },
    {
      "type": "Feature",
      "properties": {
        "id": "EST-TAPIADECASARIEGO",
        "name": "Tapia de Casariego",
        "line": "Regional R-1 Ferrol - Ribadeo - Oviedo"
      },
      "geometry": {
        "type": "Point",
        "coordinates": [
          -6.90938,
          43.53505
        ]
      }
    },
    {
      "type": "Feature",
      "properties": {
        "id": "EST-CCLAMARINA",
        "name": "CC La Marina",
        "line": "Regional R-1 Ferrol - Ribadeo - Oviedo"
      },
      "geometry": {
        "type": "Point",
        "coordinates": [
          2.18627,
          41.395
        ]
      }
    },
    {
      "type": "Feature",
      "properties": {
        "id": "EST-CARTAVIO",
        "name": "Cartavio",
        "line": "Regional R-1 Ferrol - Ribadeo - Oviedo"
      },
      "geometry": {
        "type": "Point",
        "coordinates": [
          -6.97,
          43.56
        ]
      }
    },
    {
      "type": "Feature",
      "properties": {
        "id": "EST-LOZA",
        "name": "Loza",
        "line": "Regional R-1 Ferrol - Ribadeo - Oviedo"
      },
      "geometry": {
        "type": "Point",
        "coordinates": [
          -6.88,
          43.518
        ]
      }
    },
    {
      "type": "Feature",
      "properties": {
        "id": "EST-MEDAL",
        "name": "Medal",
        "line": "Regional R-1 Ferrol - Ribadeo - Oviedo"
      },
      "geometry": {
        "type": "Point",
        "coordinates": [
          -6.82,
          43.555
        ]
      }
    },
    {
      "type": "Feature",
      "properties": {
        "id": "EST-NAVIA",
        "name": "Navia",
        "line": "Regional R-1 Ferrol - Ribadeo - Oviedo"
      },
      "geometry": {
        "type": "Point",
        "coordinates": [
          -6.71994,
          43.53656
        ]
      }
    },
    {
      "type": "Feature",
      "properties": {
        "id": "EST-PINERAVILLAORIL",
        "name": "Piñera-Villaoril",
        "line": "Regional R-1 Ferrol - Ribadeo - Oviedo"
      },
      "geometry": {
        "type": "Point",
        "coordinates": [
          -6.64,
          43.568
        ]
      }
    },
    {
      "type": "Feature",
      "properties": {
        "id": "EST-VILLAPEDRE",
        "name": "Villapedre",
        "line": "Regional R-1 Ferrol - Ribadeo - Oviedo"
      },
      "geometry": {
        "type": "Point",
        "coordinates": [
          -6.62,
          43.565
        ]
      }
    },
    {
      "type": "Feature",
      "properties": {
        "id": "EST-OTUR",
        "name": "Otur",
        "line": "Regional R-1 Ferrol - Ribadeo - Oviedo"
      },
      "geometry": {
        "type": "Point",
        "coordinates": [
          -6.58,
          43.562
        ]
      }
    },
    {
      "type": "Feature",
      "properties": {
        "id": "EST-LUARCA",
        "name": "Luarca",
        "line": "Regional R-1 Ferrol - Ribadeo - Oviedo"
      },
      "geometry": {
        "type": "Point",
        "coordinates": [
          -6.53667,
          43.53758
        ]
      }
    },
    {
      "type": "Feature",
      "properties": {
        "id": "EST-BARCIA",
        "name": "Barcia",
        "line": "Regional R-1 Ferrol - Ribadeo - Oviedo"
      },
      "geometry": {
        "type": "Point",
        "coordinates": [
          -7.20379,
          43.20303
        ]
      }
    },
    {
      "type": "Feature",
      "properties": {
        "id": "EST-CANERO",
        "name": "Canero",
        "line": "Regional R-1 Ferrol - Ribadeo - Oviedo"
      },
      "geometry": {
        "type": "Point",
        "coordinates": [
          -6.54,
          43.562
        ]
      }
    },
    {
      "type": "Feature",
      "properties": {
        "id": "EST-SANCRISTOBALDELOSANGELES",
        "name": "San Cristóbal de los Ángeles",
        "line": "Regional R-1 Ferrol - Ribadeo - Oviedo"
      },
      "geometry": {
        "type": "Point",
        "coordinates": [
          -3.68375,
          40.3422
        ]
      }
    },
    {
      "type": "Feature",
      "properties": {
        "id": "EST-CADAVEDO",
        "name": "Cadavedo",
        "line": "Regional R-1 Ferrol - Ribadeo - Oviedo"
      },
      "geometry": {
        "type": "Point",
        "coordinates": [
          -6.39182,
          43.54289
        ]
      }
    },
    {
      "type": "Feature",
      "properties": {
        "id": "EST-TABLIZO",
        "name": "Tablizo",
        "line": "Regional R-1 Ferrol - Ribadeo - Oviedo"
      },
      "geometry": {
        "type": "Point",
        "coordinates": [
          -6.49,
          43.565
        ]
      }
    },
    {
      "type": "Feature",
      "properties": {
        "id": "EST-BALLOTA",
        "name": "Ballota",
        "line": "Regional R-1 Ferrol - Ribadeo - Oviedo"
      },
      "geometry": {
        "type": "Point",
        "coordinates": [
          -6.46,
          43.568
        ]
      }
    },
    {
      "type": "Feature",
      "properties": {
        "id": "EST-MARINA",
        "name": "Marina",
        "line": "Regional R-1 Ferrol - Ribadeo - Oviedo"
      },
      "geometry": {
        "type": "Point",
        "coordinates": [
          2.18627,
          41.395
        ]
      }
    },
    {
      "type": "Feature",
      "properties": {
        "id": "EST-NOVELLANA",
        "name": "Novellana",
        "line": "Regional R-1 Ferrol - Ribadeo - Oviedo"
      },
      "geometry": {
        "type": "Point",
        "coordinates": [
          -6.43,
          43.57
        ]
      }
    },
    {
      "type": "Feature",
      "properties": {
        "id": "EST-VALDREDO",
        "name": "Valdredo",
        "line": "Regional R-1 Ferrol - Ribadeo - Oviedo"
      },
      "geometry": {
        "type": "Point",
        "coordinates": [
          -6.4,
          43.572
        ]
      }
    },
    {
      "type": "Feature",
      "properties": {
        "id": "EST-SOTODELHENARES",
        "name": "Soto del Henares",
        "line": "Regional R-1 Ferrol - Ribadeo - Oviedo"
      },
      "geometry": {
        "type": "Point",
        "coordinates": [
          -3.44142,
          40.46386
        ]
      }
    },
    {
      "type": "Feature",
      "properties": {
        "id": "EST-SANFERNANDOCENTRO",
        "name": "San Fernando-Centro",
        "line": "Regional R-1 Ferrol - Ribadeo - Oviedo"
      },
      "geometry": {
        "type": "Point",
        "coordinates": [
          -6.19402,
          36.47588
        ]
      }
    },
    {
      "type": "Feature",
      "properties": {
        "id": "EST-SANFERNANDOCENTRO",
        "name": "San Fernando-Centro",
        "line": "Regional R-1 Ferrol - Ribadeo - Oviedo"
      },
      "geometry": {
        "type": "Point",
        "coordinates": [
          -6.19402,
          36.47588
        ]
      }
    },
    {
      "type": "Feature",
      "properties": {
        "id": "EST-CCLAMARINA",
        "name": "CC La Marina",
        "line": "Regional R-1 Ferrol - Ribadeo - Oviedo"
      },
      "geometry": {
        "type": "Point",
        "coordinates": [
          2.18627,
          41.395
        ]
      }
    },
    {
      "type": "Feature",
      "properties": {
        "id": "EST-VILLADEMAR",
        "name": "Villademar",
        "line": "Regional R-1 Ferrol - Ribadeo - Oviedo"
      },
      "geometry": {
        "type": "Point",
        "coordinates": [
          -4.01003,
          43.3983
        ]
      }
    },
    {
      "type": "Feature",
      "properties": {
        "id": "EST-CUDILLERO",
        "name": "Cudillero",
        "line": "Regional R-1 Ferrol - Ribadeo - Oviedo"
      },
      "geometry": {
        "type": "Point",
        "coordinates": [
          -6.15216,
          43.55091
        ]
      }
    },
    {
      "type": "Feature",
      "properties": {
        "id": "EST-ELPITOPINERA",
        "name": "El Pito-Piñera",
        "line": "Regional R-1 Ferrol - Ribadeo - Oviedo"
      },
      "geometry": {
        "type": "Point",
        "coordinates": [
          -6.35,
          43.575
        ]
      }
    },
    {
      "type": "Feature",
      "properties": {
        "id": "EST-MUROSDENALON",
        "name": "Muros de Nalón",
        "line": "Regional R-1 Ferrol - Ribadeo - Oviedo"
      },
      "geometry": {
        "type": "Point",
        "coordinates": [
          3.03208,
          39.73415
        ]
      }
    },
    {
      "type": "Feature",
      "properties": {
        "id": "EST-LOSOLVIDADOS",
        "name": "Los Olvidados",
        "line": "Regional R-1 Ferrol - Ribadeo - Oviedo"
      },
      "geometry": {
        "type": "Point",
        "coordinates": [
          -0.91855,
          41.62253
        ]
      }
    },
    {
      "type": "Feature",
      "properties": {
        "id": "EST-SANTIANES",
        "name": "Santianes",
        "line": "Regional R-1 Ferrol - Ribadeo - Oviedo"
      },
      "geometry": {
        "type": "Point",
        "coordinates": [
          -5.188,
          43.38745
        ]
      }
    },
    {
      "type": "Feature",
      "properties": {
        "id": "EST-PRAVIA",
        "name": "Pravia",
        "line": "Regional R-1 Ferrol - Ribadeo - Oviedo"
      },
      "geometry": {
        "type": "Point",
        "coordinates": [
          -6.11062,
          43.49114
        ]
      }
    },
    {
      "type": "Feature",
      "properties": {
        "id": "EST-BEIFAR",
        "name": "Beifar",
        "line": "Regional R-1 Ferrol - Ribadeo - Oviedo"
      },
      "geometry": {
        "type": "Point",
        "coordinates": [
          -6.09706,
          43.46942
        ]
      }
    },
    {
      "type": "Feature",
      "properties": {
        "id": "EST-SANROMAN",
        "name": "San Román",
        "line": "Regional R-1 Ferrol - Ribadeo - Oviedo"
      },
      "geometry": {
        "type": "Point",
        "coordinates": [
          -6.07716,
          43.44886
        ]
      }
    },
    {
      "type": "Feature",
      "properties": {
        "id": "EST-ACES",
        "name": "Aces",
        "line": "Regional R-1 Ferrol - Ribadeo - Oviedo"
      },
      "geometry": {
        "type": "Point",
        "coordinates": [
          -6.06579,
          43.43991
        ]
      }
    },
    {
      "type": "Feature",
      "properties": {
        "id": "EST-SANDICHE",
        "name": "Sandiche",
        "line": "Regional R-1 Ferrol - Ribadeo - Oviedo"
      },
      "geometry": {
        "type": "Point",
        "coordinates": [
          -6.0599,
          43.42559
        ]
      }
    },
    {
      "type": "Feature",
      "properties": {
        "id": "EST-GRADO",
        "name": "Grado",
        "line": "Regional R-1 Ferrol - Ribadeo - Oviedo"
      },
      "geometry": {
        "type": "Point",
        "coordinates": [
          -6.06373,
          43.39443
        ]
      }
    },
    {
      "type": "Feature",
      "properties": {
        "id": "EST-PENAFLORASTURIAS",
        "name": "Peñaflor",
        "line": "Regional R-1 Ferrol - Ribadeo - Oviedo"
      },
      "geometry": {
        "type": "Point",
        "coordinates": [
          -6.04518,
          43.40293
        ]
      }
    },
    {
      "type": "Feature",
      "properties": {
        "id": "EST-VEGADEANZO",
        "name": "Vega de Anzo",
        "line": "Regional R-1 Ferrol - Ribadeo - Oviedo"
      },
      "geometry": {
        "type": "Point",
        "coordinates": [
          -6.01017,
          43.38989
        ]
      }
    },
    {
      "type": "Feature",
      "properties": {
        "id": "EST-SANTAMARIADEGRADO",
        "name": "Santa María de Grado",
        "line": "Regional R-1 Ferrol - Ribadeo - Oviedo"
      },
      "geometry": {
        "type": "Point",
        "coordinates": [
          -6.06373,
          43.39443
        ]
      }
    },
    {
      "type": "Feature",
      "properties": {
        "id": "EST-TRUBIA",
        "name": "Trubia",
        "line": "Regional R-1 Ferrol - Ribadeo - Oviedo"
      },
      "geometry": {
        "type": "Point",
        "coordinates": [
          -5.96758,
          43.34856
        ]
      }
    },
    {
      "type": "Feature",
      "properties": {
        "id": "EST-SOTOUDRION",
        "name": "Soto-Udrión",
        "line": "Regional R-1 Ferrol - Ribadeo - Oviedo"
      },
      "geometry": {
        "type": "Point",
        "coordinates": [
          -5.96504,
          43.35647
        ]
      }
    },
    {
      "type": "Feature",
      "properties": {
        "id": "EST-SANPEDRO",
        "name": "San Pedro",
        "line": "Regional R-1 Ferrol - Ribadeo - Oviedo"
      },
      "geometry": {
        "type": "Point",
        "coordinates": [
          -4.27108,
          41.0746
        ]
      }
    },
    {
      "type": "Feature",
      "properties": {
        "id": "EST-SANCLAUDIO",
        "name": "San Claudio",
        "line": "Regional R-1 Ferrol - Ribadeo - Oviedo"
      },
      "geometry": {
        "type": "Point",
        "coordinates": [
          -5.91779,
          43.35532
        ]
      }
    },
    {
      "type": "Feature",
      "properties": {
        "id": "EST-LASMAZAS",
        "name": "Las Mazas",
        "line": "Regional R-1 Ferrol - Ribadeo - Oviedo"
      },
      "geometry": {
        "type": "Point",
        "coordinates": [
          -5.89687,
          43.35968
        ]
      }
    },
    {
      "type": "Feature",
      "properties": {
        "id": "EST-LASCAMPAS",
        "name": "Las Campas",
        "line": "Regional R-1 Ferrol - Ribadeo - Oviedo"
      },
      "geometry": {
        "type": "Point",
        "coordinates": [
          -5.88327,
          43.3639
        ]
      }
    },
    {
      "type": "Feature",
      "properties": {
        "id": "EST-ARGANOSA",
        "name": "Argañosa",
        "line": "Regional R-1 Ferrol - Ribadeo - Oviedo"
      },
      "geometry": {
        "type": "Point",
        "coordinates": [
          -5.86482,
          43.3652
        ]
      }
    },
    {
      "type": "Feature",
      "properties": {
        "id": "EST-VALLOBIN",
        "name": "Vallobín",
        "line": "Regional R-1 Ferrol - Ribadeo - Oviedo"
      },
      "geometry": {
        "type": "Point",
        "coordinates": [
          -5.86482,
          43.3652
        ]
      }
    },
    {
      "type": "Feature",
      "properties": {
        "id": "EST-OVIEDO",
        "name": "Oviedo",
        "line": "Regional R-1 Ferrol - Ribadeo - Oviedo"
      },
      "geometry": {
        "type": "Point",
        "coordinates": [
          -5.85487,
          43.36636
        ]
      }
    }
  ]
}