{
  "type": "FeatureCollection",
  "features": [
    {
      "type": "Feature",
      "properties": {
        "id": "399",
        "name": "MD 4 La Coruña - Lugo - Monforte - Orense",
        "line_type": "Media Distancia",
        "operator": "Renfe"
      },
      "geometry": {
        "type": "LineString",
        "coordinates": [
          [
            -8.41215,
            43.35037
          ],
          [
            -8.41298,
            43.33528
          ],
          [
            -6.02799,
            43.54088
          ],
          [
            -8.35217,
            43.29044
          ],
          [
            -8.30777,
            43.28785
          ],
          [
            -8.22583,
            43.27072
          ],
          [
            -0.91855,
            41.62253
          ],
          [
            -8.20054,
            43.17302
          ],
          [
            -8.2,
            43.3
          ],
          [
            -8.14324,
            43.1273
          ],
          [
            -7.41571,
            42.78182
          ],
          [
            -7.89507,
            43.17906
          ],
          [
            -7.83737,
            43.1636
          ],
          [
            -7.75631,
            43.17342
          ],
          [
            -7.62477,
            43.12136
          ],
          [
            -5.81212,
            43.40437
          ],
          [
            -7.39338,
            42.83287
          ],
          [
            -7.41365,
            42.78262
          ],
          [
            -7.50314,
            42.52952
          ],
          [
            -7.87255,
            42.35069
          ]
        ]
      }
    },
    {
      "type": "Feature",
      "properties": {
        "id": "EST-ACORUNA",
        "name": "A Coruña",
        "line": "MD 4 La Coruña - Lugo - Monforte - Orense"
      },
      "geometry": {
        "type": "Point",
        "coordinates": [
          -8.41215,
          43.35037
        ]
      }
    },
    {
      "type": "Feature",
      "properties": {
        "id": "EST-ELVINAUNIVERSIDADE",
        "name": "Elviña-Universidade",
        "line": "MD 4 La Coruña - Lugo - Monforte - Orense"
      },
      "geometry": {
        "type": "Point",
        "coordinates": [
          -8.41298,
          43.33528
        ]
      }
    },
    {
      "type": "Feature",
      "properties": {
        "id": "EST-SANTIAGODELMONTE",
        "name": "Santiago del Monte",
        "line": "MD 4 La Coruña - Lugo - Monforte - Orense"
      },
      "geometry": {
        "type": "Point",
        "coordinates": [
          -6.02799,
          43.54088
        ]
      }
    },
    {
      "type": "Feature",
      "properties": {
        "id": "EST-CAMBRE",
        "name": "Cambre",
        "line": "MD 4 La Coruña - Lugo - Monforte - Orense"
      },
      "geometry": {
        "type": "Point",
        "coordinates": [
          -8.35217,
          43.29044
        ]
      }
    },
    {
      "type": "Feature",
      "properties": {
        "id": "EST-CECEBRE",
        "name": "Cecebre",
        "line": "MD 4 La Coruña - Lugo - Monforte - Orense"
      },
      "geometry": {
        "type": "Point",
        "coordinates": [
          -8.30777,
          43.28785
        ]
      }
    },
    {
      "type": "Feature",
      "properties": {
        "id": "EST-BETANZOSINFESTA",
        "name": "Betanzos-Infesta",
        "line": "MD 4 La Coruña - Lugo - Monforte - Orense"
      },
      "geometry": {
        "type": "Point",
        "coordinates": [
          -8.22583,
          43.27072
        ]
      }
    },
    {
      "type": "Feature",
      "properties": {
        "id": "EST-LOSOLVIDADOS",
        "name": "Los Olvidados",
        "line": "MD 4 La Coruña - Lugo - Monforte - Orense"
      },
      "geometry": {
        "type": "Point",
        "coordinates": [
          -0.91855,
          41.62253
        ]
      }
    },
    {
      "type": "Feature",
      "properties": {
        "id": "EST-CESURAS",
        "name": "Cesuras",
        "line": "MD 4 La Coruña - Lugo - Monforte - Orense"
      },
      "geometry": {
        "type": "Point",
        "coordinates": [
          -8.20054,
          43.17302
        ]
      }
    },
    {
      "type": "Feature",
      "properties": {
        "id": "EST-PINOY",
        "name": "Piñoy",
        "line": "MD 4 La Coruña - Lugo - Monforte - Orense"
      },
      "geometry": {
        "type": "Point",
        "coordinates": [
          -8.2,
          43.3
        ]
      }
    },
    {
      "type": "Feature",
      "properties": {
        "id": "EST-CURTIS",
        "name": "Curtis",
        "line": "MD 4 La Coruña - Lugo - Monforte - Orense"
      },
      "geometry": {
        "type": "Point",
        "coordinates": [
          -8.14324,
          43.1273
        ]
      }
    },
    {
      "type": "Feature",
      "properties": {
        "id": "EST-TEIJEIRO",
        "name": "Teijeiro",
        "line": "MD 4 La Coruña - Lugo - Monforte - Orense"
      },
      "geometry": {
        "type": "Point",
        "coordinates": [
          -7.41571,
          42.78182
        ]
      }
    },
    {
      "type": "Feature",
      "properties": {
        "id": "EST-GUITIRIZ",
        "name": "Guitiriz",
        "line": "MD 4 La Coruña - Lugo - Monforte - Orense"
      },
      "geometry": {
        "type": "Point",
        "coordinates": [
          -7.89507,
          43.17906
        ]
      }
    },
    {
      "type": "Feature",
      "properties": {
        "id": "EST-PARGA",
        "name": "Parga",
        "line": "MD 4 La Coruña - Lugo - Monforte - Orense"
      },
      "geometry": {
        "type": "Point",
        "coordinates": [
          -7.83737,
          43.1636
        ]
      }
    },
    {
      "type": "Feature",
      "properties": {
        "id": "EST-BAAMONDE",
        "name": "Baamonde",
        "line": "MD 4 La Coruña - Lugo - Monforte - Orense"
      },
      "geometry": {
        "type": "Point",
        "coordinates": [
          -7.75631,
          43.17342
        ]
      }
    },
    {
      "type": "Feature",
      "properties": {
        "id": "EST-RABADE",
        "name": "Rábade",
        "line": "MD 4 La Coruña - Lugo - Monforte - Orense"
      },
      "geometry": {
        "type": "Point",
        "coordinates": [
          -7.62477,
          43.12136
        ]
      }
    },
    {
      "type": "Feature",
      "properties": {
        "id": "EST-LUGO",
        "name": "Lugo",
        "line": "MD 4 La Coruña - Lugo - Monforte - Orense"
      },
      "geometry": {
        "type": "Point",
        "coordinates": [
          -5.81212,
          43.40437
        ]
      }
    },
    {
      "type": "Feature",
      "properties": {
        "id": "EST-PEDRELOCELTIGOS",
        "name": "Pedrelo-Céltigos",
        "line": "MD 4 La Coruña - Lugo - Monforte - Orense"
      },
      "geometry": {
        "type": "Point",
        "coordinates": [
          -7.39338,
          42.83287
        ]
      }
    },
    {
      "type": "Feature",
      "properties": {
        "id": "EST-SARRIA-Lugo-Sarria",
        "name": "Sarria",
        "line": "MD 4 La Coruña - Lugo - Monforte - Orense"
      },
      "geometry": {
        "type": "Point",
        "coordinates": [
          -7.41365,
          42.78262
        ]
      }
    },
    {
      "type": "Feature",
      "properties": {
        "id": "EST-MONFORTEDELEMOS",
        "name": "Monforte de Lemos",
        "line": "MD 4 La Coruña - Lugo - Monforte - Orense"
      },
      "geometry": {
        "type": "Point",
        "coordinates": [
          -7.50314,
          42.52952
        ]
      }
    },
    {
      "type": "Feature",
      "properties": {
        "id": "EST-OURENSE",
        "name": "Ourense",
        "line": "MD 4 La Coruña - Lugo - Monforte - Orense"
      },
      "geometry": {
        "type": "Point",
        "coordinates": [
          -7.87255,
          42.35069
        ]
      }
    }
  ]
}