{
  "type": "FeatureCollection",
  "features": [
    {
      "type": "Feature",
      "properties": {
        "id": "41",
        "name": "Avant Barcelona - Lleida",
        "line_type": "Media Distancia AV",
        "operator": "Renfe"
      },
      "geometry": {
        "type": "LineString",
        "coordinates": [
          [
            1.27357,
            41.19217
          ],
          [
            0.63304,
            41.62073
          ]
        ]
      }
    },
    {
      "type": "Feature",
      "properties": {
        "id": "EST-CAMPDETARRAGONA",
        "name": "Camp de Tarragona",
        "line": "Avant Barcelona - Lleida"
      },
      "geometry": {
        "type": "Point",
        "coordinates": [
          1.27357,
          41.19217
        ]
      }
    },
    {
      "type": "Feature",
      "properties": {
        "id": "EST-LLEIDAPIRINEUS",
        "name": "Lleida Pirineus",
        "line": "Avant Barcelona - Lleida"
      },
      "geometry": {
        "type": "Point",
        "coordinates": [
          0.63304,
          41.62073
        ]
      }
    }
  ]
}