{
  "type": "FeatureCollection",
  "features": [
    {
      "type": "Feature",
      "properties": {
        "id": "44",
        "name": "Avant A Coruña - Ourense",
        "line_type": "Media Distancia AV",
        "operator": "Renfe"
      },
      "geometry": {
        "type": "LineString",
        "coordinates": [
          [
            -8.41215,
            43.35037
          ],
          [
            -8.5452,
            42.87044
          ],
          [
            -7.87255,
            42.35069
          ]
        ]
      }
    },
    {
      "type": "Feature",
      "properties": {
        "id": "EST-ACORUNA",
        "name": "A Coruña",
        "line": "Avant A Coruña - Ourense"
      },
      "geometry": {
        "type": "Point",
        "coordinates": [
          -8.41215,
          43.35037
        ]
      }
    },
    {
      "type": "Feature",
      "properties": {
        "id": "EST-SANTIAGODECOMPOSTELA",
        "name": "Santiago de Compostela",
        "line": "Avant A Coruña - Ourense"
      },
      "geometry": {
        "type": "Point",
        "coordinates": [
          -8.5452,
          42.87044
        ]
      }
    },
    {
      "type": "Feature",
      "properties": {
        "id": "EST-OURENSE",
        "name": "Ourense",
        "line": "Avant A Coruña - Ourense"
      },
      "geometry": {
        "type": "Point",
        "coordinates": [
          -7.87255,
          42.35069
        ]
      }
    }
  ]
}