{
  "type": "FeatureCollection",
  "features": [
    {
      "type": "Feature",
      "properties": {
        "id": "60",
        "name": "MD 38 Zaragoza - Lleida",
        "line_type": "Media Distancia",
        "operator": "Renfe"
      },
      "geometry": {
        "type": "LineString",
        "coordinates": [
          [
            -0.91139,
            41.65857
          ],
          [
            -0.8959,
            41.65274
          ],
          [
            -0.89134,
            41.64392
          ],
          [
            -0.86832,
            41.63319
          ],
          [
            -0.82216,
            41.7654
          ],
          [
            -0.76381,
            41.87719
          ],
          [
            -0.53843,
            41.97557
          ],
          [
            -0.36931,
            41.93795
          ],
          [
            -0.28607,
            41.88355
          ],
          [
            -0.17266,
            41.81725
          ],
          [
            0.14847,
            41.90596
          ],
          [
            0.1969,
            41.91372
          ],
          [
            0.29141,
            41.84974
          ],
          [
            0.63304,
            41.62073
          ]
        ]
      }
    },
    {
      "type": "Feature",
      "properties": {
        "id": "EST-ZARAGOZADELICIAS",
        "name": "Zaragoza-Delicias",
        "line": "MD 38 Zaragoza - Lleida"
      },
      "geometry": {
        "type": "Point",
        "coordinates": [
          -0.91139,
          41.65857
        ]
      }
    },
    {
      "type": "Feature",
      "properties": {
        "id": "EST-ZARAGOZAPORTILLO",
        "name": "Zaragoza-Portillo",
        "line": "MD 38 Zaragoza - Lleida"
      },
      "geometry": {
        "type": "Point",
        "coordinates": [
          -0.8959,
          41.65274
        ]
      }
    },
    {
      "type": "Feature",
      "properties": {
        "id": "EST-ZARAGOZAGOYA",
        "name": "Zaragoza-Goya",
        "line": "MD 38 Zaragoza - Lleida"
      },
      "geometry": {
        "type": "Point",
        "coordinates": [
          -0.89134,
          41.64392
        ]
      }
    },
    {
      "type": "Feature",
      "properties": {
        "id": "EST-ZARAGOZAMIRAFLORES",
        "name": "Zaragoza-Miraflores",
        "line": "MD 38 Zaragoza - Lleida"
      },
      "geometry": {
        "type": "Point",
        "coordinates": [
          -0.86832,
          41.63319
        ]
      }
    },
    {
      "type": "Feature",
      "properties": {
        "id": "EST-VILLANUEVADEGALLEGO",
        "name": "Villanueva de Gállego",
        "line": "MD 38 Zaragoza - Lleida"
      },
      "geometry": {
        "type": "Point",
        "coordinates": [
          -0.82216,
          41.7654
        ]
      }
    },
    {
      "type": "Feature",
      "properties": {
        "id": "EST-ZUERA",
        "name": "Zuera",
        "line": "MD 38 Zaragoza - Lleida"
      },
      "geometry": {
        "type": "Point",
        "coordinates": [
          -0.76381,
          41.87719
        ]
      }
    },
    {
      "type": "Feature",
      "properties": {
        "id": "EST-TARDIENTA",
        "name": "Tardienta",
        "line": "MD 38 Zaragoza - Lleida"
      },
      "geometry": {
        "type": "Point",
        "coordinates": [
          -0.53843,
          41.97557
        ]
      }
    },
    {
      "type": "Feature",
      "properties": {
        "id": "EST-GRANEN",
        "name": "Grañén",
        "line": "MD 38 Zaragoza - Lleida"
      },
      "geometry": {
        "type": "Point",
        "coordinates": [
          -0.36931,
          41.93795
        ]
      }
    },
    {
      "type": "Feature",
      "properties": {
        "id": "EST-MARCENPOLENINO",
        "name": "Marcén-Poleñino",
        "line": "MD 38 Zaragoza - Lleida"
      },
      "geometry": {
        "type": "Point",
        "coordinates": [
          -0.28607,
          41.88355
        ]
      }
    },
    {
      "type": "Feature",
      "properties": {
        "id": "EST-SARINENA",
        "name": "Sariñena",
        "line": "MD 38 Zaragoza - Lleida"
      },
      "geometry": {
        "type": "Point",
        "coordinates": [
          -0.17266,
          41.81725
        ]
      }
    },
    {
      "type": "Feature",
      "properties": {
        "id": "EST-SELGUA",
        "name": "Selgua",
        "line": "MD 38 Zaragoza - Lleida"
      },
      "geometry": {
        "type": "Point",
        "coordinates": [
          0.14847,
          41.90596
        ]
      }
    },
    {
      "type": "Feature",
      "properties": {
        "id": "EST-MONZONRIOCINCA",
        "name": "Monzón-Río Cinca",
        "line": "MD 38 Zaragoza - Lleida"
      },
      "geometry": {
        "type": "Point",
        "coordinates": [
          0.1969,
          41.91372
        ]
      }
    },
    {
      "type": "Feature",
      "properties": {
        "id": "EST-BINEFAR",
        "name": "Binéfar",
        "line": "MD 38 Zaragoza - Lleida"
      },
      "geometry": {
        "type": "Point",
        "coordinates": [
          0.29141,
          41.84974
        ]
      }
    },
    {
      "type": "Feature",
      "properties": {
        "id": "EST-LLEIDAPIRINEUS",
        "name": "Lleida Pirineus",
        "line": "MD 38 Zaragoza - Lleida"
      },
      "geometry": {
        "type": "Point",
        "coordinates": [
          0.63304,
          41.62073
        ]
      }
    }
  ]
}