{
  "type": "FeatureCollection",
  "features": [
    {
      "type": "Feature",
      "properties": {
        "id": "68",
        "name": "MD 16 Valladolid - Madrid",
        "line_type": "Media Distancia",
        "operator": "Renfe"
      },
      "geometry": {
        "type": "LineString",
        "coordinates": [
          [
            -4.7272,
            41.64334
          ],
          [
            -4.70193,
            41.04707
          ],
          [
            -4.68332,
            40.65721
          ],
          [
            -4.13232,
            40.58526
          ],
          [
            -4.00815,
            40.62638
          ],
          [
            -3.71903,
            40.4216
          ]
        ]
      }
    },
    {
      "type": "Feature",
      "properties": {
        "id": "EST-VALLADOLIDCAMPOGRANDE",
        "name": "Valladolid-Campo Grande",
        "line": "MD 16 Valladolid - Madrid"
      },
      "geometry": {
        "type": "Point",
        "coordinates": [
          -4.7272,
          41.64334
        ]
      }
    },
    {
      "type": "Feature",
      "properties": {
        "id": "EST-AREVALO",
        "name": "Arévalo",
        "line": "MD 16 Valladolid - Madrid"
      },
      "geometry": {
        "type": "Point",
        "coordinates": [
          -4.70193,
          41.04707
        ]
      }
    },
    {
      "type": "Feature",
      "properties": {
        "id": "EST-AVILA",
        "name": "Ávila",
        "line": "MD 16 Valladolid - Madrid"
      },
      "geometry": {
        "type": "Point",
        "coordinates": [
          -4.68332,
          40.65721
        ]
      }
    },
    {
      "type": "Feature",
      "properties": {
        "id": "EST-ELESCORIAL",
        "name": "El Escorial",
        "line": "MD 16 Valladolid - Madrid"
      },
      "geometry": {
        "type": "Point",
        "coordinates": [
          -4.13232,
          40.58526
        ]
      }
    },
    {
      "type": "Feature",
      "properties": {
        "id": "EST-VILLALBA",
        "name": "Villalba",
        "line": "MD 16 Valladolid - Madrid"
      },
      "geometry": {
        "type": "Point",
        "coordinates": [
          -4.00815,
          40.62638
        ]
      }
    },
    {
      "type": "Feature",
      "properties": {
        "id": "EST-MADRIDPRINCIPEPIO",
        "name": "Madrid-Príncipe Pío",
        "line": "MD 16 Valladolid - Madrid"
      },
      "geometry": {
        "type": "Point",
        "coordinates": [
          -3.71903,
          40.4216
        ]
      }
    }
  ]
}