{
  "type": "FeatureCollection",
  "features": [
    {
      "type": "Feature",
      "properties": {
        "id": "73",
        "name": "MD 24 Valladolid - Miranda de Ebro",
        "line_type": "Media Distancia",
        "operator": "Renfe"
      },
      "geometry": {
        "type": "LineString",
        "coordinates": [
          [
            -4.7272,
            41.64334
          ],
          [
            -4.49627,
            41.9174
          ],
          [
            -4.53386,
            42.01573
          ],
          [
            -4.43198,
            41.9765
          ],
          [
            -4.19855,
            42.07996
          ],
          [
            -3.99962,
            42.21566
          ],
          [
            -3.66632,
            42.37117
          ],
          [
            -3.31908,
            42.54273
          ],
          [
            -3.11282,
            42.63021
          ],
          [
            -2.94114,
            42.6908
          ]
        ]
      }
    },
    {
      "type": "Feature",
      "properties": {
        "id": "EST-VALLADOLIDCAMPOGRANDE",
        "name": "Valladolid-Campo Grande",
        "line": "MD 24 Valladolid - Miranda de Ebro"
      },
      "geometry": {
        "type": "Point",
        "coordinates": [
          -4.7272,
          41.64334
        ]
      }
    },
    {
      "type": "Feature",
      "properties": {
        "id": "EST-VENTADEBANOS",
        "name": "Venta de Baños",
        "line": "MD 24 Valladolid - Miranda de Ebro"
      },
      "geometry": {
        "type": "Point",
        "coordinates": [
          -4.49627,
          41.9174
        ]
      }
    },
    {
      "type": "Feature",
      "properties": {
        "id": "EST-PALENCIA",
        "name": "Palencia",
        "line": "MD 24 Valladolid - Miranda de Ebro"
      },
      "geometry": {
        "type": "Point",
        "coordinates": [
          -4.53386,
          42.01573
        ]
      }
    },
    {
      "type": "Feature",
      "properties": {
        "id": "EST-MAGAZ",
        "name": "Magaz",
        "line": "MD 24 Valladolid - Miranda de Ebro"
      },
      "geometry": {
        "type": "Point",
        "coordinates": [
          -4.43198,
          41.9765
        ]
      }
    },
    {
      "type": "Feature",
      "properties": {
        "id": "EST-QUINTANADELPUENTE",
        "name": "Quintana del Puente",
        "line": "MD 24 Valladolid - Miranda de Ebro"
      },
      "geometry": {
        "type": "Point",
        "coordinates": [
          -4.19855,
          42.07996
        ]
      }
    },
    {
      "type": "Feature",
      "properties": {
        "id": "EST-VILLAQUIRAN",
        "name": "Villaquirán",
        "line": "MD 24 Valladolid - Miranda de Ebro"
      },
      "geometry": {
        "type": "Point",
        "coordinates": [
          -3.99962,
          42.21566
        ]
      }
    },
    {
      "type": "Feature",
      "properties": {
        "id": "EST-BURGOSROSADELIMA",
        "name": "Burgos-Rosa de Lima",
        "line": "MD 24 Valladolid - Miranda de Ebro"
      },
      "geometry": {
        "type": "Point",
        "coordinates": [
          -3.66632,
          42.37117
        ]
      }
    },
    {
      "type": "Feature",
      "properties": {
        "id": "EST-BRIVIESCA",
        "name": "Briviesca",
        "line": "MD 24 Valladolid - Miranda de Ebro"
      },
      "geometry": {
        "type": "Point",
        "coordinates": [
          -3.31908,
          42.54273
        ]
      }
    },
    {
      "type": "Feature",
      "properties": {
        "id": "EST-PANCORBO",
        "name": "Pancorbo",
        "line": "MD 24 Valladolid - Miranda de Ebro"
      },
      "geometry": {
        "type": "Point",
        "coordinates": [
          -3.11282,
          42.63021
        ]
      }
    },
    {
      "type": "Feature",
      "properties": {
        "id": "EST-MIRANDADEEBRO",
        "name": "Miranda de Ebro",
        "line": "MD 24 Valladolid - Miranda de Ebro"
      },
      "geometry": {
        "type": "Point",
        "coordinates": [
          -2.94114,
          42.6908
        ]
      }
    }
  ]
}