{
  "type": "FeatureCollection",
  "features": [
    {
      "type": "Feature",
      "properties": {
        "id": "91",
        "name": "MD 3 Vigo - Ponferrada",
        "line_type": "Media Distancia",
        "operator": "Renfe"
      },
      "geometry": {
        "type": "LineString",
        "coordinates": [
          [
            -8.71188,
            42.23952
          ],
          [
            -8.60372,
            42.28549
          ],
          [
            -8.62232,
            42.06571
          ],
          [
            -7.87255,
            42.35069
          ],
          [
            -7.50314,
            42.52952
          ],
          [
            -7.28721,
            42.46517
          ],
          [
            -7.11325,
            42.39261
          ],
          [
            -6.98505,
            42.41826
          ],
          [
            -6.60249,
            42.54566
          ]
        ]
      }
    },
    {
      "type": "Feature",
      "properties": {
        "id": "EST-VIGOGUIXAR",
        "name": "Vigo-Guixar",
        "line": "MD 3 Vigo - Ponferrada"
      },
      "geometry": {
        "type": "Point",
        "coordinates": [
          -8.71188,
          42.23952
        ]
      }
    },
    {
      "type": "Feature",
      "properties": {
        "id": "EST-REDONDELA",
        "name": "Redondela",
        "line": "MD 3 Vigo - Ponferrada"
      },
      "geometry": {
        "type": "Point",
        "coordinates": [
          -8.60372,
          42.28549
        ]
      }
    },
    {
      "type": "Feature",
      "properties": {
        "id": "EST-GUILLAREI",
        "name": "Guillarei",
        "line": "MD 3 Vigo - Ponferrada"
      },
      "geometry": {
        "type": "Point",
        "coordinates": [
          -8.62232,
          42.06571
        ]
      }
    },
    {
      "type": "Feature",
      "properties": {
        "id": "EST-OURENSE",
        "name": "Ourense",
        "line": "MD 3 Vigo - Ponferrada"
      },
      "geometry": {
        "type": "Point",
        "coordinates": [
          -7.87255,
          42.35069
        ]
      }
    },
    {
      "type": "Feature",
      "properties": {
        "id": "EST-MONFORTEDELEMOS",
        "name": "Monforte de Lemos",
        "line": "MD 3 Vigo - Ponferrada"
      },
      "geometry": {
        "type": "Point",
        "coordinates": [
          -7.50314,
          42.52952
        ]
      }
    },
    {
      "type": "Feature",
      "properties": {
        "id": "EST-QUIROGA",
        "name": "Quiroga",
        "line": "MD 3 Vigo - Ponferrada"
      },
      "geometry": {
        "type": "Point",
        "coordinates": [
          -7.28721,
          42.46517
        ]
      }
    },
    {
      "type": "Feature",
      "properties": {
        "id": "EST-ARUAPETIN",
        "name": "A Rúa-Petín",
        "line": "MD 3 Vigo - Ponferrada"
      },
      "geometry": {
        "type": "Point",
        "coordinates": [
          -7.11325,
          42.39261
        ]
      }
    },
    {
      "type": "Feature",
      "properties": {
        "id": "EST-OBARCODEVALDEORRAS",
        "name": "O Barco de Valdeorras",
        "line": "MD 3 Vigo - Ponferrada"
      },
      "geometry": {
        "type": "Point",
        "coordinates": [
          -6.98505,
          42.41826
        ]
      }
    },
    {
      "type": "Feature",
      "properties": {
        "id": "EST-PONFERRADA",
        "name": "Ponferrada",
        "line": "MD 3 Vigo - Ponferrada"
      },
      "geometry": {
        "type": "Point",
        "coordinates": [
          -6.60249,
          42.54566
        ]
      }
    }
  ]
}